{
"type": "FeatureCollection",
"name": "mosques",
"crs": { "type": "name", "properties": { "name": "urn:ogc:def:crs:OGC:1.3:CRS84" } },
"features": [
{ "type": "Feature", "properties": { "DISTRICT": 12, "BLOCK": 1, "NAME_EN": "Albir", "NAME_AR": "البر" }, "geometry": { "type": "Point", "coordinates": [ 36.313120206119407, 32.296234242713659 ] } },
{ "type": "Feature", "properties": { "DISTRICT": 12, "BLOCK": 3, "NAME_EN": "Makiyon1", "NAME_AR": "مكيون ١" }, "geometry": { "type": "Point", "coordinates": [ 36.312031811503758, 32.295300119795549 ] } },
{ "type": "Feature", "properties": { "DISTRICT": 12, "BLOCK": 2, "NAME_EN": "Alhabeeb almostafa", "NAME_AR": "الحبيب المصطفى" }, "geometry": { "type": "Point", "coordinates": [ 36.31434775590202, 32.295711692820809 ] } },
{ "type": "Feature", "properties": { "DISTRICT": 12, "BLOCK": 3, "NAME_EN": "Ja'far altayar", "NAME_AR": "جعفر الطيار" }, "geometry": { "type": "Point", "coordinates": [ 36.317653389856183, 32.294353621263177 ] } },
{ "type": "Feature", "properties": { "DISTRICT": 12, "BLOCK": 3, "NAME_EN": "Almouna", "NAME_AR": "المنى" }, "geometry": { "type": "Point", "coordinates": [ 36.316408184784287, 32.295003782031365 ] } },
{ "type": "Feature", "properties": { "DISTRICT": 12, "BLOCK": 6, "NAME_EN": "Sa'eed bin alousayab", "NAME_AR": "سعيد بن المسيب" }, "geometry": { "type": "Point", "coordinates": [ 36.313365143655311, 32.293388267723024 ] } },
{ "type": "Feature", "properties": { "DISTRICT": 8, "BLOCK": 23, "NAME_EN": "Alzobayr bin awam", "NAME_AR": "الزبير بن عوام" }, "geometry": { "type": "Point", "coordinates": [ 36.335496002661458, 32.282375495461423 ] } },
{ "type": "Feature", "properties": { "DISTRICT": 12, "BLOCK": 10, "NAME_EN": "Hamza bin abdelmoutaleb", "NAME_AR": "حمزة بن عبدالمطلب" }, "geometry": { "type": "Point", "coordinates": [ 36.315539980248793, 32.291024505461763 ] } },
{ "type": "Feature", "properties": { "DISTRICT": 8, "BLOCK": 24, "NAME_EN": "Shohada alghota", "NAME_AR": "شهداء الغوطة" }, "geometry": { "type": "Point", "coordinates": [ 36.338328683581381, 32.281459726131274 ] } },
{ "type": "Feature", "properties": { "DISTRICT": 8, "BLOCK": 20, "NAME_EN": "Alqa'qa bin amro altamimi", "NAME_AR": "القعقاع بن عمرو التميمي" }, "geometry": { "type": "Point", "coordinates": [ 36.337474572755795, 32.283268260663448 ] } },
{ "type": "Feature", "properties": { "DISTRICT": 8, "BLOCK": 8, "NAME_EN": "Alda'wa", "NAME_AR": "الدعوة" }, "geometry": { "type": "Point", "coordinates": [ 36.33864118065447, 32.286603234286915 ] } },
{ "type": "Feature", "properties": { "DISTRICT": 8, "BLOCK": 14, "NAME_EN": "A'l askar", "NAME_AR": "ال عسكر" }, "geometry": { "type": "Point", "coordinates": [ 36.340546257454555, 32.283842611967714 ] } },
{ "type": "Feature", "properties": { "DISTRICT": 8, "BLOCK": 2, "NAME_EN": "Ahl alsoneh", "NAME_AR": "اهل السنة" }, "geometry": { "type": "Point", "coordinates": [ 36.339081041886104, 32.28815519905632 ] } },
{ "type": "Feature", "properties": { "DISTRICT": 7, "BLOCK": 14, "NAME_EN": "Khozayma bin thabet alansari", "NAME_AR": "خزيمة بن ثابت الانصاري" }, "geometry": { "type": "Point", "coordinates": [ 36.342736207407839, 32.291454141433142 ] } },
{ "type": "Feature", "properties": { "DISTRICT": 7, "BLOCK": 1, "NAME_EN": "Ibn katheer aldemashqe", "NAME_AR": "ابن كثير الدمشقي" }, "geometry": { "type": "Point", "coordinates": [ 36.337425984789576, 32.28977213652874 ] } },
{ "type": "Feature", "properties": { "DISTRICT": 7, "BLOCK": 6, "NAME_EN": "Amro bin ala's", "NAME_AR": "عمرو بن العاص" }, "geometry": { "type": "Point", "coordinates": [ 36.34084692412376, 32.289710836522616 ] } },
{ "type": "Feature", "properties": { "DISTRICT": 7, "BLOCK": 18, "NAME_EN": "Ahl alsham", "NAME_AR": "اهل الشام" }, "geometry": { "type": "Point", "coordinates": [ 36.341245363691826, 32.293525426162766 ] } },
{ "type": "Feature", "properties": { "DISTRICT": 7, "BLOCK": 13, "NAME_EN": "Anas bin malek", "NAME_AR": "انس بن مالك" }, "geometry": { "type": "Point", "coordinates": [ 36.340105611073113, 32.292664080620753 ] } },
{ "type": "Feature", "properties": { "DISTRICT": 7, "BLOCK": 21, "NAME_EN": "Altaqwa", "NAME_AR": "التقوى" }, "geometry": { "type": "Point", "coordinates": [ 36.338613180638589, 32.295349542343594 ] } },
{ "type": "Feature", "properties": { "DISTRICT": 7, "BLOCK": 23, "NAME_EN": "Aliman bellah", "NAME_AR": "الايمان بالله" }, "geometry": { "type": "Point", "coordinates": [ 36.339995506868348, 32.296345569066318 ] } },
{ "type": "Feature", "properties": { "DISTRICT": 6, "BLOCK": 18, "NAME_EN": "Sayed bin thabet", "NAME_AR": "زيد بن ثابت" }, "geometry": { "type": "Point", "coordinates": [ 36.334679435006798, 32.290316781054692 ] } },
{ "type": "Feature", "properties": { "DISTRICT": 6, "BLOCK": 14, "NAME_EN": "Alsahabah", "NAME_AR": "الصحابه" }, "geometry": { "type": "Point", "coordinates": [ 36.335313489096173, 32.291657008248592 ] } },
{ "type": "Feature", "properties": { "DISTRICT": 6, "BLOCK": 9, "NAME_EN": "Alwalden", "NAME_AR": "الوالدين" }, "geometry": { "type": "Point", "coordinates": [ 36.334631257525452, 32.294624936248916 ] } },
{ "type": "Feature", "properties": { "DISTRICT": 6, "BLOCK": 15, "NAME_EN": "Aisha bint abi baker", "NAME_AR": "عائشة بنت ابي بكر" }, "geometry": { "type": "Point", "coordinates": [ 36.332866791913858, 32.292403731385313 ] } },
{ "type": "Feature", "properties": { "DISTRICT": 5, "BLOCK": 4, "NAME_EN": "Moa'oya bn abi sofian", "NAME_AR": "معاوية بن ابي سفيان" }, "geometry": { "type": "Point", "coordinates": [ 36.332803032739392, 32.298630964517756 ] } },
{ "type": "Feature", "properties": { "DISTRICT": 6, "BLOCK": 3, "NAME_EN": "Alrayan", "NAME_AR": "الريان" }, "geometry": { "type": "Point", "coordinates": [ 36.333830073496337, 32.297376088162416 ] } },
{ "type": "Feature", "properties": { "DISTRICT": 5, "BLOCK": 20, "NAME_EN": "Abdallah Ben almobarak", "NAME_AR": "عبدالله بن المبارك" }, "geometry": { "type": "Point", "coordinates": [ 36.329500592560009, 32.29492666876375 ] } },
{ "type": "Feature", "properties": { "DISTRICT": 5, "BLOCK": 14, "NAME_EN": "Alomari Alkabeer", "NAME_AR": "جامع العمري الكبير" }, "geometry": { "type": "Point", "coordinates": [ 36.332046440603193, 32.295895067890378 ] } },
{ "type": "Feature", "properties": { "DISTRICT": 5, "BLOCK": 1, "NAME_EN": "Alislah", "NAME_AR": "الاصلاح" }, "geometry": { "type": "Point", "coordinates": [ 36.32963283943802, 32.299993782271386 ] } },
{ "type": "Feature", "properties": { "DISTRICT": 5, "BLOCK": 9, "NAME_EN": "Almohamadi Alkabeer", "NAME_AR": "الجامع المحمدي الكبير" }, "geometry": { "type": "Point", "coordinates": [ 36.329678211785577, 32.297599030781988 ] } },
{ "type": "Feature", "properties": { "DISTRICT": 11, "BLOCK": 16, "NAME_EN": "Alemam moslem", "NAME_AR": "مسجد الامام مسلم" }, "geometry": { "type": "Point", "coordinates": [ 36.321618704480848, 32.286915371838901 ] } },
{ "type": "Feature", "properties": { "DISTRICT": 11, "BLOCK": 11, "NAME_EN": "Khadeja bnt khoiled", "NAME_AR": "خديجه بنت خويلد" }, "geometry": { "type": "Point", "coordinates": [ 36.317663066108871, 32.289683992797869 ] } },
{ "type": "Feature", "properties": { "DISTRICT": 11, "BLOCK": 9, "NAME_EN": "Abo baker alsadeq", "NAME_AR": "ابو بكر الصديق" }, "geometry": { "type": "Point", "coordinates": [ 36.319418959967628, 32.291037459543226 ] } },
{ "type": "Feature", "properties": { "DISTRICT": 11, "BLOCK": 8, "NAME_EN": "Mosa'b beb omair", "NAME_AR": "مصعب بن عمير" }, "geometry": { "type": "Point", "coordinates": [ 36.321823429616572, 32.290695984081161 ] } },
{ "type": "Feature", "properties": { "DISTRICT": 11, "BLOCK": 5, "NAME_EN": "Jaafar beb abi taleb", "NAME_AR": "جعفر بن ابي طالب" }, "geometry": { "type": "Point", "coordinates": [ 36.319929867866158, 32.292244421108755 ] } },
{ "type": "Feature", "properties": { "DISTRICT": 11, "BLOCK": 5, "NAME_EN": "Ali bin abi taleb", "NAME_AR": "علي بن ابي طالب" }, "geometry": { "type": "Point", "coordinates": [ 36.31766508052435, 32.292912571190548 ] } },
{ "type": "Feature", "properties": { "DISTRICT": 11, "BLOCK": 1, "NAME_EN": "Belal alhabashi", "NAME_AR": "بلال الحبشي" }, "geometry": { "type": "Point", "coordinates": [ 36.321316484690442, 32.293869932227665 ] } },
{ "type": "Feature", "properties": { "DISTRICT": 11, "BLOCK": 4, "NAME_EN": "Alhoda", "NAME_AR": "الهدى" }, "geometry": { "type": "Point", "coordinates": [ 36.323967069596165, 32.292829085169593 ] } },
{ "type": "Feature", "properties": { "DISTRICT": 10, "BLOCK": 2, "NAME_EN": "Alforqan", "NAME_AR": "الفرقان" }, "geometry": { "type": "Point", "coordinates": [ 36.327824642610601, 32.292089992188025 ] } },
{ "type": "Feature", "properties": { "DISTRICT": 10, "BLOCK": 4, "NAME_EN": "Othman bin afan", "NAME_AR": "عثمان بن عفان" }, "geometry": { "type": "Point", "coordinates": [ 36.329875547493614, 32.290935840727492 ] } },
{ "type": "Feature", "properties": { "DISTRICT": 10, "BLOCK": 5, "NAME_EN": "Omar almokhtar", "NAME_AR": "عمر المختار" }, "geometry": { "type": "Point", "coordinates": [ 36.326677310779495, 32.290192723605301 ] } },
{ "type": "Feature", "properties": { "DISTRICT": 10, "BLOCK": 7, "NAME_EN": "Harmala bin alwaled", "NAME_AR": "حرمله بن الوليد" }, "geometry": { "type": "Point", "coordinates": [ 36.32420904023477, 32.29064023301413 ] } },
{ "type": "Feature", "properties": { "DISTRICT": 10, "BLOCK": 8, "NAME_EN": "Abi baker alsadeq", "NAME_AR": "ابي بكر الصديق" }, "geometry": { "type": "Point", "coordinates": [ 36.327654057553097, 32.288549858088302 ] } },
{ "type": "Feature", "properties": { "DISTRICT": 10, "BLOCK": 12, "NAME_EN": "Ibn alqaim", "NAME_AR": "ابن القيم" }, "geometry": { "type": "Point", "coordinates": [ 36.325695770585149, 32.287344236903188 ] } },
{ "type": "Feature", "properties": { "DISTRICT": 10, "BLOCK": 11, "NAME_EN": "Abo baker alsadeq", "NAME_AR": "ابو بكر الصديق" }, "geometry": { "type": "Point", "coordinates": [ 36.322935005022323, 32.287946873359928 ] } },
{ "type": "Feature", "properties": { "DISTRICT": 10, "BLOCK": 16, "NAME_EN": "Alkuaiti", "NAME_AR": "الكويتي" }, "geometry": { "type": "Point", "coordinates": [ 36.325668857161354, 32.284901900869784 ] } },
{ "type": "Feature", "properties": { "DISTRICT": 9, "BLOCK": 15, "NAME_EN": "Aisha om almomanin", "NAME_AR": "السيده عائشه ام المؤمنين" }, "geometry": { "type": "Point", "coordinates": [ 36.327808499916124, 32.285185282071659 ] } },
{ "type": "Feature", "properties": { "DISTRICT": 9, "BLOCK": 11, "NAME_EN": "Omar bin alkhatab", "NAME_AR": "عمر بن الخطاب" }, "geometry": { "type": "Point", "coordinates": [ 36.329281293034086, 32.285820354142793 ] } },
{ "type": "Feature", "properties": { "DISTRICT": 9, "BLOCK": 12, "NAME_EN": "Alemam moslem bin alhajaj", "NAME_AR": "الامام مسلم بن الحجاج" }, "geometry": { "type": "Point", "coordinates": [ 36.331782370625774, 32.285075673051956 ] } },
{ "type": "Feature", "properties": { "DISTRICT": 9, "BLOCK": 9, "NAME_EN": null, "NAME_AR": "لا يوجد" }, "geometry": { "type": "Point", "coordinates": [ 36.329071016110589, 32.288067698003914 ] } },
{ "type": "Feature", "properties": { "DISTRICT": 9, "BLOCK": 5, "NAME_EN": "Kaled bin alwaled", "NAME_AR": "خالد بن الوليد" }, "geometry": { "type": "Point", "coordinates": [ 36.329758933726183, 32.289120698203767 ] } },
{ "type": "Feature", "properties": { "DISTRICT": 9, "BLOCK": 6, "NAME_EN": "Om salama", "NAME_AR": "ام سلمه" }, "geometry": { "type": "Point", "coordinates": [ 36.332847368372242, 32.289000439603548 ] } },
{ "type": "Feature", "properties": { "DISTRICT": 3, "BLOCK": 1, "NAME_EN": "Shohadaa alghota", "NAME_AR": "مسجد شهداء الغوطه" }, "geometry": { "type": "Point", "coordinates": [ 36.32504844108697, 32.301551620469255 ] } },
{ "type": "Feature", "properties": { "DISTRICT": 3, "BLOCK": 5, "NAME_EN": "Almohajeren o alansar", "NAME_AR": "مسجد المهاجرين والانصار" }, "geometry": { "type": "Point", "coordinates": [ 36.322793810478906, 32.301105559414928 ] } },
{ "type": "Feature", "properties": { "DISTRICT": 3, "BLOCK": 12, "NAME_EN": "Khaled Ben alwaled", "NAME_AR": "خالد بن الوليد" }, "geometry": { "type": "Point", "coordinates": [ 36.3250772213798, 32.29830388494635 ] } },
{ "type": "Feature", "properties": { "DISTRICT": 3, "BLOCK": 6, "NAME_EN": "Salah Alden alayobi", "NAME_AR": "صلاح الدين الايوبي" }, "geometry": { "type": "Point", "coordinates": [ 36.325790581449027, 32.30024979126992 ] } },
{ "type": "Feature", "properties": { "DISTRICT": 3, "BLOCK": 4, "NAME_EN": "Alkuiti", "NAME_AR": "الكويتي" }, "geometry": { "type": "Point", "coordinates": [ 36.327669469493443, 32.300168460005111 ] } },
{ "type": "Feature", "properties": { "DISTRICT": 4, "BLOCK": 6, "NAME_EN": "Ammar bn yaser", "NAME_AR": "عمار بن ياسر" }, "geometry": { "type": "Point", "coordinates": [ 36.326526431574088, 32.295867362578221 ] } },
{ "type": "Feature", "properties": { "DISTRICT": 4, "BLOCK": 10, "NAME_EN": "Alemam ballah", "NAME_AR": "الايمان بالله" }, "geometry": { "type": "Point", "coordinates": [ 36.3236427395154, 32.295615160394178 ] } },
{ "type": "Feature", "properties": { "DISTRICT": 4, "BLOCK": 11, "NAME_EN": "Alfaroq", "NAME_AR": "الفاروق" }, "geometry": { "type": "Point", "coordinates": [ 36.321294581509115, 32.295932040639059 ] } },
{ "type": "Feature", "properties": { "DISTRICT": 4, "BLOCK": 13, "NAME_EN": "Altawhed", "NAME_AR": "التوحيد" }, "geometry": { "type": "Point", "coordinates": [ 36.318996210890809, 32.295873958374706 ] } },
{ "type": "Feature", "properties": { "DISTRICT": 4, "BLOCK": 11, "NAME_EN": "Almoqdad bn alaswad", "NAME_AR": "المقداد بن الاسود" }, "geometry": { "type": "Point", "coordinates": [ 36.320540639061988, 32.29658459097179 ] } },
{ "type": "Feature", "properties": { "DISTRICT": 4, "BLOCK": 7, "NAME_EN": "Moaath bn jabal", "NAME_AR": "معاذ بن جبل" }, "geometry": { "type": "Point", "coordinates": [ 36.322408824715552, 32.296705434181135 ] } },
{ "type": "Feature", "properties": { "DISTRICT": 4, "BLOCK": 5, "NAME_EN": "Alsadiq alamen", "NAME_AR": "الصادق الامين" }, "geometry": { "type": "Point", "coordinates": [ 36.321177101701061, 32.29771484865303 ] } },
{ "type": "Feature", "properties": { "DISTRICT": 4, "BLOCK": 1, "NAME_EN": "Anas bn malek", "NAME_AR": "انس بن مالك" }, "geometry": { "type": "Point", "coordinates": [ 36.323688300071296, 32.297772191306827 ] } },
{ "type": "Feature", "properties": { "DISTRICT": 2, "BLOCK": 9, "NAME_EN": "Altaqwa", "NAME_AR": "التقوى" }, "geometry": { "type": "Point", "coordinates": [ 36.314286912332179, 32.296739486844309 ] } },
{ "type": "Feature", "properties": { "DISTRICT": 2, "BLOCK": 5, "NAME_EN": "Abo baker alsadeq", "NAME_AR": "ابو بكر الصديق" }, "geometry": { "type": "Point", "coordinates": [ 36.318469203102438, 32.298046104240747 ] } },
{ "type": "Feature", "properties": { "DISTRICT": 2, "BLOCK": 2, "NAME_EN": "Alomari", "NAME_AR": "العمري" }, "geometry": { "type": "Point", "coordinates": [ 36.314498718331642, 32.299431664376677 ] } },
{ "type": "Feature", "properties": { "DISTRICT": 2, "BLOCK": 3, "NAME_EN": "Khadeja", "NAME_AR": "خديجه" }, "geometry": { "type": "Point", "coordinates": [ 36.316643421092628, 32.299073765933841 ] } },
{ "type": "Feature", "properties": { "DISTRICT": 1, "BLOCK": 10, "NAME_EN": "Rohmaa baynahom", "NAME_AR": "رحماء بينهم" }, "geometry": { "type": "Point", "coordinates": [ 36.316709414002112, 32.30074685294305 ] } },
{ "type": "Feature", "properties": { "DISTRICT": 2, "BLOCK": 1, "NAME_EN": "Alkravan", "NAME_AR": "الكرفانه" }, "geometry": { "type": "Point", "coordinates": [ 36.320042248888697, 32.299722697394202 ] } },
{ "type": "Feature", "properties": { "DISTRICT": 1, "BLOCK": 6, "NAME_EN": "Abd alrhman bn awf", "NAME_AR": "عبد الرحمن بن عوف" }, "geometry": { "type": "Point", "coordinates": [ 36.316189573718923, 32.302274957394786 ] } },
{ "type": "Feature", "properties": { "DISTRICT": 1, "BLOCK": 3, "NAME_EN": "Alsalam", "NAME_AR": "السلام" }, "geometry": { "type": "Point", "coordinates": [ 36.319217667220464, 32.303176611305304 ] } },
{ "type": "Feature", "properties": { "DISTRICT": 1, "BLOCK": 6, "NAME_EN": "Zaatari kaber", "NAME_AR": "مسجد الزعتري الكبير" }, "geometry": { "type": "Point", "coordinates": [ 36.319572035342809, 32.301893435804693 ] } },
{ "type": "Feature", "properties": { "DISTRICT": 1, "BLOCK": 8, "NAME_EN": "Alfaroq", "NAME_AR": "الفاروق" }, "geometry": { "type": "Point", "coordinates": [ 36.317058288629312, 32.301432178755803 ] } },
{ "type": "Feature", "properties": { "DISTRICT": 8, "BLOCK": 11, "NAME_EN": null, "NAME_AR": null }, "geometry": { "type": "Point", "coordinates": [ 36.334754421360621, 32.286509166540789 ] } }
]
}
