{
"type": "FeatureCollection",
"name": "facilityCentiods",
"crs": { "type": "name", "properties": { "name": "urn:ogc:def:crs:OGC:1.3:CRS84" } },
"features": [
{ "type": "Feature", "properties": { "OBJECTID_1": 1, "TYPE": "Warehouse", "HEALTH_TYP": "Camp Facility", "OPERATOR": "UNICEF\/Mercy Corps", "IS_CONSTRU": null, "DISTRICT": 1, "NAME_EN": "UNICEF\/Mercy Corps Offices and Stores", "NAME_AR": "Ù…Ø³ØªÙˆØ¯Ø¹ Ù…ÙŠØ±Ø³ÙŠ ÙƒÙˆØ±", "HOURS_EN": null, "HOURS_AR": null, "HEALTH_EN": null, "HEALTH_AR": null, "EMERGENCY": null, "REPRODUCTI": null, "MALNUTRITI": null, "VACCINATIO": null, "ACUTE_COND": null, "ORT": null, "GBV": null, "DENTIST": null, "PSYCHOTHER": null, "SECONDARY": null, "PHYSIOTHER": null }, "geometry": { "type": "Point", "coordinates": [ 36.3221262466, 32.3040215691 ] } },
{ "type": "Feature", "properties": { "OBJECTID_1": 2, "TYPE": "Office", "HEALTH_TYP": "Camp Facility", "OPERATOR": "Imdad", "IS_CONSTRU": null, "DISTRICT": 1, "NAME_EN": "Imdad Construction Company", "NAME_AR": "Ø´Ø±ÙƒØ© Ù…Ù‚Ø§ÙˆÙ„Ø§Øª Ø§Ù…Ø¯Ø§Ø¯", "HOURS_EN": null, "HOURS_AR": null, "HEALTH_EN": null, "HEALTH_AR": null, "EMERGENCY": null, "REPRODUCTI": null, "MALNUTRITI": null, "VACCINATIO": null, "ACUTE_COND": null, "ORT": null, "GBV": null, "DENTIST": null, "PSYCHOTHER": null, "SECONDARY": null, "PHYSIOTHER": null }, "geometry": { "type": "Point", "coordinates": [ 36.3220423164, 32.3034358685 ] } },
{ "type": "Feature", "properties": { "OBJECTID_1": 3, "TYPE": "Health", "HEALTH_TYP": "Healthcare Facility", "OPERATOR": "military", "IS_CONSTRU": null, "DISTRICT": 3, "NAME_EN": "Moroccan Field Hospital", "NAME_AR": "Ø§Ù„Ù…Ø³ØªØ´ÙÙ‰ Ø§Ù„Ù…ØºØ±Ø¨ÙŠ", "HOURS_EN": "9:00am-12:30pm (Sat-Thu), ER: 24\/7", "HOURS_AR": "9:00am-12:30pm (Sat-Thu), ER: 24\/7", "HEALTH_EN": "acute and chronic condition management, anaesthesiologist, cardiologist, dentist, dermatologist, emergency, ENT, gynaecologist, laboratory, ophthalmologist, ORT, paediatrics, pharmacist, pneumatologist, psychiatric, radiography, surgery, urologist", "HEALTH_AR": "acute and chronic condition management, anaesthesiologist, cardiologist, dentist, dermatologist, emergency, ENT, gynaecologist, laboratory, ophthalmologist, ORT, paediatrics, pharmacist, pneumatologist, psychiatric, radiography, surgery, urologist", "EMERGENCY": "Y", "REPRODUCTI": "N", "MALNUTRITI": "N", "VACCINATIO": "N", "ACUTE_COND": "Y", "ORT": "Y", "GBV": "N", "DENTIST": "Y", "PSYCHOTHER": "N", "SECONDARY": "Y", "PHYSIOTHER": "N" }, "geometry": { "type": "Point", "coordinates": [ 36.322658094, 32.3026230749 ] } },
{ "type": "Feature", "properties": { "OBJECTID_1": 4, "TYPE": "Health", "HEALTH_TYP": "Healthcare Facility", "OPERATOR": "military", "IS_CONSTRU": null, "DISTRICT": 3, "NAME_EN": "Jordanian - Italian Hospital RMS", "NAME_AR": "Ø§Ù„Ù…Ø³ØªØ´ÙÙ‰ Ø§Ù„Ø§Ø±Ø¯Ù†ÙŠ - Ø§Ù„Ø§ÙŠØ·Ø§Ù„ÙŠ", "HOURS_EN": "8:30am-3:00pm (Sun-Thu)", "HOURS_AR": "8:30am-3:00pm (Sun-Thu)", "HEALTH_EN": "echo, gynaecologist, internal medicine, paediatrics, radiologist, surgeon", "HEALTH_AR": "echo, gynaecologist, internal medicine, paediatrics, radiologist, surgeon", "EMERGENCY": "N", "REPRODUCTI": "N", "MALNUTRITI": "N", "VACCINATIO": "N", "ACUTE_COND": "N", "ORT": "N", "GBV": "N", "DENTIST": "N", "PSYCHOTHER": "N", "SECONDARY": "Y", "PHYSIOTHER": "N" }, "geometry": { "type": "Point", "coordinates": [ 36.3221302212, 32.3022589748 ] } },
{ "type": "Feature", "properties": { "OBJECTID_1": 5, "TYPE": "Community Center", "HEALTH_TYP": "Camp Facility with Health Services", "OPERATOR": "UNFPA\/Noor Hussein Foundation", "IS_CONSTRU": null, "DISTRICT": 2, "NAME_EN": "JHAS RH & Noor Hussein", "NAME_AR": "Ù…Ø±ÙƒØ² Ø§Ù„Ù…Ø±Ø§Ù‡ Ù†ÙˆØ± Ø§Ù„Ø­Ø³ÙŠÙ†", "HOURS_EN": "9:00am-4:00pm (Sun-Thu)", "HOURS_AR": "9:00am-4:00pm (Sun-Thu)", "HEALTH_EN": "JHAS RH: ante and post-natal care. IFH\/NHF: family planning, gender-based violence support, reproductive care.", "HEALTH_AR": "JHAS RH: ante and post-natal care. IFH\/NHF: family planning, gender-based violence support, reproductive care.", "EMERGENCY": "N", "REPRODUCTI": "Y", "MALNUTRITI": "N", "VACCINATIO": "N", "ACUTE_COND": "N", "ORT": "N", "GBV": "Y", "DENTIST": "N", "PSYCHOTHER": "N", "SECONDARY": "N", "PHYSIOTHER": "N" }, "geometry": { "type": "Point", "coordinates": [ 36.3200129746, 32.2993119268 ] } },
{ "type": "Feature", "properties": { "OBJECTID_1": 6, "TYPE": "Community Center", "HEALTH_TYP": "Camp Facility", "OPERATOR": null, "IS_CONSTRU": null, "DISTRICT": 2, "NAME_EN": "IRD Community Center", "NAME_AR": "IRD Ù…Ø±ÙƒØ² Ø§Ø¬ØªÙ…Ø§Ø¹ÙŠ", "HOURS_EN": null, "HOURS_AR": null, "HEALTH_EN": null, "HEALTH_AR": null, "EMERGENCY": null, "REPRODUCTI": null, "MALNUTRITI": null, "VACCINATIO": null, "ACUTE_COND": null, "ORT": null, "GBV": null, "DENTIST": null, "PSYCHOTHER": null, "SECONDARY": null, "PHYSIOTHER": null }, "geometry": { "type": "Point", "coordinates": [ 36.3169564279, 32.2985568807 ] } },
{ "type": "Feature", "properties": { "OBJECTID_1": 7, "TYPE": "Distribution Point", "HEALTH_TYP": "Camp Facility", "OPERATOR": "SCI", "IS_CONSTRU": null, "DISTRICT": 4, "NAME_EN": "WFP Distribution Centre", "NAME_AR": "Ù…Ø±ÙƒØ² ØªÙˆØ²ÙŠØ¹ WFP", "HOURS_EN": null, "HOURS_AR": null, "HEALTH_EN": null, "HEALTH_AR": null, "EMERGENCY": null, "REPRODUCTI": null, "MALNUTRITI": null, "VACCINATIO": null, "ACUTE_COND": null, "ORT": null, "GBV": null, "DENTIST": null, "PSYCHOTHER": null, "SECONDARY": null, "PHYSIOTHER": null }, "geometry": { "type": "Point", "coordinates": [ 36.3203060863, 32.2978160436 ] } },
{ "type": "Feature", "properties": { "OBJECTID_1": 8, "TYPE": "Child Friendly Space", "HEALTH_TYP": "Camp Facility", "OPERATOR": "SCI", "IS_CONSTRU": null, "DISTRICT": 2, "NAME_EN": "CFS Apple", "NAME_AR": "Ù…Ø³Ø§Ø­Ø© ØµØ¯ÙŠÙ‚Ø© Ù„Ù„Ø·ÙÙ„", "HOURS_EN": null, "HOURS_AR": null, "HEALTH_EN": null, "HEALTH_AR": null, "EMERGENCY": null, "REPRODUCTI": null, "MALNUTRITI": null, "VACCINATIO": null, "ACUTE_COND": null, "ORT": null, "GBV": null, "DENTIST": null, "PSYCHOTHER": null, "SECONDARY": null, "PHYSIOTHER": null }, "geometry": { "type": "Point", "coordinates": [ 36.3176141755, 32.2977408768 ] } },
{ "type": "Feature", "properties": { "OBJECTID_1": 9, "TYPE": "Vacant", "HEALTH_TYP": "Camp Facility", "OPERATOR": "MDM", "IS_CONSTRU": null, "DISTRICT": 4, "NAME_EN": "Vacant", "NAME_AR": "Ù…Ø³Ø§Ø­Ø© Ø´Ø§ØºØ±Ø©", "HOURS_EN": null, "HOURS_AR": null, "HEALTH_EN": null, "HEALTH_AR": null, "EMERGENCY": null, "REPRODUCTI": null, "MALNUTRITI": null, "VACCINATIO": null, "ACUTE_COND": null, "ORT": null, "GBV": null, "DENTIST": null, "PSYCHOTHER": null, "SECONDARY": null, "PHYSIOTHER": null }, "geometry": { "type": "Point", "coordinates": [ 36.3193986425, 32.2968722083 ] } },
{ "type": "Feature", "properties": { "OBJECTID_1": 10, "TYPE": "Vacant", "HEALTH_TYP": "Camp Facility", "OPERATOR": "KSA", "IS_CONSTRU": null, "DISTRICT": 4, "NAME_EN": "Vacant", "NAME_AR": "Ù…Ø³Ø§Ø­Ø© Ø´Ø§ØºØ±Ø©", "HOURS_EN": null, "HOURS_AR": null, "HEALTH_EN": null, "HEALTH_AR": null, "EMERGENCY": null, "REPRODUCTI": null, "MALNUTRITI": null, "VACCINATIO": null, "ACUTE_COND": null, "ORT": null, "GBV": null, "DENTIST": null, "PSYCHOTHER": null, "SECONDARY": null, "PHYSIOTHER": null }, "geometry": { "type": "Point", "coordinates": [ 36.3192895119, 32.2966288731 ] } },
{ "type": "Feature", "properties": { "OBJECTID_1": 11, "TYPE": "Registration", "HEALTH_TYP": "Camp Facility", "OPERATOR": "UNHCR", "IS_CONSTRU": null, "DISTRICT": 3, "NAME_EN": "UNHCR Registration", "NAME_AR": "Ù…ÙƒØ§ØªØ¨ Ø§Ù„Ø§Ø³ØªÙ‚Ø¨Ø§Ù„ Ø§Ù„Ù…ÙÙˆØ¶ÙŠØ©", "HOURS_EN": null, "HOURS_AR": null, "HEALTH_EN": null, "HEALTH_AR": null, "EMERGENCY": null, "REPRODUCTI": null, "MALNUTRITI": null, "VACCINATIO": null, "ACUTE_COND": null, "ORT": null, "GBV": null, "DENTIST": null, "PSYCHOTHER": null, "SECONDARY": null, "PHYSIOTHER": null }, "geometry": { "type": "Point", "coordinates": [ 36.3237452089, 32.3033136134 ] } },
{ "type": "Feature", "properties": { "OBJECTID_1": 12, "TYPE": "Child Friendly Space", "HEALTH_TYP": "Camp Facility", "OPERATOR": "SCI", "IS_CONSTRU": null, "DISTRICT": 1, "NAME_EN": "CFS Dinosaur", "NAME_AR": "Ù…Ø³Ø§Ø­Ø© ØµØ¯ÙŠÙ‚Ø© Ù„Ù„Ø·ÙÙ„ Ø¯ÙŠÙ†Ø§ØµÙˆØ±", "HOURS_EN": null, "HOURS_AR": null, "HEALTH_EN": null, "HEALTH_AR": null, "EMERGENCY": null, "REPRODUCTI": null, "MALNUTRITI": null, "VACCINATIO": null, "ACUTE_COND": null, "ORT": null, "GBV": null, "DENTIST": null, "PSYCHOTHER": null, "SECONDARY": null, "PHYSIOTHER": null }, "geometry": { "type": "Point", "coordinates": [ 36.3197624567, 32.3021352484 ] } },
{ "type": "Feature", "properties": { "OBJECTID_1": 13, "TYPE": "Child Friendly Space", "HEALTH_TYP": "Camp Facility", "OPERATOR": "SCI", "IS_CONSTRU": null, "DISTRICT": 2, "NAME_EN": "CFS C", "NAME_AR": "Ù…Ø³Ø§Ø­Ø© ØµØ¯ÙŠÙ‚Ø© Ù„Ù„Ø·ÙÙ„", "HOURS_EN": null, "HOURS_AR": null, "HEALTH_EN": null, "HEALTH_AR": null, "EMERGENCY": null, "REPRODUCTI": null, "MALNUTRITI": null, "VACCINATIO": null, "ACUTE_COND": null, "ORT": null, "GBV": null, "DENTIST": null, "PSYCHOTHER": null, "SECONDARY": null, "PHYSIOTHER": null }, "geometry": { "type": "Point", "coordinates": [ 36.3156404628, 32.3003714333 ] } },
{ "type": "Feature", "properties": { "OBJECTID_1": 14, "TYPE": "Health", "HEALTH_TYP": "Healthcare Facility", "OPERATOR": "IMC \/ JHAS", "IS_CONSTRU": "Y", "DISTRICT": 3, "NAME_EN": "EMPHNET", "NAME_AR": "EMPHNET", "HOURS_EN": null, "HOURS_AR": null, "HEALTH_EN": "vaccination", "HEALTH_AR": "vaccination", "EMERGENCY": "N", "REPRODUCTI": "N", "MALNUTRITI": "N", "VACCINATIO": "Y", "ACUTE_COND": "N", "ORT": "N", "GBV": "N", "DENTIST": "N", "PSYCHOTHER": "N", "SECONDARY": "N", "PHYSIOTHER": "N" }, "geometry": { "type": "Point", "coordinates": [ 36.3204439883, 32.2991221014 ] } },
{ "type": "Feature", "properties": { "OBJECTID_1": 15, "TYPE": "Vacant", "HEALTH_TYP": "Camp Facility", "OPERATOR": "Vacant", "IS_CONSTRU": null, "DISTRICT": 3, "NAME_EN": "Vacant", "NAME_AR": "Ù…Ø³Ø§Ø­Ø© Ø´Ø§ØºØ±Ø©", "HOURS_EN": null, "HOURS_AR": null, "HEALTH_EN": null, "HEALTH_AR": null, "EMERGENCY": null, "REPRODUCTI": null, "MALNUTRITI": null, "VACCINATIO": null, "ACUTE_COND": null, "ORT": null, "GBV": null, "DENTIST": null, "PSYCHOTHER": null, "SECONDARY": null, "PHYSIOTHER": null }, "geometry": { "type": "Point", "coordinates": [ 36.3232138888, 32.3020217708 ] } },
{ "type": "Feature", "properties": { "OBJECTID_1": 16, "TYPE": "Community Center", "HEALTH_TYP": "Camp Facility", "OPERATOR": "UNFPA\/Noor Hussein Foundation", "IS_CONSTRU": null, "DISTRICT": 3, "NAME_EN": "Noor Hussein\/UN Women Oasis 1", "NAME_AR": "Ù…Ø±ÙƒØ² Ø§Ù„Ù…Ø±Ø§Ù‡ Ù†ÙˆØ± Ø§Ù„Ø­Ø³ÙŠÙ†", "HOURS_EN": null, "HOURS_AR": null, "HEALTH_EN": null, "HEALTH_AR": null, "EMERGENCY": null, "REPRODUCTI": null, "MALNUTRITI": null, "VACCINATIO": null, "ACUTE_COND": null, "ORT": null, "GBV": null, "DENTIST": null, "PSYCHOTHER": null, "SECONDARY": null, "PHYSIOTHER": null }, "geometry": { "type": "Point", "coordinates": [ 36.3226842862, 32.300274781 ] } },
{ "type": "Feature", "properties": { "OBJECTID_1": 17, "TYPE": "Kindergarten", "HEALTH_TYP": "Camp Facility", "OPERATOR": "SCI", "IS_CONSTRU": null, "DISTRICT": 3, "NAME_EN": "Rainbow Kindergarten", "NAME_AR": "Ø±ÙˆØ¶Ø© Ù‚ÙˆØ³ Ù‚Ø²Ø­", "HOURS_EN": null, "HOURS_AR": null, "HEALTH_EN": null, "HEALTH_AR": null, "EMERGENCY": null, "REPRODUCTI": null, "MALNUTRITI": null, "VACCINATIO": null, "ACUTE_COND": null, "ORT": null, "GBV": null, "DENTIST": null, "PSYCHOTHER": null, "SECONDARY": null, "PHYSIOTHER": null }, "geometry": { "type": "Point", "coordinates": [ 36.3229695035, 32.3001270317 ] } },
{ "type": "Feature", "properties": { "OBJECTID_1": 18, "TYPE": "School", "HEALTH_TYP": "Camp Facility", "OPERATOR": "RI", "IS_CONSTRU": null, "DISTRICT": 3, "NAME_EN": "School 4 (Annex)", "NAME_AR": "Ø§Ù„Ù…Ø¯Ø±Ø³Ø© 4", "HOURS_EN": null, "HOURS_AR": null, "HEALTH_EN": null, "HEALTH_AR": null, "EMERGENCY": null, "REPRODUCTI": null, "MALNUTRITI": null, "VACCINATIO": null, "ACUTE_COND": null, "ORT": null, "GBV": null, "DENTIST": null, "PSYCHOTHER": null, "SECONDARY": null, "PHYSIOTHER": null }, "geometry": { "type": "Point", "coordinates": [ 36.322236628, 32.3008833993 ] } },
{ "type": "Feature", "properties": { "OBJECTID_1": 19, "TYPE": "Youth Center", "HEALTH_TYP": "Camp Facility", "OPERATOR": "IMC", "IS_CONSTRU": null, "DISTRICT": 4, "NAME_EN": "IMC AFS 1 Venus", "NAME_AR": "IMC Ø¹Ø·Ø§Ø±Ø¯", "HOURS_EN": null, "HOURS_AR": null, "HEALTH_EN": null, "HEALTH_AR": null, "EMERGENCY": null, "REPRODUCTI": null, "MALNUTRITI": null, "VACCINATIO": null, "ACUTE_COND": null, "ORT": null, "GBV": null, "DENTIST": null, "PSYCHOTHER": null, "SECONDARY": null, "PHYSIOTHER": null }, "geometry": { "type": "Point", "coordinates": [ 36.3216358642, 32.2963959857 ] } },
{ "type": "Feature", "properties": { "OBJECTID_1": 20, "TYPE": "School", "HEALTH_TYP": "Camp Facility", "OPERATOR": "NRC", "IS_CONSTRU": null, "DISTRICT": 3, "NAME_EN": "School 1 (Bahrain)", "NAME_AR": "Ø§Ù„Ù…Ø¯Ø±Ø³Ø© 1 Ø§Ù„Ø¨Ø­Ø±ÙŠÙ†ÙŠØ©", "HOURS_EN": null, "HOURS_AR": null, "HEALTH_EN": null, "HEALTH_AR": null, "EMERGENCY": null, "REPRODUCTI": null, "MALNUTRITI": null, "VACCINATIO": null, "ACUTE_COND": null, "ORT": null, "GBV": null, "DENTIST": null, "PSYCHOTHER": null, "SECONDARY": null, "PHYSIOTHER": null }, "geometry": { "type": "Point", "coordinates": [ 36.3216364853, 32.2990201329 ] } },
{ "type": "Feature", "properties": { "OBJECTID_1": 21, "TYPE": "Vacant", "HEALTH_TYP": "Camp Facility", "OPERATOR": "SCI", "IS_CONSTRU": null, "DISTRICT": 3, "NAME_EN": "Vacant", "NAME_AR": "Ù…Ø³Ø§Ø­Ø© Ø´Ø§ØºØ±Ø©", "HOURS_EN": null, "HOURS_AR": null, "HEALTH_EN": null, "HEALTH_AR": null, "EMERGENCY": null, "REPRODUCTI": null, "MALNUTRITI": null, "VACCINATIO": null, "ACUTE_COND": null, "ORT": null, "GBV": null, "DENTIST": null, "PSYCHOTHER": null, "SECONDARY": null, "PHYSIOTHER": null }, "geometry": { "type": "Point", "coordinates": [ 36.3225532759, 32.2991322759 ] } },
{ "type": "Feature", "properties": { "OBJECTID_1": 22, "TYPE": "Office", "HEALTH_TYP": "Camp Facility", "OPERATOR": "ACTED", "IS_CONSTRU": null, "DISTRICT": 1, "NAME_EN": "ACTED", "NAME_AR": "Ø§ÙƒØªØ¯", "HOURS_EN": null, "HOURS_AR": null, "HEALTH_EN": null, "HEALTH_AR": null, "EMERGENCY": null, "REPRODUCTI": null, "MALNUTRITI": null, "VACCINATIO": null, "ACUTE_COND": null, "ORT": null, "GBV": null, "DENTIST": null, "PSYCHOTHER": null, "SECONDARY": null, "PHYSIOTHER": null }, "geometry": { "type": "Point", "coordinates": [ 36.3203975838, 32.3039294989 ] } },
{ "type": "Feature", "properties": { "OBJECTID_1": 23, "TYPE": "Registration", "HEALTH_TYP": "Camp Facility", "OPERATOR": "NRC", "IS_CONSTRU": null, "DISTRICT": 3, "NAME_EN": "New Arrivals Registration", "NAME_AR": "Ù…ÙƒØ§ØªØ¨ Ø§Ù„Ø§Ø³ØªÙ‚Ø¨Ø§Ù„", "HOURS_EN": null, "HOURS_AR": null, "HEALTH_EN": null, "HEALTH_AR": null, "EMERGENCY": null, "REPRODUCTI": null, "MALNUTRITI": null, "VACCINATIO": null, "ACUTE_COND": null, "ORT": null, "GBV": null, "DENTIST": null, "PSYCHOTHER": null, "SECONDARY": null, "PHYSIOTHER": null }, "geometry": { "type": "Point", "coordinates": [ 36.3247830028, 32.303010774 ] } },
{ "type": "Feature", "properties": { "OBJECTID_1": 24, "TYPE": "Office", "HEALTH_TYP": "Camp Facility", "OPERATOR": null, "IS_CONSTRU": null, "DISTRICT": 3, "NAME_EN": "Parking Lot", "NAME_AR": "Ù…ÙˆÙ‚Ù  Ø³ÙŠØ§Ø±Ø§Øª", "HOURS_EN": null, "HOURS_AR": null, "HEALTH_EN": null, "HEALTH_AR": null, "EMERGENCY": null, "REPRODUCTI": null, "MALNUTRITI": null, "VACCINATIO": null, "ACUTE_COND": null, "ORT": null, "GBV": null, "DENTIST": null, "PSYCHOTHER": null, "SECONDARY": null, "PHYSIOTHER": null }, "geometry": { "type": "Point", "coordinates": [ 36.3262927391, 32.3025096275 ] } },
{ "type": "Feature", "properties": { "OBJECTID_1": 25, "TYPE": "Office", "HEALTH_TYP": "Camp Facility with Health Services", "OPERATOR": "UNHCR", "IS_CONSTRU": null, "DISTRICT": 3, "NAME_EN": "Base Camp", "NAME_AR": "Ù…ÙƒØ§ØªØ¨ Ø§Ù„Ù…Ù†Ø¸Ù…Ø§Øª", "HOURS_EN": "MoH: 9:00am-1:00pm (Sun-Thu), EMPHNET: 9:00am-3:30pm (Sun-Thu)", "HOURS_AR": "MoH: 9:00am-1:00pm (Sun-Thu), EMPHNET: 9:00am-3:30pm (Sun-Thu)", "HEALTH_EN": "MoH: coordination of health services, reproductive care, vaccination. EMPHNET: coordination of health services, outreach.", "HEALTH_AR": "MoH: coordination of health services, reproductive care, vaccination. EMPHNET: coordination of health services, outreach.", "EMERGENCY": "N", "REPRODUCTI": "Y", "MALNUTRITI": "N", "VACCINATIO": "Y", "ACUTE_COND": "N", "ORT": "N", "GBV": "N", "DENTIST": "N", "PSYCHOTHER": "N", "SECONDARY": "N", "PHYSIOTHER": "N" }, "geometry": { "type": "Point", "coordinates": [ 36.3273930663, 32.3020471104 ] } },
{ "type": "Feature", "properties": { "OBJECTID_1": 26, "TYPE": "Community Center", "HEALTH_TYP": "Camp Facility", "OPERATOR": "ACTED", "IS_CONSTRU": null, "DISTRICT": 2, "NAME_EN": "ACTED Cedar", "NAME_AR": "Ø®ÙŠÙ…Ø© Ø§Ù„Ø§Ø±Ø² Ø§ÙƒØªØ¯", "HOURS_EN": null, "HOURS_AR": null, "HEALTH_EN": null, "HEALTH_AR": null, "EMERGENCY": null, "REPRODUCTI": null, "MALNUTRITI": null, "VACCINATIO": null, "ACUTE_COND": null, "ORT": null, "GBV": null, "DENTIST": null, "PSYCHOTHER": null, "SECONDARY": null, "PHYSIOTHER": null }, "geometry": { "type": "Point", "coordinates": [ 36.3176114728, 32.299569048 ] } },
{ "type": "Feature", "properties": { "OBJECTID_1": 27, "TYPE": "Community Center", "HEALTH_TYP": "Camp Facility", "OPERATOR": "JEN", "IS_CONSTRU": null, "DISTRICT": 3, "NAME_EN": "JEN", "NAME_AR": "JENÙ…Ø±ÙƒØ² Ø§Ø¬ØªÙ…Ø§Ø¹ÙŠ", "HOURS_EN": null, "HOURS_AR": null, "HEALTH_EN": null, "HEALTH_AR": null, "EMERGENCY": null, "REPRODUCTI": null, "MALNUTRITI": null, "VACCINATIO": null, "ACUTE_COND": null, "ORT": null, "GBV": null, "DENTIST": null, "PSYCHOTHER": null, "SECONDARY": null, "PHYSIOTHER": null }, "geometry": { "type": "Point", "coordinates": [ 36.3233121444, 32.2998346533 ] } },
{ "type": "Feature", "properties": { "OBJECTID_1": 28, "TYPE": "School", "HEALTH_TYP": "Camp Facility", "OPERATOR": "UNICEF", "IS_CONSTRU": null, "DISTRICT": 1, "NAME_EN": "School 8", "NAME_AR": "Ø§Ù„Ù…Ø¯Ø±Ø³Ù‡ 8", "HOURS_EN": null, "HOURS_AR": null, "HEALTH_EN": null, "HEALTH_AR": null, "EMERGENCY": null, "REPRODUCTI": null, "MALNUTRITI": null, "VACCINATIO": null, "ACUTE_COND": null, "ORT": null, "GBV": null, "DENTIST": null, "PSYCHOTHER": null, "SECONDARY": null, "PHYSIOTHER": null }, "geometry": { "type": "Point", "coordinates": [ 36.3213834559, 32.3035831412 ] } },
{ "type": "Feature", "properties": { "OBJECTID_1": 29, "TYPE": "Recreation", "HEALTH_TYP": "Camp Facility", "OPERATOR": "Mercy Corps", "IS_CONSTRU": null, "DISTRICT": 4, "NAME_EN": "Mercy Corps Dream Land", "NAME_AR": "Ù…Ù†Ø·Ù‚Ø© ØªØ±ÙÙŠÙ‡ÙŠØ©", "HOURS_EN": null, "HOURS_AR": null, "HEALTH_EN": null, "HEALTH_AR": null, "EMERGENCY": null, "REPRODUCTI": null, "MALNUTRITI": null, "VACCINATIO": null, "ACUTE_COND": null, "ORT": null, "GBV": null, "DENTIST": null, "PSYCHOTHER": null, "SECONDARY": null, "PHYSIOTHER": null }, "geometry": { "type": "Point", "coordinates": [ 36.3197563956, 32.295552385 ] } },
{ "type": "Feature", "properties": { "OBJECTID_1": 30, "TYPE": "School", "HEALTH_TYP": "Camp Facility", "OPERATOR": "NRC", "IS_CONSTRU": null, "DISTRICT": 4, "NAME_EN": "School 9", "NAME_AR": "Ø§Ù„Ù…Ø¯Ø±Ø³Ù‡ 9", "HOURS_EN": null, "HOURS_AR": null, "HEALTH_EN": null, "HEALTH_AR": null, "EMERGENCY": null, "REPRODUCTI": null, "MALNUTRITI": null, "VACCINATIO": null, "ACUTE_COND": null, "ORT": null, "GBV": null, "DENTIST": null, "PSYCHOTHER": null, "SECONDARY": null, "PHYSIOTHER": null }, "geometry": { "type": "Point", "coordinates": [ 36.3204915956, 32.2953389552 ] } },
{ "type": "Feature", "properties": { "OBJECTID_1": 31, "TYPE": "Community Center", "HEALTH_TYP": "Camp Facility", "OPERATOR": "ACTED", "IS_CONSTRU": null, "DISTRICT": 12, "NAME_EN": "ACTED Apple", "NAME_AR": "Ø§Ù„ØªÙØ§Ø­Ø© Ø§ÙƒØªØ¯", "HOURS_EN": null, "HOURS_AR": null, "HEALTH_EN": null, "HEALTH_AR": null, "EMERGENCY": null, "REPRODUCTI": null, "MALNUTRITI": null, "VACCINATIO": null, "ACUTE_COND": null, "ORT": null, "GBV": null, "DENTIST": null, "PSYCHOTHER": null, "SECONDARY": null, "PHYSIOTHER": null }, "geometry": { "type": "Point", "coordinates": [ 36.3165765186, 32.2949290375 ] } },
{ "type": "Feature", "properties": { "OBJECTID_1": 32, "TYPE": "Playground", "HEALTH_TYP": "Camp Facility", "OPERATOR": "Mercy Corps", "IS_CONSTRU": null, "DISTRICT": 9, "NAME_EN": "Mercy Corps Playground M5", "NAME_AR": "Ù…Ù†Ø·Ù‚Ø© Ù„Ø¹Ø¨ Ù…ÙŠØ±Ø³ÙŠ ÙƒÙˆØ±M5", "HOURS_EN": null, "HOURS_AR": null, "HEALTH_EN": null, "HEALTH_AR": null, "EMERGENCY": null, "REPRODUCTI": null, "MALNUTRITI": null, "VACCINATIO": null, "ACUTE_COND": null, "ORT": null, "GBV": null, "DENTIST": null, "PSYCHOTHER": null, "SECONDARY": null, "PHYSIOTHER": null }, "geometry": { "type": "Point", "coordinates": [ 36.3302706792, 32.2849111764 ] } },
{ "type": "Feature", "properties": { "OBJECTID_1": 33, "TYPE": "School", "HEALTH_TYP": "Camp Facility", "OPERATOR": "UNICEF", "IS_CONSTRU": "Y", "DISTRICT": 10, "NAME_EN": "UNICEF School", "NAME_AR": "Ù…Ø¯Ø±Ø³Ø© Ø§Ù„ÙŠÙˆÙ†ÙŠØ³ÙŠÙ", "HOURS_EN": null, "HOURS_AR": null, "HEALTH_EN": null, "HEALTH_AR": null, "EMERGENCY": null, "REPRODUCTI": null, "MALNUTRITI": null, "VACCINATIO": null, "ACUTE_COND": null, "ORT": null, "GBV": null, "DENTIST": null, "PSYCHOTHER": null, "SECONDARY": null, "PHYSIOTHER": null }, "geometry": { "type": "Point", "coordinates": [ 36.3228670064, 32.28591664 ] } },
{ "type": "Feature", "properties": { "OBJECTID_1": 34, "TYPE": "Youth Center", "HEALTH_TYP": "Camp Facility", "OPERATOR": "SCI", "IS_CONSTRU": null, "DISTRICT": 10, "NAME_EN": "Multiactivity Centre 1 Male", "NAME_AR": "Ù…Ø±ÙƒØ² Ø§Ù„Ù†Ø´Ø§Ø·Ø§Øª Ù„Ù„Ø´Ø¨Ø§Ø¨ 1", "HOURS_EN": null, "HOURS_AR": null, "HEALTH_EN": null, "HEALTH_AR": null, "EMERGENCY": null, "REPRODUCTI": null, "MALNUTRITI": null, "VACCINATIO": null, "ACUTE_COND": null, "ORT": null, "GBV": null, "DENTIST": null, "PSYCHOTHER": null, "SECONDARY": null, "PHYSIOTHER": null }, "geometry": { "type": "Point", "coordinates": [ 36.3221511431, 32.285831298 ] } },
{ "type": "Feature", "properties": { "OBJECTID_1": 35, "TYPE": "Kindergarten", "HEALTH_TYP": "Camp Facility", "OPERATOR": "SCI", "IS_CONSTRU": null, "DISTRICT": 9, "NAME_EN": "Little Hands Kindergarten", "NAME_AR": "Ø±ÙˆØ¶Ø© Ø§Ù„Ø§ÙŠØ§Ø¯ÙŠ Ø§Ù„ØµØºÙŠØ±Ø©", "HOURS_EN": null, "HOURS_AR": null, "HEALTH_EN": null, "HEALTH_AR": null, "EMERGENCY": null, "REPRODUCTI": null, "MALNUTRITI": null, "VACCINATIO": null, "ACUTE_COND": null, "ORT": null, "GBV": null, "DENTIST": null, "PSYCHOTHER": null, "SECONDARY": null, "PHYSIOTHER": null }, "geometry": { "type": "Point", "coordinates": [ 36.3306539333, 32.2859771882 ] } },
{ "type": "Feature", "properties": { "OBJECTID_1": 36, "TYPE": "Vacant", "HEALTH_TYP": "Camp Facility", "OPERATOR": null, "IS_CONSTRU": null, "DISTRICT": 9, "NAME_EN": "Vacant", "NAME_AR": "Ù…Ø³Ø§Ø­Ø© Ø´Ø§ØºØ±Ø©", "HOURS_EN": null, "HOURS_AR": null, "HEALTH_EN": null, "HEALTH_AR": null, "EMERGENCY": null, "REPRODUCTI": null, "MALNUTRITI": null, "VACCINATIO": null, "ACUTE_COND": null, "ORT": null, "GBV": null, "DENTIST": null, "PSYCHOTHER": null, "SECONDARY": null, "PHYSIOTHER": null }, "geometry": { "type": "Point", "coordinates": [ 36.3307666187, 32.2847469964 ] } },
{ "type": "Feature", "properties": { "OBJECTID_1": 37, "TYPE": "Child Friendly Space", "HEALTH_TYP": "Camp Facility", "OPERATOR": "SCI", "IS_CONSTRU": null, "DISTRICT": 12, "NAME_EN": "CFS Lamp", "NAME_AR": "Ù…Ø³Ø§Ø­Ø© ØµØ¯ÙŠÙ‚Ø© Ù„Ù„Ø·ÙÙ„ Ø§Ù„Ù„Ù…Ø¨Ø©", "HOURS_EN": null, "HOURS_AR": null, "HEALTH_EN": null, "HEALTH_AR": null, "EMERGENCY": null, "REPRODUCTI": null, "MALNUTRITI": null, "VACCINATIO": null, "ACUTE_COND": null, "ORT": null, "GBV": null, "DENTIST": null, "PSYCHOTHER": null, "SECONDARY": null, "PHYSIOTHER": null }, "geometry": { "type": "Point", "coordinates": [ 36.3143990106, 32.2951655024 ] } },
{ "type": "Feature", "properties": { "OBJECTID_1": 38, "TYPE": "Youth Center", "HEALTH_TYP": "Camp Facility", "OPERATOR": null, "IS_CONSTRU": null, "DISTRICT": 11, "NAME_EN": "IMC AFS", "NAME_AR": "IMC", "HOURS_EN": null, "HOURS_AR": null, "HEALTH_EN": null, "HEALTH_AR": null, "EMERGENCY": null, "REPRODUCTI": null, "MALNUTRITI": null, "VACCINATIO": null, "ACUTE_COND": null, "ORT": null, "GBV": null, "DENTIST": null, "PSYCHOTHER": null, "SECONDARY": null, "PHYSIOTHER": null }, "geometry": { "type": "Point", "coordinates": [ 36.3201410832, 32.2888427253 ] } },
{ "type": "Feature", "properties": { "OBJECTID_1": 39, "TYPE": "Child Friendly Space", "HEALTH_TYP": "Camp Facility", "OPERATOR": "SCI", "IS_CONSTRU": null, "DISTRICT": 11, "NAME_EN": "CFS Fish", "NAME_AR": "Ù…Ø³Ø§Ø­Ø© ØµØ¯ÙŠÙ‚Ø© Ù„Ù„Ø·ÙÙ„ Ø³Ù…ÙƒØ©", "HOURS_EN": null, "HOURS_AR": null, "HEALTH_EN": null, "HEALTH_AR": null, "EMERGENCY": null, "REPRODUCTI": null, "MALNUTRITI": null, "VACCINATIO": null, "ACUTE_COND": null, "ORT": null, "GBV": null, "DENTIST": null, "PSYCHOTHER": null, "SECONDARY": null, "PHYSIOTHER": null }, "geometry": { "type": "Point", "coordinates": [ 36.3207661265, 32.2914239226 ] } },
{ "type": "Feature", "properties": { "OBJECTID_1": 40, "TYPE": "Playground", "HEALTH_TYP": "Camp Facility", "OPERATOR": "Mercy Corps", "IS_CONSTRU": null, "DISTRICT": 11, "NAME_EN": "Mercy Corps Playground M2", "NAME_AR": "Ù…Ù†Ø·Ù‚Ø© Ù„Ø¹Ø¨ Ù…ÙŠØ±Ø³ÙŠ ÙƒÙˆØ±M2", "HOURS_EN": null, "HOURS_AR": null, "HEALTH_EN": null, "HEALTH_AR": null, "EMERGENCY": null, "REPRODUCTI": null, "MALNUTRITI": null, "VACCINATIO": null, "ACUTE_COND": null, "ORT": null, "GBV": null, "DENTIST": null, "PSYCHOTHER": null, "SECONDARY": null, "PHYSIOTHER": null }, "geometry": { "type": "Point", "coordinates": [ 36.3199548883, 32.2883050281 ] } },
{ "type": "Feature", "properties": { "OBJECTID_1": 41, "TYPE": "Community Center", "HEALTH_TYP": "Camp Facility with Health Services", "OPERATOR": null, "IS_CONSTRU": null, "DISTRICT": 6, "NAME_EN": "Noor Hussein Rehabilitiation Centre", "NAME_AR": "Ù†ÙˆØ± Ø§Ù„Ø­Ø³ÙŠÙ†", "HOURS_EN": "9:00am-4:00pm (Sun-Thu)", "HOURS_AR": "9:00am-4:00pm (Sun-Thu)", "HEALTH_EN": "outreach, physiotherapy, psychotherapy, special education", "HEALTH_AR": "outreach, physiotherapy, psychotherapy, special education", "EMERGENCY": "N", "REPRODUCTI": "N", "MALNUTRITI": "N", "VACCINATIO": "N", "ACUTE_COND": "N", "ORT": "N", "GBV": "N", "DENTIST": "N", "PSYCHOTHER": "Y", "SECONDARY": "Y", "PHYSIOTHER": "Y" }, "geometry": { "type": "Point", "coordinates": [ 36.3353186459, 32.2959611444 ] } },
{ "type": "Feature", "properties": { "OBJECTID_1": 42, "TYPE": "Child Friendly Space", "HEALTH_TYP": "Camp Facility", "OPERATOR": "SCI", "IS_CONSTRU": null, "DISTRICT": 6, "NAME_EN": "CFS Notes", "NAME_AR": "Ù…Ø³Ø§Ø­Ø© ØµØ¯ÙŠÙ‚Ø© Ù„Ù„Ø·ÙÙ„ Ù†ÙˆØªØ©", "HOURS_EN": null, "HOURS_AR": null, "HEALTH_EN": null, "HEALTH_AR": null, "EMERGENCY": null, "REPRODUCTI": null, "MALNUTRITI": null, "VACCINATIO": null, "ACUTE_COND": null, "ORT": null, "GBV": null, "DENTIST": null, "PSYCHOTHER": null, "SECONDARY": null, "PHYSIOTHER": null }, "geometry": { "type": "Point", "coordinates": [ 36.3338411926, 32.2914768454 ] } },
{ "type": "Feature", "properties": { "OBJECTID_1": 43, "TYPE": "Community Center", "HEALTH_TYP": "Camp Facility with Health Services", "OPERATOR": "SCJ", "IS_CONSTRU": null, "DISTRICT": 4, "NAME_EN": "SCJ", "NAME_AR": "Ø­Ù…Ø§ÙŠØ© Ø§Ù„Ø·ÙÙ„ Ø§Ù„Ø§Ø±Ø¯Ù†ÙŠÙ‡", "HOURS_EN": "9:00am-3:00pm (Sat-Thu)", "HOURS_AR": "9:00am-3:00pm (Sat-Thu)", "HEALTH_EN": "malnutrition screening, reproductive care, young children support", "HEALTH_AR": "malnutrition screening, reproductive care, young children support", "EMERGENCY": "N", "REPRODUCTI": "Y", "MALNUTRITI": "Y", "VACCINATIO": "N", "ACUTE_COND": "N", "ORT": "N", "GBV": "N", "DENTIST": "N", "PSYCHOTHER": "N", "SECONDARY": "N", "PHYSIOTHER": "N" }, "geometry": { "type": "Point", "coordinates": [ 36.3211826021, 32.2949704427 ] } },
{ "type": "Feature", "properties": { "OBJECTID_1": 44, "TYPE": "Health", "HEALTH_TYP": "Healthcare Facility", "OPERATOR": "MSF Holland", "IS_CONSTRU": null, "DISTRICT": 5, "NAME_EN": "MSF Hospital", "NAME_AR": "Ø£Ø·Ø¨Ø§Ø¡ Ø¨Ù„Ø§ Ø­Ø¯ÙˆØ¯", "HOURS_EN": "24\/7, closed Jan 2017", "HOURS_AR": "24\/7, closed Jan 2017", "HEALTH_EN": "orthopaedics, physiotherapy, psychotherapy", "HEALTH_AR": "orthopaedics, physiotherapy, psychotherapy", "EMERGENCY": "Y", "REPRODUCTI": "N", "MALNUTRITI": "N", "VACCINATIO": "N", "ACUTE_COND": "N", "ORT": "N", "GBV": "N", "DENTIST": "N", "PSYCHOTHER": "Y", "SECONDARY": "Y", "PHYSIOTHER": "Y" }, "geometry": { "type": "Point", "coordinates": [ 36.3291325654, 32.2926344395 ] } },
{ "type": "Feature", "properties": { "OBJECTID_1": 45, "TYPE": "Youth Center", "HEALTH_TYP": "Camp Facility", "OPERATOR": "SCI", "IS_CONSTRU": null, "DISTRICT": 4, "NAME_EN": "Multiactivity Centre 2 Female", "NAME_AR": "Ù…Ø±ÙƒØ² Ø§Ù„Ù†Ø´Ø§Ø·Ø§Øª Ù„Ù„Ø¨Ù†Ø§Øª 2", "HOURS_EN": null, "HOURS_AR": null, "HEALTH_EN": null, "HEALTH_AR": null, "EMERGENCY": null, "REPRODUCTI": null, "MALNUTRITI": null, "VACCINATIO": null, "ACUTE_COND": null, "ORT": null, "GBV": null, "DENTIST": null, "PSYCHOTHER": null, "SECONDARY": null, "PHYSIOTHER": null }, "geometry": { "type": "Point", "coordinates": [ 36.324382901, 32.2940315356 ] } },
{ "type": "Feature", "properties": { "OBJECTID_1": 46, "TYPE": "Registration", "HEALTH_TYP": "Camp Facility with Health Services", "OPERATOR": "IOM", "IS_CONSTRU": null, "DISTRICT": 3, "NAME_EN": "IOM - TB Program", "NAME_AR": "Ù…ÙƒØ§ØªØ¨ Ø§Ù„Ø§Ø³ØªÙ‚Ø¨Ø§Ù„ IOM", "HOURS_EN": "8:00am-5:00pm (Sun-Thu)", "HOURS_AR": "8:00am-5:00pm (Sun-Thu)", "HEALTH_EN": "TB screening awareness \/ screening \/ diagnosis \/ treatment", "HEALTH_AR": "TB screening awareness \/ screening \/ diagnosis \/ treatment", "EMERGENCY": "N", "REPRODUCTI": "N", "MALNUTRITI": "N", "VACCINATIO": "N", "ACUTE_COND": "N", "ORT": "N", "GBV": "N", "DENTIST": "N", "PSYCHOTHER": "N", "SECONDARY": "N", "PHYSIOTHER": "N" }, "geometry": { "type": "Point", "coordinates": [ 36.3255810825, 32.3027160838 ] } },
{ "type": "Feature", "properties": { "OBJECTID_1": 47, "TYPE": "Security", "HEALTH_TYP": "Camp Facility", "OPERATOR": "Police", "IS_CONSTRU": null, "DISTRICT": 5, "NAME_EN": "SRAD", "NAME_AR": "Ø§Ø¯Ø§Ø±Ø© Ø§Ù„Ù…Ø®ÙŠÙ…", "HOURS_EN": null, "HOURS_AR": null, "HEALTH_EN": null, "HEALTH_AR": null, "EMERGENCY": null, "REPRODUCTI": null, "MALNUTRITI": null, "VACCINATIO": null, "ACUTE_COND": null, "ORT": null, "GBV": null, "DENTIST": null, "PSYCHOTHER": null, "SECONDARY": null, "PHYSIOTHER": null }, "geometry": { "type": "Point", "coordinates": [ 36.3290977893, 32.3016218493 ] } },
{ "type": "Feature", "properties": { "OBJECTID_1": 48, "TYPE": "Community Office", "HEALTH_TYP": "Camp Facility", "OPERATOR": "IRC", "IS_CONSTRU": null, "DISTRICT": 4, "NAME_EN": "Women Center", "NAME_AR": "Ù…Ø±ÙƒØ² Ø§Ù„Ù…Ø±Ø§Ø©", "HOURS_EN": null, "HOURS_AR": null, "HEALTH_EN": null, "HEALTH_AR": null, "EMERGENCY": null, "REPRODUCTI": null, "MALNUTRITI": null, "VACCINATIO": null, "ACUTE_COND": null, "ORT": null, "GBV": null, "DENTIST": null, "PSYCHOTHER": null, "SECONDARY": null, "PHYSIOTHER": null }, "geometry": { "type": "Point", "coordinates": [ 36.3211200217, 32.2948195139 ] } },
{ "type": "Feature", "properties": { "OBJECTID_1": 49, "TYPE": "Playground", "HEALTH_TYP": "Camp Facility", "OPERATOR": "Mercy Corps", "IS_CONSTRU": null, "DISTRICT": 10, "NAME_EN": "Mercy Corps Playground M3", "NAME_AR": "Ù…Ù†Ø·Ù‚Ø© Ù„Ø¹Ø¨ Ù…ÙŠØ±Ø³ÙŠ ÙƒÙˆØ±M3", "HOURS_EN": null, "HOURS_AR": null, "HEALTH_EN": null, "HEALTH_AR": null, "EMERGENCY": null, "REPRODUCTI": null, "MALNUTRITI": null, "VACCINATIO": null, "ACUTE_COND": null, "ORT": null, "GBV": null, "DENTIST": null, "PSYCHOTHER": null, "SECONDARY": null, "PHYSIOTHER": null }, "geometry": { "type": "Point", "coordinates": [ 36.3248331134, 32.2867247692 ] } },
{ "type": "Feature", "properties": { "OBJECTID_1": 50, "TYPE": "Community Center", "HEALTH_TYP": "Camp Facility", "OPERATOR": "ACTED", "IS_CONSTRU": null, "DISTRICT": 11, "NAME_EN": "ACTED Lemon", "NAME_AR": "Ø§Ù„Ù„ÙŠÙ…ÙˆÙ†Ø© Ø§ÙƒØªØ¯", "HOURS_EN": null, "HOURS_AR": null, "HEALTH_EN": null, "HEALTH_AR": null, "EMERGENCY": null, "REPRODUCTI": null, "MALNUTRITI": null, "VACCINATIO": null, "ACUTE_COND": null, "ORT": null, "GBV": null, "DENTIST": null, "PSYCHOTHER": null, "SECONDARY": null, "PHYSIOTHER": null }, "geometry": { "type": "Point", "coordinates": [ 36.3202865529, 32.2903289477 ] } },
{ "type": "Feature", "properties": { "OBJECTID_1": 51, "TYPE": "Warehouse", "HEALTH_TYP": "Camp Facility", "OPERATOR": "Oxfam", "IS_CONSTRU": null, "DISTRICT": 6, "NAME_EN": "Oxfam Warehouse", "NAME_AR": "Ù…Ø³ØªÙˆØ¯Ø¹  OXFAM", "HOURS_EN": null, "HOURS_AR": null, "HEALTH_EN": null, "HEALTH_AR": null, "EMERGENCY": null, "REPRODUCTI": null, "MALNUTRITI": null, "VACCINATIO": null, "ACUTE_COND": null, "ORT": null, "GBV": null, "DENTIST": null, "PSYCHOTHER": null, "SECONDARY": null, "PHYSIOTHER": null }, "geometry": { "type": "Point", "coordinates": [ 36.3384068469, 32.2962336811 ] } },
{ "type": "Feature", "properties": { "OBJECTID_1": 52, "TYPE": "Health", "HEALTH_TYP": "Healthcare Facility", "OPERATOR": "KSA", "IS_CONSTRU": null, "DISTRICT": 5, "NAME_EN": "KSA Hospital", "NAME_AR": "Ø§Ù„Ù…Ø³ØªØ´ÙÙ‰ Ø§Ù„Ø³Ø¹ÙˆØ¯ÙŠ", "HOURS_EN": "9:00am-4:00pm (Sun-Thu), 10:00am-2:00pm (Sat)", "HOURS_AR": "9:00am-4:00pm (Sun-Thu), 10:00am-2:00pm (Sat)", "HEALTH_EN": "cardiologist, dentist, dermatologist, ENT, GP, gynaecologist, internal medicine, laboratory, ORT, orthopedic, paediatrician, psychological support, urologist, vaccination, x-ray", "HEALTH_AR": "cardiologist, dentist, dermatologist, ENT, GP, gynaecologist, internal medicine, laboratory, ORT, orthopedic, paediatrician, psychological support, urologist, vaccination, x-ray", "EMERGENCY": "N", "REPRODUCTI": "N", "MALNUTRITI": "N", "VACCINATIO": "Y", "ACUTE_COND": "N", "ORT": "Y", "GBV": "N", "DENTIST": "Y", "PSYCHOTHER": "N", "SECONDARY": "Y", "PHYSIOTHER": "N" }, "geometry": { "type": "Point", "coordinates": [ 36.3302991755, 32.2927024168 ] } },
{ "type": "Feature", "properties": { "OBJECTID_1": 53, "TYPE": "Warehouse", "HEALTH_TYP": "Camp Facility", "OPERATOR": "KSA", "IS_CONSTRU": null, "DISTRICT": 5, "NAME_EN": "Warehouse", "NAME_AR": "Ù…Ø³ØªÙˆØ¯Ø¹", "HOURS_EN": null, "HOURS_AR": null, "HEALTH_EN": null, "HEALTH_AR": null, "EMERGENCY": null, "REPRODUCTI": null, "MALNUTRITI": null, "VACCINATIO": null, "ACUTE_COND": null, "ORT": null, "GBV": null, "DENTIST": null, "PSYCHOTHER": null, "SECONDARY": null, "PHYSIOTHER": null }, "geometry": { "type": "Point", "coordinates": [ 36.325986285, 32.2935642103 ] } },
{ "type": "Feature", "properties": { "OBJECTID_1": 54, "TYPE": "School", "HEALTH_TYP": "Camp Facility", "OPERATOR": "NRC", "IS_CONSTRU": null, "DISTRICT": 5, "NAME_EN": "School 2 (Saudi Arabia)", "NAME_AR": "Ø§Ù„Ù…Ø¯Ø±Ø³Ø© Ø§Ù„Ø³Ø¹ÙˆØ¯ÙŠØ©", "HOURS_EN": null, "HOURS_AR": null, "HEALTH_EN": null, "HEALTH_AR": null, "EMERGENCY": null, "REPRODUCTI": null, "MALNUTRITI": null, "VACCINATIO": null, "ACUTE_COND": null, "ORT": null, "GBV": null, "DENTIST": null, "PSYCHOTHER": null, "SECONDARY": null, "PHYSIOTHER": null }, "geometry": { "type": "Point", "coordinates": [ 36.327883518, 32.2933765301 ] } },
{ "type": "Feature", "properties": { "OBJECTID_1": 55, "TYPE": "Health", "HEALTH_TYP": "Healthcare Facility", "OPERATOR": "IRC\/JHAS", "IS_CONSTRU": null, "DISTRICT": 5, "NAME_EN": "JHAS Maternity Clinic", "NAME_AR": "Ù…Ø±ÙƒØ² ØµØ­ÙŠ Ø§Ù„Ø²Ø¹ØªØ±ÙŠ", "HOURS_EN": "24\/7", "HOURS_AR": "24\/7", "HEALTH_EN": "ante and post-natal care, family planning, gender-based violence support, reproductive health, vaccination", "HEALTH_AR": "ante and post-natal care, family planning, gender-based violence support, reproductive health, vaccination", "EMERGENCY": "N", "REPRODUCTI": "Y", "MALNUTRITI": "N", "VACCINATIO": "Y", "ACUTE_COND": "N", "ORT": "N", "GBV": "Y", "DENTIST": "N", "PSYCHOTHER": "N", "SECONDARY": "N", "PHYSIOTHER": "N" }, "geometry": { "type": "Point", "coordinates": [ 36.3264479517, 32.2932299663 ] } },
{ "type": "Feature", "properties": { "OBJECTID_1": 56, "TYPE": "Community Center", "HEALTH_TYP": "Camp Facility", "OPERATOR": "ACTED", "IS_CONSTRU": null, "DISTRICT": 1, "NAME_EN": "ACTED Olive", "NAME_AR": "Ø®ÙŠÙ…Ø© Ø§Ù„Ø²ÙŠØªÙˆÙ†Ø© Ø§ÙƒØªØ¯", "HOURS_EN": null, "HOURS_AR": null, "HEALTH_EN": null, "HEALTH_AR": null, "EMERGENCY": null, "REPRODUCTI": null, "MALNUTRITI": null, "VACCINATIO": null, "ACUTE_COND": null, "ORT": null, "GBV": null, "DENTIST": null, "PSYCHOTHER": null, "SECONDARY": null, "PHYSIOTHER": null }, "geometry": { "type": "Point", "coordinates": [ 36.3185219497, 32.3028874281 ] } },
{ "type": "Feature", "properties": { "OBJECTID_1": 57, "TYPE": "Security", "HEALTH_TYP": "Camp Facility", "OPERATOR": null, "IS_CONSTRU": null, "DISTRICT": 3, "NAME_EN": "Community Police", "NAME_AR": "Ø§Ù„Ø´Ø±Ø·Ø© Ø§Ù„Ù…Ø¬ØªÙ…Ø¹ØªÙŠØ©", "HOURS_EN": null, "HOURS_AR": null, "HEALTH_EN": null, "HEALTH_AR": null, "EMERGENCY": null, "REPRODUCTI": null, "MALNUTRITI": null, "VACCINATIO": null, "ACUTE_COND": null, "ORT": null, "GBV": null, "DENTIST": null, "PSYCHOTHER": null, "SECONDARY": null, "PHYSIOTHER": null }, "geometry": { "type": "Point", "coordinates": [ 36.3225619426, 32.3030708238 ] } },
{ "type": "Feature", "properties": { "OBJECTID_1": 58, "TYPE": "Youth Center", "HEALTH_TYP": "Camp Facility", "OPERATOR": "IMC", "IS_CONSTRU": null, "DISTRICT": 12, "NAME_EN": "IMC AFS 5 Saturn", "NAME_AR": "IMC Ø²Ø­Ù„", "HOURS_EN": null, "HOURS_AR": null, "HEALTH_EN": null, "HEALTH_AR": null, "EMERGENCY": null, "REPRODUCTI": null, "MALNUTRITI": null, "VACCINATIO": null, "ACUTE_COND": null, "ORT": null, "GBV": null, "DENTIST": null, "PSYCHOTHER": null, "SECONDARY": null, "PHYSIOTHER": null }, "geometry": { "type": "Point", "coordinates": [ 36.3124980577, 32.2944176005 ] } },
{ "type": "Feature", "properties": { "OBJECTID_1": 59, "TYPE": "Vacant", "HEALTH_TYP": "Camp Facility", "OPERATOR": null, "IS_CONSTRU": null, "DISTRICT": 10, "NAME_EN": "Vacant", "NAME_AR": "Ù…Ø³Ø§Ø­Ø© Ø´Ø§ØºØ±Ø©", "HOURS_EN": null, "HOURS_AR": null, "HEALTH_EN": null, "HEALTH_AR": null, "EMERGENCY": null, "REPRODUCTI": null, "MALNUTRITI": null, "VACCINATIO": null, "ACUTE_COND": null, "ORT": null, "GBV": null, "DENTIST": null, "PSYCHOTHER": null, "SECONDARY": null, "PHYSIOTHER": null }, "geometry": { "type": "Point", "coordinates": [ 36.3253256257, 32.2865550143 ] } },
{ "type": "Feature", "properties": { "OBJECTID_1": 60, "TYPE": "Child Friendly Space", "HEALTH_TYP": "Camp Facility", "OPERATOR": "SCI", "IS_CONSTRU": null, "DISTRICT": 10, "NAME_EN": "CFS Motorcycle", "NAME_AR": "Ù…Ø³Ø§Ø­Ø© ØµØ¯ÙŠÙ‚Ø© Ù„Ù„Ø·ÙÙ„ Ø§Ù„Ø¯Ø±Ø§Ø¬Ù‡", "HOURS_EN": null, "HOURS_AR": null, "HEALTH_EN": null, "HEALTH_AR": null, "EMERGENCY": null, "REPRODUCTI": null, "MALNUTRITI": null, "VACCINATIO": null, "ACUTE_COND": null, "ORT": null, "GBV": null, "DENTIST": null, "PSYCHOTHER": null, "SECONDARY": null, "PHYSIOTHER": null }, "geometry": { "type": "Point", "coordinates": [ 36.3258058981, 32.2875926863 ] } },
{ "type": "Feature", "properties": { "OBJECTID_1": 61, "TYPE": "Recreation", "HEALTH_TYP": "Camp Facility", "OPERATOR": null, "IS_CONSTRU": null, "DISTRICT": 10, "NAME_EN": "UNESCO Horse", "NAME_AR": "Ù…Ù†Ø·Ù‚Ø© Ù„Ø¹Ø¨", "HOURS_EN": null, "HOURS_AR": null, "HEALTH_EN": null, "HEALTH_AR": null, "EMERGENCY": null, "REPRODUCTI": null, "MALNUTRITI": null, "VACCINATIO": null, "ACUTE_COND": null, "ORT": null, "GBV": null, "DENTIST": null, "PSYCHOTHER": null, "SECONDARY": null, "PHYSIOTHER": null }, "geometry": { "type": "Point", "coordinates": [ 36.3265923201, 32.2904875513 ] } },
{ "type": "Feature", "properties": { "OBJECTID_1": 62, "TYPE": "Child Friendly Space", "HEALTH_TYP": "Camp Facility", "OPERATOR": "SCI", "IS_CONSTRU": null, "DISTRICT": 9, "NAME_EN": "CFS Ice Cream", "NAME_AR": "Ù…Ø³Ø§Ø­Ø© ØµØ¯ÙŠÙ‚Ø© Ù„Ù„Ø·ÙÙ„", "HOURS_EN": null, "HOURS_AR": null, "HEALTH_EN": null, "HEALTH_AR": null, "EMERGENCY": null, "REPRODUCTI": null, "MALNUTRITI": null, "VACCINATIO": null, "ACUTE_COND": null, "ORT": null, "GBV": null, "DENTIST": null, "PSYCHOTHER": null, "SECONDARY": null, "PHYSIOTHER": null }, "geometry": { "type": "Point", "coordinates": [ 36.3311370225, 32.2868354352 ] } },
{ "type": "Feature", "properties": { "OBJECTID_1": 63, "TYPE": "Distribution Point", "HEALTH_TYP": "Camp Facility", "OPERATOR": "NRC", "IS_CONSTRU": null, "DISTRICT": 6, "NAME_EN": "Common Distribution Centre for Humanitarian Assistance (CDCHA)", "NAME_AR": "Ù…Ø±ÙƒØ² Ø§Ù„ØªÙˆØ²ÙŠØ¹ Ø§Ù„Ù…Ø´ØªØ±Ùƒ Ù„Ù„Ù…Ø³Ø§Ø¹Ø¯Ø§Øª Ø§Ù„Ø¥Ù†Ø³Ø§Ù†ÙŠØ© (CDCHA)", "HOURS_EN": null, "HOURS_AR": null, "HEALTH_EN": null, "HEALTH_AR": null, "EMERGENCY": null, "REPRODUCTI": null, "MALNUTRITI": null, "VACCINATIO": null, "ACUTE_COND": null, "ORT": null, "GBV": null, "DENTIST": null, "PSYCHOTHER": null, "SECONDARY": null, "PHYSIOTHER": null }, "geometry": { "type": "Point", "coordinates": [ 36.3379083585, 32.2978290067 ] } },
{ "type": "Feature", "properties": { "OBJECTID_1": 64, "TYPE": "Community Center", "HEALTH_TYP": "Camp Facility", "OPERATOR": "JEN", "IS_CONSTRU": null, "DISTRICT": 4, "NAME_EN": "JEN", "NAME_AR": "JENÙ…Ø±ÙƒØ² Ø§Ø¬ØªÙ…Ø§Ø¹ÙŠ", "HOURS_EN": null, "HOURS_AR": null, "HEALTH_EN": null, "HEALTH_AR": null, "EMERGENCY": null, "REPRODUCTI": null, "MALNUTRITI": null, "VACCINATIO": null, "ACUTE_COND": null, "ORT": null, "GBV": null, "DENTIST": null, "PSYCHOTHER": null, "SECONDARY": null, "PHYSIOTHER": null }, "geometry": { "type": "Point", "coordinates": [ 36.3212726736, 32.2947733 ] } },
{ "type": "Feature", "properties": { "OBJECTID_1": 65, "TYPE": "Community Center", "HEALTH_TYP": "Camp Facility", "OPERATOR": "IRD", "IS_CONSTRU": null, "DISTRICT": 9, "NAME_EN": "IRD", "NAME_AR": "Ù…Ø±ÙƒØ² Ø§Ø¬ØªÙ…Ø§Ø¹ÙŠ IRD", "HOURS_EN": null, "HOURS_AR": null, "HEALTH_EN": null, "HEALTH_AR": null, "EMERGENCY": null, "REPRODUCTI": null, "MALNUTRITI": null, "VACCINATIO": null, "ACUTE_COND": null, "ORT": null, "GBV": null, "DENTIST": null, "PSYCHOTHER": null, "SECONDARY": null, "PHYSIOTHER": null }, "geometry": { "type": "Point", "coordinates": [ 36.332496203, 32.2897613118 ] } },
{ "type": "Feature", "properties": { "OBJECTID_1": 66, "TYPE": "School", "HEALTH_TYP": "Camp Facility", "OPERATOR": "NRC", "IS_CONSTRU": null, "DISTRICT": 8, "NAME_EN": "School 3 (Qatar)", "NAME_AR": "Ø§Ù„Ù…Ø¯Ø±Ø³Ø© 3 Ø§Ù„Ù‚Ø·Ø±ÙŠØ©", "HOURS_EN": null, "HOURS_AR": null, "HEALTH_EN": null, "HEALTH_AR": null, "EMERGENCY": null, "REPRODUCTI": null, "MALNUTRITI": null, "VACCINATIO": null, "ACUTE_COND": null, "ORT": null, "GBV": null, "DENTIST": null, "PSYCHOTHER": null, "SECONDARY": null, "PHYSIOTHER": null }, "geometry": { "type": "Point", "coordinates": [ 36.333388656, 32.2819328874 ] } },
{ "type": "Feature", "properties": { "OBJECTID_1": 67, "TYPE": "Child Friendly Space", "HEALTH_TYP": "Camp Facility", "OPERATOR": "SCI", "IS_CONSTRU": null, "DISTRICT": 7, "NAME_EN": "CFS Jasmine", "NAME_AR": "Ù…Ø³Ø§Ø­Ø© ØµØ¯ÙŠÙ‚Ø© Ù„Ù„Ø·ÙÙ„ Ø§Ù„ÙŠØ§Ø³Ù…ÙŠÙ†", "HOURS_EN": null, "HOURS_AR": null, "HEALTH_EN": null, "HEALTH_AR": null, "EMERGENCY": null, "REPRODUCTI": null, "MALNUTRITI": null, "VACCINATIO": null, "ACUTE_COND": null, "ORT": null, "GBV": null, "DENTIST": null, "PSYCHOTHER": null, "SECONDARY": null, "PHYSIOTHER": null }, "geometry": { "type": "Point", "coordinates": [ 36.3396996527, 32.2890266916 ] } },
{ "type": "Feature", "properties": { "OBJECTID_1": 68, "TYPE": "Community Center", "HEALTH_TYP": "Camp Facility", "OPERATOR": "IRD", "IS_CONSTRU": null, "DISTRICT": 10, "NAME_EN": "IRD", "NAME_AR": "Ù…Ø±ÙƒØ² Ø§Ø¬ØªÙ…Ø§Ø¹ÙŠ IRD", "HOURS_EN": null, "HOURS_AR": null, "HEALTH_EN": null, "HEALTH_AR": null, "EMERGENCY": null, "REPRODUCTI": null, "MALNUTRITI": null, "VACCINATIO": null, "ACUTE_COND": null, "ORT": null, "GBV": null, "DENTIST": null, "PSYCHOTHER": null, "SECONDARY": null, "PHYSIOTHER": null }, "geometry": { "type": "Point", "coordinates": [ 36.3275361399, 32.2913783493 ] } },
{ "type": "Feature", "properties": { "OBJECTID_1": 69, "TYPE": "Youth Center", "HEALTH_TYP": "Camp Facility", "OPERATOR": "IMC", "IS_CONSTRU": null, "DISTRICT": 6, "NAME_EN": "IMC AFS 4 Mars", "NAME_AR": "IMC Ø§Ù„Ù…Ø±ÙŠØ®", "HOURS_EN": null, "HOURS_AR": null, "HEALTH_EN": null, "HEALTH_AR": null, "EMERGENCY": null, "REPRODUCTI": null, "MALNUTRITI": null, "VACCINATIO": null, "ACUTE_COND": null, "ORT": null, "GBV": null, "DENTIST": null, "PSYCHOTHER": null, "SECONDARY": null, "PHYSIOTHER": null }, "geometry": { "type": "Point", "coordinates": [ 36.3349983084, 32.2952906565 ] } },
{ "type": "Feature", "properties": { "OBJECTID_1": 70, "TYPE": "Recreation", "HEALTH_TYP": "Camp Facility", "OPERATOR": "Mercy Corps", "IS_CONSTRU": null, "DISTRICT": 7, "NAME_EN": "Mercy Corps Playground M6", "NAME_AR": "Ù…Ù†Ø·Ù‚Ø© Ù„Ø¹Ø¨ Ù…ÙŠØ±Ø³ÙŠ ÙƒÙˆØ±M6", "HOURS_EN": null, "HOURS_AR": null, "HEALTH_EN": null, "HEALTH_AR": null, "EMERGENCY": null, "REPRODUCTI": null, "MALNUTRITI": null, "VACCINATIO": null, "ACUTE_COND": null, "ORT": null, "GBV": null, "DENTIST": null, "PSYCHOTHER": null, "SECONDARY": null, "PHYSIOTHER": null }, "geometry": { "type": "Point", "coordinates": [ 36.3416895723, 32.2881484617 ] } },
{ "type": "Feature", "properties": { "OBJECTID_1": 71, "TYPE": "Recreation", "HEALTH_TYP": "Camp Facility", "OPERATOR": "IRD", "IS_CONSTRU": null, "DISTRICT": 7, "NAME_EN": "IRD Play Area", "NAME_AR": "IRD Ù…Ù„Ø¹Ø¨", "HOURS_EN": null, "HOURS_AR": null, "HEALTH_EN": null, "HEALTH_AR": null, "EMERGENCY": null, "REPRODUCTI": null, "MALNUTRITI": null, "VACCINATIO": null, "ACUTE_COND": null, "ORT": null, "GBV": null, "DENTIST": null, "PSYCHOTHER": null, "SECONDARY": null, "PHYSIOTHER": null }, "geometry": { "type": "Point", "coordinates": [ 36.3398018517, 32.2971439839 ] } },
{ "type": "Feature", "properties": { "OBJECTID_1": 72, "TYPE": "Distribution Point", "HEALTH_TYP": "Camp Facility", "OPERATOR": "WFP", "IS_CONSTRU": null, "DISTRICT": 7, "NAME_EN": "WFP Bread Distribution", "NAME_AR": "Ù…Ø±ÙƒØ² ØªÙˆØ²ÙŠØ¹ Ø§Ù„Ø®Ø¨Ø² WFP", "HOURS_EN": null, "HOURS_AR": null, "HEALTH_EN": null, "HEALTH_AR": null, "EMERGENCY": null, "REPRODUCTI": null, "MALNUTRITI": null, "VACCINATIO": null, "ACUTE_COND": null, "ORT": null, "GBV": null, "DENTIST": null, "PSYCHOTHER": null, "SECONDARY": null, "PHYSIOTHER": null }, "geometry": { "type": "Point", "coordinates": [ 36.340253755, 32.2969758091 ] } },
{ "type": "Feature", "properties": { "OBJECTID_1": 73, "TYPE": "Office", "HEALTH_TYP": "Camp Facility", "OPERATOR": "ACTED", "IS_CONSTRU": null, "DISTRICT": 10, "NAME_EN": "ACTED Site Office", "NAME_AR": "Ù…ÙƒØ§ØªØ¨ Ø§ÙƒØªØ¯", "HOURS_EN": null, "HOURS_AR": null, "HEALTH_EN": null, "HEALTH_AR": null, "EMERGENCY": null, "REPRODUCTI": null, "MALNUTRITI": null, "VACCINATIO": null, "ACUTE_COND": null, "ORT": null, "GBV": null, "DENTIST": null, "PSYCHOTHER": null, "SECONDARY": null, "PHYSIOTHER": null }, "geometry": { "type": "Point", "coordinates": [ 36.3253169314, 32.2877688607 ] } },
{ "type": "Feature", "properties": { "OBJECTID_1": 74, "TYPE": "Water Facilities", "HEALTH_TYP": "Camp Facility", "OPERATOR": "Bab Al Amood", "IS_CONSTRU": null, "DISTRICT": 10, "NAME_EN": "Borehole 1", "NAME_AR": "Ø§Ù„Ø¨Ø¦Ø± 1", "HOURS_EN": null, "HOURS_AR": null, "HEALTH_EN": null, "HEALTH_AR": null, "EMERGENCY": null, "REPRODUCTI": null, "MALNUTRITI": null, "VACCINATIO": null, "ACUTE_COND": null, "ORT": null, "GBV": null, "DENTIST": null, "PSYCHOTHER": null, "SECONDARY": null, "PHYSIOTHER": null }, "geometry": { "type": "Point", "coordinates": [ 36.3280366382, 32.2868307843 ] } },
{ "type": "Feature", "properties": { "OBJECTID_1": 75, "TYPE": "Youth Center", "HEALTH_TYP": "Camp Facility", "OPERATOR": "IMC", "IS_CONSTRU": null, "DISTRICT": 10, "NAME_EN": "IMC AFS 3 Jupiter", "NAME_AR": "IMC Ø§Ù„Ù…Ø´ØªØ±ÙŠ", "HOURS_EN": null, "HOURS_AR": null, "HEALTH_EN": null, "HEALTH_AR": null, "EMERGENCY": null, "REPRODUCTI": null, "MALNUTRITI": null, "VACCINATIO": null, "ACUTE_COND": null, "ORT": null, "GBV": null, "DENTIST": null, "PSYCHOTHER": null, "SECONDARY": null, "PHYSIOTHER": null }, "geometry": { "type": "Point", "coordinates": [ 36.3261701635, 32.2896331685 ] } },
{ "type": "Feature", "properties": { "OBJECTID_1": 76, "TYPE": "Community Center", "HEALTH_TYP": "Camp Facility with Health Services", "OPERATOR": "SCJ", "IS_CONSTRU": null, "DISTRICT": 3, "NAME_EN": "SCJ", "NAME_AR": "Ø­Ù…Ø§ÙŠØ© Ø§Ù„Ø·ÙÙ„ Ø§Ù„Ø§Ø±Ø¯Ù†ÙŠÙ‡", "HOURS_EN": "9:00am-3:00pm (Sun-Thu)", "HOURS_AR": "9:00am-3:00pm (Sun-Thu)", "HEALTH_EN": "malnutrition screening, reproductive care, young children support", "HEALTH_AR": "malnutrition screening, reproductive care, young children support", "EMERGENCY": "N", "REPRODUCTI": "Y", "MALNUTRITI": "Y", "VACCINATIO": "N", "ACUTE_COND": "N", "ORT": "N", "GBV": "N", "DENTIST": "N", "PSYCHOTHER": "N", "SECONDARY": "N", "PHYSIOTHER": "N" }, "geometry": { "type": "Point", "coordinates": [ 36.3208682463, 32.2995184686 ] } },
{ "type": "Feature", "properties": { "OBJECTID_1": 77, "TYPE": "Recreation", "HEALTH_TYP": "Camp Facility", "OPERATOR": "IRD", "IS_CONSTRU": null, "DISTRICT": 9, "NAME_EN": "IRD Play Area", "NAME_AR": "IRD Ù…Ù„Ø¹Ø¨", "HOURS_EN": null, "HOURS_AR": null, "HEALTH_EN": null, "HEALTH_AR": null, "EMERGENCY": null, "REPRODUCTI": null, "MALNUTRITI": null, "VACCINATIO": null, "ACUTE_COND": null, "ORT": null, "GBV": null, "DENTIST": null, "PSYCHOTHER": null, "SECONDARY": null, "PHYSIOTHER": null }, "geometry": { "type": "Point", "coordinates": [ 36.3325134175, 32.2834585641 ] } },
{ "type": "Feature", "properties": { "OBJECTID_1": 78, "TYPE": "Community Center", "HEALTH_TYP": "Camp Facility", "OPERATOR": "ACTED", "IS_CONSTRU": null, "DISTRICT": 9, "NAME_EN": "ACTED Orange", "NAME_AR": "Ø§ÙƒØªØ¯ Ù…ÙƒØªØ¨ Ø§Ø¬ØªÙ…Ø§Ø¹ÙŠ", "HOURS_EN": null, "HOURS_AR": null, "HEALTH_EN": null, "HEALTH_AR": null, "EMERGENCY": null, "REPRODUCTI": null, "MALNUTRITI": null, "VACCINATIO": null, "ACUTE_COND": null, "ORT": null, "GBV": null, "DENTIST": null, "PSYCHOTHER": null, "SECONDARY": null, "PHYSIOTHER": null }, "geometry": { "type": "Point", "coordinates": [ 36.3311593702, 32.2856716526 ] } },
{ "type": "Feature", "properties": { "OBJECTID_1": 79, "TYPE": "Health", "HEALTH_TYP": "Camp Facility", "OPERATOR": "Qatari Red Crescent", "IS_CONSTRU": null, "DISTRICT": 5, "NAME_EN": "Qatari Red Crescent Psycho-Social Support", "NAME_AR": "Ø¹ÙŠØ§Ø¯Ø§Øª Ø´Ø§Ù…Ù„Ø©", "HOURS_EN": null, "HOURS_AR": null, "HEALTH_EN": null, "HEALTH_AR": null, "EMERGENCY": null, "REPRODUCTI": null, "MALNUTRITI": null, "VACCINATIO": null, "ACUTE_COND": null, "ORT": null, "GBV": null, "DENTIST": null, "PSYCHOTHER": null, "SECONDARY": null, "PHYSIOTHER": null }, "geometry": { "type": "Point", "coordinates": [ 36.3299712279, 32.2935896779 ] } },
{ "type": "Feature", "properties": { "OBJECTID_1": 80, "TYPE": "Community Center", "HEALTH_TYP": "Camp Facility", "OPERATOR": "JEN", "IS_CONSTRU": null, "DISTRICT": 5, "NAME_EN": "JEN", "NAME_AR": "JENÙ…Ø±ÙƒØ² Ø§Ø¬ØªÙ…Ø§Ø¹ÙŠ", "HOURS_EN": null, "HOURS_AR": null, "HEALTH_EN": null, "HEALTH_AR": null, "EMERGENCY": null, "REPRODUCTI": null, "MALNUTRITI": null, "VACCINATIO": null, "ACUTE_COND": null, "ORT": null, "GBV": null, "DENTIST": null, "PSYCHOTHER": null, "SECONDARY": null, "PHYSIOTHER": null }, "geometry": { "type": "Point", "coordinates": [ 36.3327627807, 32.2975643366 ] } },
{ "type": "Feature", "properties": { "OBJECTID_1": 81, "TYPE": "Child Friendly Space", "HEALTH_TYP": "Camp Facility", "OPERATOR": "SCI", "IS_CONSTRU": null, "DISTRICT": 5, "NAME_EN": "CFS Orange", "NAME_AR": "Ø­Ù…Ø§ÙŠØ© Ø§Ù„Ø·ÙÙ„ Ø§ÙˆØ±Ø§Ù†Ø¬", "HOURS_EN": null, "HOURS_AR": null, "HEALTH_EN": null, "HEALTH_AR": null, "EMERGENCY": null, "REPRODUCTI": null, "MALNUTRITI": null, "VACCINATIO": null, "ACUTE_COND": null, "ORT": null, "GBV": null, "DENTIST": null, "PSYCHOTHER": null, "SECONDARY": null, "PHYSIOTHER": null }, "geometry": { "type": "Point", "coordinates": [ 36.3329180702, 32.2978919932 ] } },
{ "type": "Feature", "properties": { "OBJECTID_1": 82, "TYPE": "Recreation", "HEALTH_TYP": "Camp Facility", "OPERATOR": "IRD", "IS_CONSTRU": null, "DISTRICT": 5, "NAME_EN": "IRD Play Area", "NAME_AR": "IRD Ù…Ù„Ø¹Ø¨", "HOURS_EN": null, "HOURS_AR": null, "HEALTH_EN": null, "HEALTH_AR": null, "EMERGENCY": null, "REPRODUCTI": null, "MALNUTRITI": null, "VACCINATIO": null, "ACUTE_COND": null, "ORT": null, "GBV": null, "DENTIST": null, "PSYCHOTHER": null, "SECONDARY": null, "PHYSIOTHER": null }, "geometry": { "type": "Point", "coordinates": [ 36.3334561819, 32.2990391898 ] } },
{ "type": "Feature", "properties": { "OBJECTID_1": 83, "TYPE": "Community Office", "HEALTH_TYP": "Camp Facility", "OPERATOR": "IRC", "IS_CONSTRU": null, "DISTRICT": 4, "NAME_EN": "IRC Transit Center", "NAME_AR": "Ù…ÙƒØªØ¨ Ø§Ø¬ØªÙ…Ø§Ø¹ÙŠ IRC", "HOURS_EN": null, "HOURS_AR": null, "HEALTH_EN": null, "HEALTH_AR": null, "EMERGENCY": null, "REPRODUCTI": null, "MALNUTRITI": null, "VACCINATIO": null, "ACUTE_COND": null, "ORT": null, "GBV": null, "DENTIST": null, "PSYCHOTHER": null, "SECONDARY": null, "PHYSIOTHER": null }, "geometry": { "type": "Point", "coordinates": [ 36.3240950327, 32.294608864 ] } },
{ "type": "Feature", "properties": { "OBJECTID_1": 84, "TYPE": "Health", "HEALTH_TYP": "Healthcare Facility", "OPERATOR": "UNHCR\/Noor Hussein Foundation", "IS_CONSTRU": null, "DISTRICT": 4, "NAME_EN": "Noor Hussein Shared Centre", "NAME_AR": "Ù†ÙˆØ± Ø§Ù„Ø­Ø³ÙŠÙ†", "HOURS_EN": "9:00am-4:00pm (Sun-Thu)", "HOURS_AR": "9:00am-4:00pm (Sun-Thu)", "HEALTH_EN": "family planning, gender-based violence support, reproductive care", "HEALTH_AR": "family planning, gender-based violence support, reproductive care", "EMERGENCY": "N", "REPRODUCTI": "Y", "MALNUTRITI": "N", "VACCINATIO": "N", "ACUTE_COND": "N", "ORT": "N", "GBV": "Y", "DENTIST": "N", "PSYCHOTHER": "N", "SECONDARY": "N", "PHYSIOTHER": "N" }, "geometry": { "type": "Point", "coordinates": [ 36.3213350317, 32.2949283965 ] } },
{ "type": "Feature", "properties": { "OBJECTID_1": 85, "TYPE": "Youth Center", "HEALTH_TYP": "Camp Facility", "OPERATOR": "Save the Children International", "IS_CONSTRU": null, "DISTRICT": 4, "NAME_EN": "Questscope-UNFPA Youth Center", "NAME_AR": "Ù…Ø±ÙƒØ² Ø´Ø¨Ø§Ø¨ÙŠ Ù…Ø¤Ø³Ø³Ø© ÙƒÙˆÙŠØ³Øª Ø³ÙƒÙˆØ¨ ÙˆØµÙ†Ø¯ÙˆÙ‚ Ø§Ù„Ø£Ù…Ù… Ø§Ù„Ù…ØªØ­Ø¯Ø© Ù„Ù„Ø³ÙƒØ§Ù†", "HOURS_EN": null, "HOURS_AR": null, "HEALTH_EN": null, "HEALTH_AR": null, "EMERGENCY": null, "REPRODUCTI": null, "MALNUTRITI": null, "VACCINATIO": null, "ACUTE_COND": null, "ORT": null, "GBV": null, "DENTIST": null, "PSYCHOTHER": null, "SECONDARY": null, "PHYSIOTHER": null }, "geometry": { "type": "Point", "coordinates": [ 36.3217278016, 32.2947135987 ] } },
{ "type": "Feature", "properties": { "OBJECTID_1": 86, "TYPE": "Vacant", "HEALTH_TYP": "Camp Facility", "OPERATOR": "Vacant", "IS_CONSTRU": null, "DISTRICT": 6, "NAME_EN": "Vacant", "NAME_AR": "Ù…Ø³Ø§Ø­Ø© Ø´Ø§ØºØ±Ø©", "HOURS_EN": null, "HOURS_AR": null, "HEALTH_EN": null, "HEALTH_AR": null, "EMERGENCY": null, "REPRODUCTI": null, "MALNUTRITI": null, "VACCINATIO": null, "ACUTE_COND": null, "ORT": null, "GBV": null, "DENTIST": null, "PSYCHOTHER": null, "SECONDARY": null, "PHYSIOTHER": null }, "geometry": { "type": "Point", "coordinates": [ 36.3343041945, 32.2924162037 ] } },
{ "type": "Feature", "properties": { "OBJECTID_1": 87, "TYPE": "Recreation", "HEALTH_TYP": "Camp Facility", "OPERATOR": "IRD", "IS_CONSTRU": null, "DISTRICT": 8, "NAME_EN": "IRD Play Area", "NAME_AR": "IRD Ù…Ù„Ø¹Ø¨", "HOURS_EN": null, "HOURS_AR": null, "HEALTH_EN": null, "HEALTH_AR": null, "EMERGENCY": null, "REPRODUCTI": null, "MALNUTRITI": null, "VACCINATIO": null, "ACUTE_COND": null, "ORT": null, "GBV": null, "DENTIST": null, "PSYCHOTHER": null, "SECONDARY": null, "PHYSIOTHER": null }, "geometry": { "type": "Point", "coordinates": [ 36.341010203, 32.2840671923 ] } },
{ "type": "Feature", "properties": { "OBJECTID_1": 88, "TYPE": "Youth Center", "HEALTH_TYP": "Camp Facility", "OPERATOR": "SCI", "IS_CONSTRU": null, "DISTRICT": 8, "NAME_EN": "Multiactivity Centre 4 Female", "NAME_AR": "Ù…Ø±ÙƒØ² Ø§Ù„Ù†Ø´Ø§Ø·Ø§Øª Ù„Ù„Ø¨Ù†Ø§Øª 4", "HOURS_EN": null, "HOURS_AR": null, "HEALTH_EN": null, "HEALTH_AR": null, "EMERGENCY": null, "REPRODUCTI": null, "MALNUTRITI": null, "VACCINATIO": null, "ACUTE_COND": null, "ORT": null, "GBV": null, "DENTIST": null, "PSYCHOTHER": null, "SECONDARY": null, "PHYSIOTHER": null }, "geometry": { "type": "Point", "coordinates": [ 36.3406116075, 32.2876277405 ] } },
{ "type": "Feature", "properties": { "OBJECTID_1": 89, "TYPE": "Recreation", "HEALTH_TYP": "Camp Facility", "OPERATOR": "IRD", "IS_CONSTRU": null, "DISTRICT": 12, "NAME_EN": "IRD Play Area", "NAME_AR": "IRD Ù…Ù„Ø¹Ø¨", "HOURS_EN": null, "HOURS_AR": null, "HEALTH_EN": null, "HEALTH_AR": null, "EMERGENCY": null, "REPRODUCTI": null, "MALNUTRITI": null, "VACCINATIO": null, "ACUTE_COND": null, "ORT": null, "GBV": null, "DENTIST": null, "PSYCHOTHER": null, "SECONDARY": null, "PHYSIOTHER": null }, "geometry": { "type": "Point", "coordinates": [ 36.315346612, 32.2897985878 ] } },
{ "type": "Feature", "properties": { "OBJECTID_1": 90, "TYPE": "Water Facilities", "HEALTH_TYP": "Camp Facility", "OPERATOR": "Bab Al Amood", "IS_CONSTRU": null, "DISTRICT": 8, "NAME_EN": "Borehole 2", "NAME_AR": "Ø§Ù„Ø¨Ø¦Ø± 2", "HOURS_EN": null, "HOURS_AR": null, "HEALTH_EN": null, "HEALTH_AR": null, "EMERGENCY": null, "REPRODUCTI": null, "MALNUTRITI": null, "VACCINATIO": null, "ACUTE_COND": null, "ORT": null, "GBV": null, "DENTIST": null, "PSYCHOTHER": null, "SECONDARY": null, "PHYSIOTHER": null }, "geometry": { "type": "Point", "coordinates": [ 36.3378514927, 32.2808246044 ] } },
{ "type": "Feature", "properties": { "OBJECTID_1": 91, "TYPE": "Youth Center", "HEALTH_TYP": "Camp Facility", "OPERATOR": "NRC", "IS_CONSTRU": null, "DISTRICT": 10, "NAME_EN": "NRC Education Centre", "NAME_AR": "Ø§Ù„Ù…Ø¯Ø±Ø³Ø© Ø§Ù„Ù†Ø±ÙˆÙŠØ¬ÙŠØ©", "HOURS_EN": null, "HOURS_AR": null, "HEALTH_EN": null, "HEALTH_AR": null, "EMERGENCY": null, "REPRODUCTI": null, "MALNUTRITI": null, "VACCINATIO": null, "ACUTE_COND": null, "ORT": null, "GBV": null, "DENTIST": null, "PSYCHOTHER": null, "SECONDARY": null, "PHYSIOTHER": null }, "geometry": { "type": "Point", "coordinates": [ 36.3237803042, 32.2852363879 ] } },
{ "type": "Feature", "properties": { "OBJECTID_1": 92, "TYPE": "Vacant", "HEALTH_TYP": "Camp Facility", "OPERATOR": "Vacant", "IS_CONSTRU": null, "DISTRICT": 10, "NAME_EN": "Vacant", "NAME_AR": "Ù…Ø³Ø§Ø­Ø© Ø´Ø§ØºØ±Ø©", "HOURS_EN": null, "HOURS_AR": null, "HEALTH_EN": null, "HEALTH_AR": null, "EMERGENCY": null, "REPRODUCTI": null, "MALNUTRITI": null, "VACCINATIO": null, "ACUTE_COND": null, "ORT": null, "GBV": null, "DENTIST": null, "PSYCHOTHER": null, "SECONDARY": null, "PHYSIOTHER": null }, "geometry": { "type": "Point", "coordinates": [ 36.3234225603, 32.28575142 ] } },
{ "type": "Feature", "properties": { "OBJECTID_1": 93, "TYPE": "Distribution Point", "HEALTH_TYP": "Camp Facility", "OPERATOR": "WFP", "IS_CONSTRU": null, "DISTRICT": 11, "NAME_EN": "WFP Vouchers Exchange Center", "NAME_AR": "ØµØ±Ù ÙƒÙˆØ¨ÙˆÙ†Ø§Øª WFP", "HOURS_EN": null, "HOURS_AR": null, "HEALTH_EN": null, "HEALTH_AR": null, "EMERGENCY": null, "REPRODUCTI": null, "MALNUTRITI": null, "VACCINATIO": null, "ACUTE_COND": null, "ORT": null, "GBV": null, "DENTIST": null, "PSYCHOTHER": null, "SECONDARY": null, "PHYSIOTHER": null }, "geometry": { "type": "Point", "coordinates": [ 36.3213499415, 32.2861504503 ] } },
{ "type": "Feature", "properties": { "OBJECTID_1": 94, "TYPE": "Distribution Point", "HEALTH_TYP": "Camp Facility", "OPERATOR": "WFP", "IS_CONSTRU": null, "DISTRICT": 11, "NAME_EN": "WFP Bread Distribution", "NAME_AR": "Ù…Ø±ÙƒØ² ØªÙˆØ²ÙŠØ¹ Ø§Ù„Ø®Ø¨Ø² WFP", "HOURS_EN": null, "HOURS_AR": null, "HEALTH_EN": null, "HEALTH_AR": null, "EMERGENCY": null, "REPRODUCTI": null, "MALNUTRITI": null, "VACCINATIO": null, "ACUTE_COND": null, "ORT": null, "GBV": null, "DENTIST": null, "PSYCHOTHER": null, "SECONDARY": null, "PHYSIOTHER": null }, "geometry": { "type": "Point", "coordinates": [ 36.3205585871, 32.2866064423 ] } },
{ "type": "Feature", "properties": { "OBJECTID_1": 95, "TYPE": "Health", "HEALTH_TYP": "Healthcare Facility", "OPERATOR": "IMC", "IS_CONSTRU": null, "DISTRICT": 5, "NAME_EN": "IMC Mental Health", "NAME_AR": "Ø¹ÙŠØ§Ø¯Ø§Øª Ø´Ø§Ù…Ù„Ø© IMC", "HOURS_EN": "9:00am-4:00pm (Sun-Thu)", "HOURS_AR": "9:00am-4:00pm (Sun-Thu)", "HEALTH_EN": "psychiatrist, psychologist", "HEALTH_AR": "psychiatrist, psychologist", "EMERGENCY": "N", "REPRODUCTI": "N", "MALNUTRITI": "N", "VACCINATIO": "N", "ACUTE_COND": "N", "ORT": "N", "GBV": "N", "DENTIST": "N", "PSYCHOTHER": "Y", "SECONDARY": "Y", "PHYSIOTHER": "N" }, "geometry": { "type": "Point", "coordinates": [ 36.3306005448, 32.294178988 ] } },
{ "type": "Feature", "properties": { "OBJECTID_1": 96, "TYPE": "Health", "HEALTH_TYP": "Healthcare Facility", "OPERATOR": "MDM", "IS_CONSTRU": null, "DISTRICT": 5, "NAME_EN": "IRC PHC", "NAME_AR": "Ø§Ø·Ø¨Ø§Ø¡ Ø­ÙˆÙ„ Ø§Ù„Ø¹Ø§Ù„Ù…", "HOURS_EN": "8:30am-4:00pm (Sat-Thu)", "HOURS_AR": "8:30am-4:00pm (Sat-Thu)", "HEALTH_EN": "acute and chronic condition management, ante and post-natal care, family planning, GP, internal medicine, management of chronic disease, ORT, vaccination.", "HEALTH_AR": "acute and chronic condition management, ante and post-natal care, family planning, GP, internal medicine, management of chronic disease, ORT, vaccination.", "EMERGENCY": "N", "REPRODUCTI": "Y", "MALNUTRITI": "N", "VACCINATIO": "Y", "ACUTE_COND": "Y", "ORT": "Y", "GBV": "N", "DENTIST": "N", "PSYCHOTHER": "Y", "SECONDARY": "N", "PHYSIOTHER": "N" }, "geometry": { "type": "Point", "coordinates": [ 36.3311261908, 32.2940227258 ] } },
{ "type": "Feature", "properties": { "OBJECTID_1": 97, "TYPE": "Health", "HEALTH_TYP": "Healthcare Facility", "OPERATOR": "HI", "IS_CONSTRU": null, "DISTRICT": 5, "NAME_EN": "HANDICAP", "NAME_AR": "Ø¹ÙŠØ§Ø¯Ø© Ø§Ù„Ø§Ø­ØªÙŠØ§Ø¬Ø§Øª Ø§Ù„Ø®Ø§ØµØ©", "HOURS_EN": "9:00am-3:00pm (Sun-Thu)", "HOURS_AR": "9:00am-3:00pm (Sun-Thu)", "HEALTH_EN": "disability support, physiotherapist, psychotherapy", "HEALTH_AR": "disability support, physiotherapist, psychotherapy", "EMERGENCY": "N", "REPRODUCTI": "Y", "MALNUTRITI": "N", "VACCINATIO": "N", "ACUTE_COND": "N", "ORT": "N", "GBV": "N", "DENTIST": "N", "PSYCHOTHER": "Y", "SECONDARY": "Y", "PHYSIOTHER": "Y" }, "geometry": { "type": "Point", "coordinates": [ 36.3309612691, 32.293670017 ] } },
{ "type": "Feature", "properties": { "OBJECTID_1": 98, "TYPE": "Community Center", "HEALTH_TYP": "Camp Facility", "OPERATOR": "IRD", "IS_CONSTRU": null, "DISTRICT": 6, "NAME_EN": "IRD", "NAME_AR": "Ù…Ø±ÙƒØ² Ø§Ø¬ØªÙ…Ø§Ø¹ÙŠ IRD", "HOURS_EN": null, "HOURS_AR": null, "HEALTH_EN": null, "HEALTH_AR": null, "EMERGENCY": null, "REPRODUCTI": null, "MALNUTRITI": null, "VACCINATIO": null, "ACUTE_COND": null, "ORT": null, "GBV": null, "DENTIST": null, "PSYCHOTHER": null, "SECONDARY": null, "PHYSIOTHER": null }, "geometry": { "type": "Point", "coordinates": [ 36.3351935993, 32.294417717 ] } },
{ "type": "Feature", "properties": { "OBJECTID_1": 99, "TYPE": "Youth Center", "HEALTH_TYP": "Camp Facility", "OPERATOR": "NRC", "IS_CONSTRU": null, "DISTRICT": 10, "NAME_EN": "Youth Programing Zaatari Camp", "NAME_AR": "Ù…Ø±ÙƒØ² Ø§Ù„Ø´Ø¨Ø§Ø¨ NRC", "HOURS_EN": null, "HOURS_AR": null, "HEALTH_EN": null, "HEALTH_AR": null, "EMERGENCY": null, "REPRODUCTI": null, "MALNUTRITI": null, "VACCINATIO": null, "ACUTE_COND": null, "ORT": null, "GBV": null, "DENTIST": null, "PSYCHOTHER": null, "SECONDARY": null, "PHYSIOTHER": null }, "geometry": { "type": "Point", "coordinates": [ 36.3226923742, 32.284835294 ] } },
{ "type": "Feature", "properties": { "OBJECTID_1": 100, "TYPE": "Office", "HEALTH_TYP": "Camp Facility with Health Services", "OPERATOR": "ICRC", "IS_CONSTRU": null, "DISTRICT": 5, "NAME_EN": "ICRC", "NAME_AR": "Ø§Ù„Ù„Ø¬Ù†Ø© Ø§Ù„Ø¯ÙˆÙ„ÙŠØ© Ù„Ù„ØµÙ„ÙŠØ¨ Ø§Ù„Ø§Ø­", "HOURS_EN": "9:00am-3:00pm (Sun-Thu)", "HOURS_AR": "9:00am-3:00pm (Sun-Thu)", "HEALTH_EN": "first aid training centre", "HEALTH_AR": "first aid training centre", "EMERGENCY": "N", "REPRODUCTI": "N", "MALNUTRITI": "N", "VACCINATIO": "N", "ACUTE_COND": "N", "ORT": "N", "GBV": "N", "DENTIST": "N", "PSYCHOTHER": "N", "SECONDARY": "N", "PHYSIOTHER": "N" }, "geometry": { "type": "Point", "coordinates": [ 36.3299070745, 32.3013568526 ] } },
{ "type": "Feature", "properties": { "OBJECTID_1": 101, "TYPE": "Distribution Point", "HEALTH_TYP": "Camp Facility", "OPERATOR": "WFP", "IS_CONSTRU": null, "DISTRICT": 8, "NAME_EN": "WFP Distribution Centre", "NAME_AR": "Ù…Ø±ÙƒØ² ØªÙˆØ²ÙŠØ¹ WFP", "HOURS_EN": null, "HOURS_AR": null, "HEALTH_EN": null, "HEALTH_AR": null, "EMERGENCY": null, "REPRODUCTI": null, "MALNUTRITI": null, "VACCINATIO": null, "ACUTE_COND": null, "ORT": null, "GBV": null, "DENTIST": null, "PSYCHOTHER": null, "SECONDARY": null, "PHYSIOTHER": null }, "geometry": { "type": "Point", "coordinates": [ 36.3352710154, 32.2817218433 ] } },
{ "type": "Feature", "properties": { "OBJECTID_1": 102, "TYPE": "Community Center", "HEALTH_TYP": "Camp Facility with Health Services", "OPERATOR": "UNFPA\/Noor Hussein Foundation", "IS_CONSTRU": null, "DISTRICT": 8, "NAME_EN": "JHAS RH & Noor Hussein", "NAME_AR": "Ù…Ø±ÙƒØ² Ø§Ù„Ù…Ø±Ø§Ù‡ Ù†ÙˆØ± Ø§Ù„Ø­Ø³ÙŠÙ†", "HOURS_EN": "9:00am-4:00pm (Sun-Thu)", "HOURS_AR": "9:00am-4:00pm (Sun-Thu)", "HEALTH_EN": "JHAS RH: ante and post-natal care, family planning, reproductive care, vaccination. IFH\/NHF: family planning, gender-based violence support, reproductive care.", "HEALTH_AR": "JHAS RH: ante and post-natal care, family planning, reproductive care, vaccination. IFH\/NHF: family planning, gender-based violence support, reproductive care.", "EMERGENCY": "N", "REPRODUCTI": "Y", "MALNUTRITI": "N", "VACCINATIO": "Y", "ACUTE_COND": "N", "ORT": "N", "GBV": "Y", "DENTIST": "N", "PSYCHOTHER": "N", "SECONDARY": "N", "PHYSIOTHER": "N" }, "geometry": { "type": "Point", "coordinates": [ 36.3418858962, 32.287352338 ] } },
{ "type": "Feature", "properties": { "OBJECTID_1": 103, "TYPE": "Playground", "HEALTH_TYP": "Camp Facility", "OPERATOR": "UNICEF", "IS_CONSTRU": null, "DISTRICT": 8, "NAME_EN": "Mercy Corps Playground M7", "NAME_AR": "Ù…Ù†Ø·Ù‚Ø© Ù„Ø¹Ø¨ Ù…ÙŠØ±Ø³ÙŠ ÙƒÙˆØ±M7", "HOURS_EN": null, "HOURS_AR": null, "HEALTH_EN": null, "HEALTH_AR": null, "EMERGENCY": null, "REPRODUCTI": null, "MALNUTRITI": null, "VACCINATIO": null, "ACUTE_COND": null, "ORT": null, "GBV": null, "DENTIST": null, "PSYCHOTHER": null, "SECONDARY": null, "PHYSIOTHER": null }, "geometry": { "type": "Point", "coordinates": [ 36.3380065582, 32.2819179671 ] } },
{ "type": "Feature", "properties": { "OBJECTID_1": 104, "TYPE": "Distribution Point", "HEALTH_TYP": "Camp Facility", "OPERATOR": "Imdad", "IS_CONSTRU": null, "DISTRICT": 11, "NAME_EN": "Imdad Bakery", "NAME_AR": "Ù…Ø®Ø¨Ø² Ø§Ù…Ø¯Ø§Ø¯", "HOURS_EN": null, "HOURS_AR": null, "HEALTH_EN": null, "HEALTH_AR": null, "EMERGENCY": null, "REPRODUCTI": null, "MALNUTRITI": null, "VACCINATIO": null, "ACUTE_COND": null, "ORT": null, "GBV": null, "DENTIST": null, "PSYCHOTHER": null, "SECONDARY": null, "PHYSIOTHER": null }, "geometry": { "type": "Point", "coordinates": [ 36.3205371098, 32.2861385086 ] } },
{ "type": "Feature", "properties": { "OBJECTID_1": 105, "TYPE": "Office", "HEALTH_TYP": "Camp Facility", "OPERATOR": "UNHCR", "IS_CONSTRU": null, "DISTRICT": 3, "NAME_EN": "Bail Out Office", "NAME_AR": "Ù…Ø±ÙƒØ² Ø§Ù„ÙƒÙØ§Ù„Ø§Øª", "HOURS_EN": null, "HOURS_AR": null, "HEALTH_EN": null, "HEALTH_AR": null, "EMERGENCY": null, "REPRODUCTI": null, "MALNUTRITI": null, "VACCINATIO": null, "ACUTE_COND": null, "ORT": null, "GBV": null, "DENTIST": null, "PSYCHOTHER": null, "SECONDARY": null, "PHYSIOTHER": null }, "geometry": { "type": "Point", "coordinates": [ 36.3284356461, 32.3018725652 ] } },
{ "type": "Feature", "properties": { "OBJECTID_1": 106, "TYPE": "Registration", "HEALTH_TYP": "Camp Facility", "OPERATOR": "IRC", "IS_CONSTRU": null, "DISTRICT": 3, "NAME_EN": "IRC Reception", "NAME_AR": "Ù…ÙƒØ§ØªØ¨ Ø§Ù„Ø§Ø³ØªÙ‚Ø¨Ø§Ù„ IRC", "HOURS_EN": null, "HOURS_AR": null, "HEALTH_EN": null, "HEALTH_AR": null, "EMERGENCY": null, "REPRODUCTI": null, "MALNUTRITI": null, "VACCINATIO": null, "ACUTE_COND": null, "ORT": null, "GBV": null, "DENTIST": null, "PSYCHOTHER": null, "SECONDARY": null, "PHYSIOTHER": null }, "geometry": { "type": "Point", "coordinates": [ 36.3250562255, 32.3027419766 ] } },
{ "type": "Feature", "properties": { "OBJECTID_1": 107, "TYPE": "Warehouse", "HEALTH_TYP": "Camp Facility", "OPERATOR": "UNICEF", "IS_CONSTRU": null, "DISTRICT": 1, "NAME_EN": "Open Hands", "NAME_AR": "Ø§Ù„ÙŠØ¯ Ø§Ù„Ù…ÙØªÙˆØ­Ù‡", "HOURS_EN": null, "HOURS_AR": null, "HEALTH_EN": null, "HEALTH_AR": null, "EMERGENCY": null, "REPRODUCTI": null, "MALNUTRITI": null, "VACCINATIO": null, "ACUTE_COND": null, "ORT": null, "GBV": null, "DENTIST": null, "PSYCHOTHER": null, "SECONDARY": null, "PHYSIOTHER": null }, "geometry": { "type": "Point", "coordinates": [ 36.321127187, 32.304255226 ] } },
{ "type": "Feature", "properties": { "OBJECTID_1": 108, "TYPE": "Community Center", "HEALTH_TYP": "Camp Facility", "OPERATOR": "SCJ", "IS_CONSTRU": null, "DISTRICT": 8, "NAME_EN": "SCJ", "NAME_AR": "Ø­Ù…Ø§ÙŠØ© Ø§Ù„Ø·ÙÙ„ Ø§Ù„Ø§Ø±Ø¯Ù†ÙŠÙ‡", "HOURS_EN": null, "HOURS_AR": null, "HEALTH_EN": null, "HEALTH_AR": null, "EMERGENCY": null, "REPRODUCTI": null, "MALNUTRITI": null, "VACCINATIO": null, "ACUTE_COND": null, "ORT": null, "GBV": null, "DENTIST": null, "PSYCHOTHER": null, "SECONDARY": null, "PHYSIOTHER": null }, "geometry": { "type": "Point", "coordinates": [ 36.3344736314, 32.2821862958 ] } },
{ "type": "Feature", "properties": { "OBJECTID_1": 109, "TYPE": "Child Friendly Space", "HEALTH_TYP": "Camp Facility with Health Services", "OPERATOR": "SCJ", "IS_CONSTRU": null, "DISTRICT": 5, "NAME_EN": "SCJ", "NAME_AR": "Ù…Ø³Ø§Ø­Ø© ØµØ¯ÙŠÙ‚Ø© Ù„Ù„Ø·ÙÙ„", "HOURS_EN": "9:00am-3:00pm (Sun-Thu)", "HOURS_AR": "9:00am-3:00pm (Sun-Thu)", "HEALTH_EN": "malnutrition screening, reproductive care, young children support", "HEALTH_AR": "malnutrition screening, reproductive care, young children support", "EMERGENCY": "N", "REPRODUCTI": "Y", "MALNUTRITI": "Y", "VACCINATIO": "N", "ACUTE_COND": "N", "ORT": "N", "GBV": "N", "DENTIST": "N", "PSYCHOTHER": "N", "SECONDARY": "N", "PHYSIOTHER": "N" }, "geometry": { "type": "Point", "coordinates": [ 36.3284134205, 32.299417798 ] } },
{ "type": "Feature", "properties": { "OBJECTID_1": 110, "TYPE": "Child Friendly Space", "HEALTH_TYP": "Camp Facility", "OPERATOR": "SCI", "IS_CONSTRU": null, "DISTRICT": 8, "NAME_EN": "CFS R", "NAME_AR": "Ù…Ø³Ø§Ø­Ø© ØµØ¯ÙŠÙ‚Ø© Ù„Ù„Ø·ÙÙ„", "HOURS_EN": null, "HOURS_AR": null, "HEALTH_EN": null, "HEALTH_AR": null, "EMERGENCY": null, "REPRODUCTI": null, "MALNUTRITI": null, "VACCINATIO": null, "ACUTE_COND": null, "ORT": null, "GBV": null, "DENTIST": null, "PSYCHOTHER": null, "SECONDARY": null, "PHYSIOTHER": null }, "geometry": { "type": "Point", "coordinates": [ 36.336346761, 32.2842167809 ] } },
{ "type": "Feature", "properties": { "OBJECTID_1": 111, "TYPE": "Youth Center", "HEALTH_TYP": "Camp Facility", "OPERATOR": "LWF", "IS_CONSTRU": null, "DISTRICT": 5, "NAME_EN": "LWF", "NAME_AR": "LWF", "HOURS_EN": null, "HOURS_AR": null, "HEALTH_EN": null, "HEALTH_AR": null, "EMERGENCY": null, "REPRODUCTI": null, "MALNUTRITI": null, "VACCINATIO": null, "ACUTE_COND": null, "ORT": null, "GBV": null, "DENTIST": null, "PSYCHOTHER": null, "SECONDARY": null, "PHYSIOTHER": null }, "geometry": { "type": "Point", "coordinates": [ 36.3304414981, 32.293826036 ] } },
{ "type": "Feature", "properties": { "OBJECTID_1": 112, "TYPE": "Health", "HEALTH_TYP": "Camp Facility", "OPERATOR": null, "IS_CONSTRU": null, "DISTRICT": 5, "NAME_EN": "Holy Land", "NAME_AR": "Ù…Ø±ÙƒØ² Ø§Ù„Ø§Ø±Ø§Ø¶ÙŠ Ø§Ù„Ù…Ù‚Ø¯Ø³Ø©", "HOURS_EN": null, "HOURS_AR": null, "HEALTH_EN": null, "HEALTH_AR": null, "EMERGENCY": null, "REPRODUCTI": null, "MALNUTRITI": null, "VACCINATIO": null, "ACUTE_COND": null, "ORT": null, "GBV": null, "DENTIST": null, "PSYCHOTHER": null, "SECONDARY": null, "PHYSIOTHER": null }, "geometry": { "type": "Point", "coordinates": [ 36.3266483614, 32.2937279002 ] } },
{ "type": "Feature", "properties": { "OBJECTID_1": 113, "TYPE": "School", "HEALTH_TYP": "Camp Facility", "OPERATOR": "UNICEF", "IS_CONSTRU": null, "DISTRICT": 12, "NAME_EN": "School 7 (Kuwait)", "NAME_AR": "Ø§Ù„Ù…Ø¯Ø±Ø³Ø© Ø§Ù„ÙƒÙˆÙŠØªÙŠØ© 2", "HOURS_EN": null, "HOURS_AR": null, "HEALTH_EN": null, "HEALTH_AR": null, "EMERGENCY": null, "REPRODUCTI": null, "MALNUTRITI": null, "VACCINATIO": null, "ACUTE_COND": null, "ORT": null, "GBV": null, "DENTIST": null, "PSYCHOTHER": null, "SECONDARY": null, "PHYSIOTHER": null }, "geometry": { "type": "Point", "coordinates": [ 36.3131202954, 32.2918061887 ] } },
{ "type": "Feature", "properties": { "OBJECTID_1": 114, "TYPE": "Security", "HEALTH_TYP": "Camp Facility", "OPERATOR": "Police", "IS_CONSTRU": null, "DISTRICT": 11, "NAME_EN": "Police Substation 2", "NAME_AR": "Ù…Ø±ÙƒØ² Ø§Ù„Ø´Ø±Ø·Ø© Ø§Ù„ÙØ±Ø¹ÙŠØ© 2", "HOURS_EN": null, "HOURS_AR": null, "HEALTH_EN": null, "HEALTH_AR": null, "EMERGENCY": null, "REPRODUCTI": null, "MALNUTRITI": null, "VACCINATIO": null, "ACUTE_COND": null, "ORT": null, "GBV": null, "DENTIST": null, "PSYCHOTHER": null, "SECONDARY": null, "PHYSIOTHER": null }, "geometry": { "type": "Point", "coordinates": [ 36.3201263847, 32.2867563358 ] } },
{ "type": "Feature", "properties": { "OBJECTID_1": 115, "TYPE": "Vacant", "HEALTH_TYP": "Camp Facility", "OPERATOR": null, "IS_CONSTRU": null, "DISTRICT": 10, "NAME_EN": "Vacant", "NAME_AR": "Ù…Ø³Ø§Ø­Ø© Ø´Ø§ØºØ±Ø©", "HOURS_EN": null, "HOURS_AR": null, "HEALTH_EN": null, "HEALTH_AR": null, "EMERGENCY": null, "REPRODUCTI": null, "MALNUTRITI": null, "VACCINATIO": null, "ACUTE_COND": null, "ORT": null, "GBV": null, "DENTIST": null, "PSYCHOTHER": null, "SECONDARY": null, "PHYSIOTHER": null }, "geometry": { "type": "Point", "coordinates": [ 36.3272744939, 32.2852388835 ] } },
{ "type": "Feature", "properties": { "OBJECTID_1": 116, "TYPE": "Recreation", "HEALTH_TYP": "Camp Facility", "OPERATOR": null, "IS_CONSTRU": null, "DISTRICT": 9, "NAME_EN": "Norway Football Field", "NAME_AR": "Ø§Ù„Ù…Ù„Ø¹Ø¨ Ø§Ù„Ù†Ø±ÙˆÙŠØ¬ÙŠ", "HOURS_EN": null, "HOURS_AR": null, "HEALTH_EN": null, "HEALTH_AR": null, "EMERGENCY": null, "REPRODUCTI": null, "MALNUTRITI": null, "VACCINATIO": null, "ACUTE_COND": null, "ORT": null, "GBV": null, "DENTIST": null, "PSYCHOTHER": null, "SECONDARY": null, "PHYSIOTHER": null }, "geometry": { "type": "Point", "coordinates": [ 36.3273835861, 32.2839825388 ] } },
{ "type": "Feature", "properties": { "OBJECTID_1": 117, "TYPE": "School", "HEALTH_TYP": "Camp Facility", "OPERATOR": "UNICEF", "IS_CONSTRU": "Y", "DISTRICT": 3, "NAME_EN": "UNICEF School", "NAME_AR": "Ù…Ø¯Ø±Ø³Ø© Ø§Ù„ÙŠÙˆÙ†ÙŠØ³ÙŠÙ", "HOURS_EN": null, "HOURS_AR": null, "HEALTH_EN": null, "HEALTH_AR": null, "EMERGENCY": null, "REPRODUCTI": null, "MALNUTRITI": null, "VACCINATIO": null, "ACUTE_COND": null, "ORT": null, "GBV": null, "DENTIST": null, "PSYCHOTHER": null, "SECONDARY": null, "PHYSIOTHER": null }, "geometry": { "type": "Point", "coordinates": [ 36.3220530637, 32.3004233565 ] } },
{ "type": "Feature", "properties": { "OBJECTID_1": 118, "TYPE": "Distribution Point", "HEALTH_TYP": "Camp Facility", "OPERATOR": "NRC", "IS_CONSTRU": null, "DISTRICT": 6, "NAME_EN": "NRC Distribution Point", "NAME_AR": "Ø§Ù„Ù†Ø±ÙˆÙŠØ¬ÙŠØ©", "HOURS_EN": null, "HOURS_AR": null, "HEALTH_EN": null, "HEALTH_AR": null, "EMERGENCY": null, "REPRODUCTI": null, "MALNUTRITI": null, "VACCINATIO": null, "ACUTE_COND": null, "ORT": null, "GBV": null, "DENTIST": null, "PSYCHOTHER": null, "SECONDARY": null, "PHYSIOTHER": null }, "geometry": { "type": "Point", "coordinates": [ 36.3347538559, 32.2996341476 ] } },
{ "type": "Feature", "properties": { "OBJECTID_1": 119, "TYPE": "Kindergarten", "HEALTH_TYP": "Camp Facility", "OPERATOR": "SCJ", "IS_CONSTRU": null, "DISTRICT": 6, "NAME_EN": "Kindergarten", "NAME_AR": "Ø±ÙˆØ¶Ø© Ø£Ø·ÙØ§Ù„", "HOURS_EN": null, "HOURS_AR": null, "HEALTH_EN": null, "HEALTH_AR": null, "EMERGENCY": null, "REPRODUCTI": null, "MALNUTRITI": null, "VACCINATIO": null, "ACUTE_COND": null, "ORT": null, "GBV": null, "DENTIST": null, "PSYCHOTHER": null, "SECONDARY": null, "PHYSIOTHER": null }, "geometry": { "type": "Point", "coordinates": [ 36.334826744, 32.2935222269 ] } },
{ "type": "Feature", "properties": { "OBJECTID_1": 120, "TYPE": "Vacant", "HEALTH_TYP": "Camp Facility", "OPERATOR": null, "IS_CONSTRU": null, "DISTRICT": 6, "NAME_EN": "Vacant", "NAME_AR": "Ù…Ø³Ø§Ø­Ø© Ø´Ø§ØºØ±Ø©", "HOURS_EN": null, "HOURS_AR": null, "HEALTH_EN": null, "HEALTH_AR": null, "EMERGENCY": null, "REPRODUCTI": null, "MALNUTRITI": null, "VACCINATIO": null, "ACUTE_COND": null, "ORT": null, "GBV": null, "DENTIST": null, "PSYCHOTHER": null, "SECONDARY": null, "PHYSIOTHER": null }, "geometry": { "type": "Point", "coordinates": [ 36.3336099916, 32.2908806221 ] } },
{ "type": "Feature", "properties": { "OBJECTID_1": 121, "TYPE": "Youth Center", "HEALTH_TYP": "Camp Facility", "OPERATOR": "FCA", "IS_CONSTRU": null, "DISTRICT": 8, "NAME_EN": "Finn Church Aid CFS", "NAME_AR": "ÙÙŠÙ† Ù…Ø¹ÙˆÙ†Ø© Ø§Ù„ÙƒÙ†ÙŠØ³Ø©", "HOURS_EN": null, "HOURS_AR": null, "HEALTH_EN": null, "HEALTH_AR": null, "EMERGENCY": null, "REPRODUCTI": null, "MALNUTRITI": null, "VACCINATIO": null, "ACUTE_COND": null, "ORT": null, "GBV": null, "DENTIST": null, "PSYCHOTHER": null, "SECONDARY": null, "PHYSIOTHER": null }, "geometry": { "type": "Point", "coordinates": [ 36.3363802013, 32.2891632485 ] } },
{ "type": "Feature", "properties": { "OBJECTID_1": 122, "TYPE": "Distribution Point", "HEALTH_TYP": "Camp Facility", "OPERATOR": "Save Way", "IS_CONSTRU": null, "DISTRICT": 8, "NAME_EN": "WHOLESALE Centre", "NAME_AR": "ØµØ±Ù ÙƒÙˆØ¨ÙˆÙ†Ø§Øª", "HOURS_EN": null, "HOURS_AR": null, "HEALTH_EN": null, "HEALTH_AR": null, "EMERGENCY": null, "REPRODUCTI": null, "MALNUTRITI": null, "VACCINATIO": null, "ACUTE_COND": null, "ORT": null, "GBV": null, "DENTIST": null, "PSYCHOTHER": null, "SECONDARY": null, "PHYSIOTHER": null }, "geometry": { "type": "Point", "coordinates": [ 36.3360144382, 32.281419284 ] } },
{ "type": "Feature", "properties": { "OBJECTID_1": 123, "TYPE": "Water Facilities", "HEALTH_TYP": "Camp Facility", "OPERATOR": "Oxfam", "IS_CONSTRU": null, "DISTRICT": 6, "NAME_EN": "Water Storage", "NAME_AR": "ØªØ®Ø²ÙŠÙ† Ù…ÙŠØ§Ù‡", "HOURS_EN": null, "HOURS_AR": null, "HEALTH_EN": null, "HEALTH_AR": null, "EMERGENCY": null, "REPRODUCTI": null, "MALNUTRITI": null, "VACCINATIO": null, "ACUTE_COND": null, "ORT": null, "GBV": null, "DENTIST": null, "PSYCHOTHER": null, "SECONDARY": null, "PHYSIOTHER": null }, "geometry": { "type": "Point", "coordinates": [ 36.3343774712, 32.2941904974 ] } },
{ "type": "Feature", "properties": { "OBJECTID_1": 124, "TYPE": "Vacant", "HEALTH_TYP": "Camp Facility", "OPERATOR": null, "IS_CONSTRU": null, "DISTRICT": 1, "NAME_EN": "Vacant", "NAME_AR": "Ù…Ø³Ø§Ø­Ø© Ø´Ø§ØºØ±Ø©", "HOURS_EN": null, "HOURS_AR": null, "HEALTH_EN": null, "HEALTH_AR": null, "EMERGENCY": null, "REPRODUCTI": null, "MALNUTRITI": null, "VACCINATIO": null, "ACUTE_COND": null, "ORT": null, "GBV": null, "DENTIST": null, "PSYCHOTHER": null, "SECONDARY": null, "PHYSIOTHER": null }, "geometry": { "type": "Point", "coordinates": [ 36.3199500294, 32.303985655 ] } },
{ "type": "Feature", "properties": { "OBJECTID_1": 125, "TYPE": "Office", "HEALTH_TYP": "Healthcare Facility", "OPERATOR": null, "IS_CONSTRU": null, "DISTRICT": 5, "NAME_EN": "Civil Defence", "NAME_AR": "Ø§Ù„Ø¯ÙØ§Ø¹ Ø§Ù„Ù…Ø¯Ù†ÙŠ", "HOURS_EN": "24\/7", "HOURS_AR": "24\/7", "HEALTH_EN": "emergency", "HEALTH_AR": "emergency", "EMERGENCY": "Y", "REPRODUCTI": "N", "MALNUTRITI": "N", "VACCINATIO": "N", "ACUTE_COND": "N", "ORT": "N", "GBV": "N", "DENTIST": "N", "PSYCHOTHER": "N", "SECONDARY": "N", "PHYSIOTHER": "N" }, "geometry": { "type": "Point", "coordinates": [ 36.3295976584, 32.3014587255 ] } },
{ "type": "Feature", "properties": { "OBJECTID_1": 126, "TYPE": "Office", "HEALTH_TYP": "Camp Facility", "OPERATOR": null, "IS_CONSTRU": null, "DISTRICT": 5, "NAME_EN": "Religious Court", "NAME_AR": "Ø§Ù„Ù…Ø­ÙƒÙ…Ø© Ø§Ù„Ø´Ø±Ø¹ÙŠØ©", "HOURS_EN": null, "HOURS_AR": null, "HEALTH_EN": null, "HEALTH_AR": null, "EMERGENCY": null, "REPRODUCTI": null, "MALNUTRITI": null, "VACCINATIO": null, "ACUTE_COND": null, "ORT": null, "GBV": null, "DENTIST": null, "PSYCHOTHER": null, "SECONDARY": null, "PHYSIOTHER": null }, "geometry": { "type": "Point", "coordinates": [ 36.3297454418, 32.301042397 ] } },
{ "type": "Feature", "properties": { "OBJECTID_1": 127, "TYPE": "Security", "HEALTH_TYP": "Camp Facility", "OPERATOR": "Police", "IS_CONSTRU": "Y", "DISTRICT": 8, "NAME_EN": "Police Substation 1", "NAME_AR": "Ù…Ø±ÙƒØ² Ø§Ù„Ø´Ø±Ø·Ø© Ø§Ù„ÙØ±Ø¹ÙŠØ© 1", "HOURS_EN": null, "HOURS_AR": null, "HEALTH_EN": null, "HEALTH_AR": null, "EMERGENCY": null, "REPRODUCTI": null, "MALNUTRITI": null, "VACCINATIO": null, "ACUTE_COND": null, "ORT": null, "GBV": null, "DENTIST": null, "PSYCHOTHER": null, "SECONDARY": null, "PHYSIOTHER": null }, "geometry": { "type": "Point", "coordinates": [ 36.3368118592, 32.2811716051 ] } },
{ "type": "Feature", "properties": { "OBJECTID_1": 128, "TYPE": "Recreation", "HEALTH_TYP": "Camp Facility", "OPERATOR": "IRD", "IS_CONSTRU": null, "DISTRICT": 5, "NAME_EN": "IRD Play Area", "NAME_AR": "IRD Ù…Ù„Ø¹Ø¨", "HOURS_EN": null, "HOURS_AR": null, "HEALTH_EN": null, "HEALTH_AR": null, "EMERGENCY": null, "REPRODUCTI": null, "MALNUTRITI": null, "VACCINATIO": null, "ACUTE_COND": null, "ORT": null, "GBV": null, "DENTIST": null, "PSYCHOTHER": null, "SECONDARY": null, "PHYSIOTHER": null }, "geometry": { "type": "Point", "coordinates": [ 36.3288749807, 32.2939088392 ] } },
{ "type": "Feature", "properties": { "OBJECTID_1": 129, "TYPE": "Health", "HEALTH_TYP": "Healthcare Facility", "OPERATOR": null, "IS_CONSTRU": null, "DISTRICT": 8, "NAME_EN": "Qatari Clinic", "NAME_AR": "Ø§Ù„Ø¹ÙŠØ§Ø¯Ø© Ø§Ù„Ù‚Ø·Ø±ÙŠØ©", "HOURS_EN": "9:00am-4:00pm (Sat-Wed)", "HOURS_AR": "9:00am-4:00pm (Sat-Wed)", "HEALTH_EN": "acute condition management, ante and post-natal care, dentist, emergency, family planning, GP, gynaecologist, malnutrition screening, ORT, paediatrician, SCJ booth, vaccination", "HEALTH_AR": "acute condition management, ante and post-natal care, dentist, emergency, family planning, GP, gynaecologist, malnutrition screening, ORT, paediatrician, SCJ booth, vaccination", "EMERGENCY": "Y", "REPRODUCTI": "Y", "MALNUTRITI": "Y", "VACCINATIO": "Y", "ACUTE_COND": "N", "ORT": "Y", "GBV": "N", "DENTIST": "Y", "PSYCHOTHER": "N", "SECONDARY": "Y", "PHYSIOTHER": "N" }, "geometry": { "type": "Point", "coordinates": [ 36.3347743859, 32.2818258353 ] } },
{ "type": "Feature", "properties": { "OBJECTID_1": 130, "TYPE": "Vacant", "HEALTH_TYP": "Camp Facility", "OPERATOR": null, "IS_CONSTRU": null, "DISTRICT": 12, "NAME_EN": "Vacant", "NAME_AR": "Ù…Ø³Ø§Ø­Ø© Ø´Ø§ØºØ±Ø©", "HOURS_EN": null, "HOURS_AR": null, "HEALTH_EN": null, "HEALTH_AR": null, "EMERGENCY": null, "REPRODUCTI": null, "MALNUTRITI": null, "VACCINATIO": null, "ACUTE_COND": null, "ORT": null, "GBV": null, "DENTIST": null, "PSYCHOTHER": null, "SECONDARY": null, "PHYSIOTHER": null }, "geometry": { "type": "Point", "coordinates": [ 36.3126158085, 32.2938360689 ] } },
{ "type": "Feature", "properties": { "OBJECTID_1": 131, "TYPE": "Office", "HEALTH_TYP": "Camp Facility with Health Services", "OPERATOR": null, "IS_CONSTRU": null, "DISTRICT": 10, "NAME_EN": "FPSC", "NAME_AR": "Ø­Ù…Ø§ÙŠØ© Ø§Ù„Ø·ÙÙ„ Ø§Ù„Ø§Ø±Ø¯Ù†ÙŠÙ‡", "HOURS_EN": "9:30am-3:30pm (Sun-Thu)", "HOURS_AR": "9:30am-3:30pm (Sun-Thu)", "HEALTH_EN": "mobility device support and maintenance, physiotherapy", "HEALTH_AR": "mobility device support and maintenance, physiotherapy", "EMERGENCY": "N", "REPRODUCTI": "N", "MALNUTRITI": "N", "VACCINATIO": "N", "ACUTE_COND": "N", "ORT": "N", "GBV": "N", "DENTIST": "N", "PSYCHOTHER": "N", "SECONDARY": "Y", "PHYSIOTHER": "Y" }, "geometry": { "type": "Point", "coordinates": [ 36.3226911556, 32.2855215734 ] } },
{ "type": "Feature", "properties": { "OBJECTID_1": 132, "TYPE": "Vacant", "HEALTH_TYP": "Camp Facility", "OPERATOR": null, "IS_CONSTRU": null, "DISTRICT": 10, "NAME_EN": "Vacant", "NAME_AR": "Ù…Ø³Ø§Ø­Ø© Ø´Ø§ØºØ±Ø©", "HOURS_EN": null, "HOURS_AR": null, "HEALTH_EN": null, "HEALTH_AR": null, "EMERGENCY": null, "REPRODUCTI": null, "MALNUTRITI": null, "VACCINATIO": null, "ACUTE_COND": null, "ORT": null, "GBV": null, "DENTIST": null, "PSYCHOTHER": null, "SECONDARY": null, "PHYSIOTHER": null }, "geometry": { "type": "Point", "coordinates": [ 36.3220933775, 32.2870332294 ] } },
{ "type": "Feature", "properties": { "OBJECTID_1": 133, "TYPE": "Security", "HEALTH_TYP": "Camp Facility", "OPERATOR": null, "IS_CONSTRU": null, "DISTRICT": 7, "NAME_EN": "Returnees Bus Station", "NAME_AR": "Ù…ÙˆÙ‚Ù Ø¨Ø§ØµØ§Øª Ø§Ù„Ø¹ÙˆØ¯Ø©", "HOURS_EN": null, "HOURS_AR": null, "HEALTH_EN": null, "HEALTH_AR": null, "EMERGENCY": null, "REPRODUCTI": null, "MALNUTRITI": null, "VACCINATIO": null, "ACUTE_COND": null, "ORT": null, "GBV": null, "DENTIST": null, "PSYCHOTHER": null, "SECONDARY": null, "PHYSIOTHER": null }, "geometry": { "type": "Point", "coordinates": [ 36.3430352461, 32.2895462902 ] } },
{ "type": "Feature", "properties": { "OBJECTID_1": 134, "TYPE": "Office", "HEALTH_TYP": "Camp Facility", "OPERATOR": null, "IS_CONSTRU": null, "DISTRICT": 7, "NAME_EN": "Acted Water Truck Parking Station", "NAME_AR": "Ù…Ø­Ø·Ø© ÙˆÙ‚ÙˆÙ Ø´Ø§Ø­Ù†Ø§Øª Ø§Ù„Ù…ÙŠØ§Ù‡", "HOURS_EN": null, "HOURS_AR": null, "HEALTH_EN": null, "HEALTH_AR": null, "EMERGENCY": null, "REPRODUCTI": null, "MALNUTRITI": null, "VACCINATIO": null, "ACUTE_COND": null, "ORT": null, "GBV": null, "DENTIST": null, "PSYCHOTHER": null, "SECONDARY": null, "PHYSIOTHER": null }, "geometry": { "type": "Point", "coordinates": [ 36.343264019, 32.2903350935 ] } },
{ "type": "Feature", "properties": { "OBJECTID_1": 135, "TYPE": "Distribution Point", "HEALTH_TYP": "Camp Facility", "OPERATOR": "WFP", "IS_CONSTRU": null, "DISTRICT": 7, "NAME_EN": "Tazweed Centre", "NAME_AR": "Ù…Ø±ÙƒØ² ØªØ²ÙˆÙŠØ¯", "HOURS_EN": null, "HOURS_AR": null, "HEALTH_EN": null, "HEALTH_AR": null, "EMERGENCY": null, "REPRODUCTI": null, "MALNUTRITI": null, "VACCINATIO": null, "ACUTE_COND": null, "ORT": null, "GBV": null, "DENTIST": null, "PSYCHOTHER": null, "SECONDARY": null, "PHYSIOTHER": null }, "geometry": { "type": "Point", "coordinates": [ 36.3406911402, 32.2966693467 ] } },
{ "type": "Feature", "properties": { "OBJECTID_1": 136, "TYPE": "Health", "HEALTH_TYP": "Healthcare Facility", "OPERATOR": "JHAS", "IS_CONSTRU": null, "DISTRICT": 6, "NAME_EN": "JHAS PHC Centre", "NAME_AR": "Ø¹ÙŠØ§Ø¯Ø© Ø§Ù„Ø¹ÙˆÙ†", "HOURS_EN": "9:00am-4:00pm (Sat-Thu)", "HOURS_AR": "9:00am-4:00pm (Sat-Thu)", "HEALTH_EN": "acute and chronic condition management, emergency, GP, gynecologist, health education, lab, malnutrition screening, MMU, referrals to external hospitals, vaccination", "HEALTH_AR": "acute and chronic condition management, emergency, GP, gynecologist, health education, lab, malnutrition screening, MMU, referrals to external hospitals, vaccination", "EMERGENCY": "Y", "REPRODUCTI": "N", "MALNUTRITI": "Y", "VACCINATIO": "Y", "ACUTE_COND": "Y", "ORT": "N", "GBV": "N", "DENTIST": "N", "PSYCHOTHER": "N", "SECONDARY": "N", "PHYSIOTHER": "N" }, "geometry": { "type": "Point", "coordinates": [ 36.3363909375, 32.2990108337 ] } },
{ "type": "Feature", "properties": { "OBJECTID_1": 137, "TYPE": "Community Center", "HEALTH_TYP": "Camp Facility", "OPERATOR": null, "IS_CONSTRU": null, "DISTRICT": 5, "NAME_EN": "JEN", "NAME_AR": "Ù…Ø³Ø§Ø­Ø© Ø´Ø§ØºØ±Ø©", "HOURS_EN": null, "HOURS_AR": null, "HEALTH_EN": null, "HEALTH_AR": null, "EMERGENCY": null, "REPRODUCTI": null, "MALNUTRITI": null, "VACCINATIO": null, "ACUTE_COND": null, "ORT": null, "GBV": null, "DENTIST": null, "PSYCHOTHER": null, "SECONDARY": null, "PHYSIOTHER": null }, "geometry": { "type": "Point", "coordinates": [ 36.3331598049, 32.2981855561 ] } },
{ "type": "Feature", "properties": { "OBJECTID_1": 138, "TYPE": "Community Center", "HEALTH_TYP": "Camp Facility", "OPERATOR": null, "IS_CONSTRU": null, "DISTRICT": 11, "NAME_EN": "Korea Taekwondo Academy (KFHI)", "NAME_AR": "Ù…Ø±ÙƒØ² ØªØ¯Ø±ÙŠØ¨ Ø§Ù„ØªÙƒÙˆÙ†Ø¯Ùˆ", "HOURS_EN": null, "HOURS_AR": null, "HEALTH_EN": null, "HEALTH_AR": null, "EMERGENCY": null, "REPRODUCTI": null, "MALNUTRITI": null, "VACCINATIO": null, "ACUTE_COND": null, "ORT": null, "GBV": null, "DENTIST": null, "PSYCHOTHER": null, "SECONDARY": null, "PHYSIOTHER": null }, "geometry": { "type": "Point", "coordinates": [ 36.3162885527, 32.2887839364 ] } },
{ "type": "Feature", "properties": { "OBJECTID_1": 139, "TYPE": "Vacant", "HEALTH_TYP": "Camp Facility", "OPERATOR": null, "IS_CONSTRU": null, "DISTRICT": 9, "NAME_EN": "Vacant", "NAME_AR": "Ù…Ø³Ø§Ø­Ø© Ø´Ø§ØºØ±Ø©", "HOURS_EN": null, "HOURS_AR": null, "HEALTH_EN": null, "HEALTH_AR": null, "EMERGENCY": null, "REPRODUCTI": null, "MALNUTRITI": null, "VACCINATIO": null, "ACUTE_COND": null, "ORT": null, "GBV": null, "DENTIST": null, "PSYCHOTHER": null, "SECONDARY": null, "PHYSIOTHER": null }, "geometry": { "type": "Point", "coordinates": [ 36.3319260189, 32.2836955363 ] } },
{ "type": "Feature", "properties": { "OBJECTID_1": 140, "TYPE": "Community Office", "HEALTH_TYP": "Camp Facility", "OPERATOR": null, "IS_CONSTRU": null, "DISTRICT": 4, "NAME_EN": "UN Women", "NAME_AR": "Ø§Ù„Ù…Ø±Ø§Ø© UN", "HOURS_EN": null, "HOURS_AR": null, "HEALTH_EN": null, "HEALTH_AR": null, "EMERGENCY": null, "REPRODUCTI": null, "MALNUTRITI": null, "VACCINATIO": null, "ACUTE_COND": null, "ORT": null, "GBV": null, "DENTIST": null, "PSYCHOTHER": null, "SECONDARY": null, "PHYSIOTHER": null }, "geometry": { "type": "Point", "coordinates": [ 36.3236171365, 32.2942835023 ] } },
{ "type": "Feature", "properties": { "OBJECTID_1": 141, "TYPE": "Community Center", "HEALTH_TYP": "Camp Facility", "OPERATOR": "Oxfam", "IS_CONSTRU": null, "DISTRICT": 7, "NAME_EN": "Oxfam C.C.", "NAME_AR": "Oxfam", "HOURS_EN": null, "HOURS_AR": null, "HEALTH_EN": null, "HEALTH_AR": null, "EMERGENCY": null, "REPRODUCTI": null, "MALNUTRITI": null, "VACCINATIO": null, "ACUTE_COND": null, "ORT": null, "GBV": null, "DENTIST": null, "PSYCHOTHER": null, "SECONDARY": null, "PHYSIOTHER": null }, "geometry": { "type": "Point", "coordinates": [ 36.3399509618, 32.2920447502 ] } },
{ "type": "Feature", "properties": { "OBJECTID_1": 142, "TYPE": "Community Center", "HEALTH_TYP": "Camp Facility", "OPERATOR": "Oxfam", "IS_CONSTRU": null, "DISTRICT": 8, "NAME_EN": "Oxfam", "NAME_AR": "Oxfam", "HOURS_EN": null, "HOURS_AR": null, "HEALTH_EN": null, "HEALTH_AR": null, "EMERGENCY": null, "REPRODUCTI": null, "MALNUTRITI": null, "VACCINATIO": null, "ACUTE_COND": null, "ORT": null, "GBV": null, "DENTIST": null, "PSYCHOTHER": null, "SECONDARY": null, "PHYSIOTHER": null }, "geometry": { "type": "Point", "coordinates": [ 36.3370358338, 32.2858618747 ] } },
{ "type": "Feature", "properties": { "OBJECTID_1": 143, "TYPE": "Youth Center", "HEALTH_TYP": "Camp Facility", "OPERATOR": "NRC", "IS_CONSTRU": null, "DISTRICT": 8, "NAME_EN": "NRC Youth Centre", "NAME_AR": "Ù…Ø±ÙƒØ² ØªÙ…ÙƒÙŠÙ† Ø§Ù„Ø´Ø¨Ø§Ø¨", "HOURS_EN": null, "HOURS_AR": null, "HEALTH_EN": null, "HEALTH_AR": null, "EMERGENCY": null, "REPRODUCTI": null, "MALNUTRITI": null, "VACCINATIO": null, "ACUTE_COND": null, "ORT": null, "GBV": null, "DENTIST": null, "PSYCHOTHER": null, "SECONDARY": null, "PHYSIOTHER": null }, "geometry": { "type": "Point", "coordinates": [ 36.3358942685, 32.2886665707 ] } },
{ "type": "Feature", "properties": { "OBJECTID_1": 144, "TYPE": "School", "HEALTH_TYP": "Camp Facility", "OPERATOR": "UNICEF", "IS_CONSTRU": null, "DISTRICT": 3, "NAME_EN": "School 6 (Kuwait)", "NAME_AR": "Ø§Ù„Ù…Ø¯Ø±Ø³Ø© 6 Ø§Ù„ÙƒÙˆÙŠØªØ©", "HOURS_EN": null, "HOURS_AR": null, "HEALTH_EN": null, "HEALTH_AR": null, "EMERGENCY": null, "REPRODUCTI": null, "MALNUTRITI": null, "VACCINATIO": null, "ACUTE_COND": null, "ORT": null, "GBV": null, "DENTIST": null, "PSYCHOTHER": null, "SECONDARY": null, "PHYSIOTHER": null }, "geometry": { "type": "Point", "coordinates": [ 36.3278074912, 32.3010582949 ] } },
{ "type": "Feature", "properties": { "OBJECTID_1": 145, "TYPE": "Health", "HEALTH_TYP": "Healthcare Facility", "OPERATOR": "UNICEF", "IS_CONSTRU": null, "DISTRICT": 3, "NAME_EN": "AMR Mother and Child Centre", "NAME_AR": "AMR  Ù…Ø±ÙƒØ²Ø§Ù„Ø£Ù… Ùˆ Ø§Ù„Ø·ÙÙ„", "HOURS_EN": "8:00am-3:00pm (Sat-Thu)", "HOURS_AR": "8:00am-3:00pm (Sat-Thu)", "HEALTH_EN": "acute condition management, ante and post-natal care, dentist, emergency, family planning, malnutrition screening", "HEALTH_AR": "acute condition management, ante and post-natal care, dentist, emergency, family planning, malnutrition screening", "EMERGENCY": "Y", "REPRODUCTI": "Y", "MALNUTRITI": "Y", "VACCINATIO": "N", "ACUTE_COND": "Y", "ORT": "N", "GBV": "N", "DENTIST": "Y", "PSYCHOTHER": "N", "SECONDARY": "N", "PHYSIOTHER": "N" }, "geometry": { "type": "Point", "coordinates": [ 36.3278179026, 32.3005355276 ] } },
{ "type": "Feature", "properties": { "OBJECTID_1": 146, "TYPE": "Mosque", "HEALTH_TYP": "Camp Facility", "OPERATOR": "Kuwait", "IS_CONSTRU": null, "DISTRICT": 3, "NAME_EN": "Kuwaiti Mosque", "NAME_AR": "Ø§Ù„Ù…Ø³Ø¬Ø¯ Ø§Ù„ÙƒÙˆÙŠØªÙŠ", "HOURS_EN": null, "HOURS_AR": null, "HEALTH_EN": null, "HEALTH_AR": null, "EMERGENCY": null, "REPRODUCTI": null, "MALNUTRITI": null, "VACCINATIO": null, "ACUTE_COND": null, "ORT": null, "GBV": null, "DENTIST": null, "PSYCHOTHER": null, "SECONDARY": null, "PHYSIOTHER": null }, "geometry": { "type": "Point", "coordinates": [ 36.3276338114, 32.3001087503 ] } },
{ "type": "Feature", "properties": { "OBJECTID_1": 147, "TYPE": "Security", "HEALTH_TYP": "Camp Facility", "OPERATOR": "Police", "IS_CONSTRU": null, "DISTRICT": 7, "NAME_EN": "Gendarmerie", "NAME_AR": "Ø§Ù„Ø¯Ø±Ùƒ", "HOURS_EN": null, "HOURS_AR": null, "HEALTH_EN": null, "HEALTH_AR": null, "EMERGENCY": null, "REPRODUCTI": null, "MALNUTRITI": null, "VACCINATIO": null, "ACUTE_COND": null, "ORT": null, "GBV": null, "DENTIST": null, "PSYCHOTHER": null, "SECONDARY": null, "PHYSIOTHER": null }, "geometry": { "type": "Point", "coordinates": [ 36.3425766773, 32.2967637317 ] } },
{ "type": "Feature", "properties": { "OBJECTID_1": 148, "TYPE": "Playground", "HEALTH_TYP": "Camp Facility", "OPERATOR": "Mercy Corps", "IS_CONSTRU": null, "DISTRICT": 2, "NAME_EN": "Mercy Corps Playground SC-B", "NAME_AR": "Ù…Ù†Ø·Ù‚Ø© Ù„Ø¹Ø¨ Ù…ÙŠØ±Ø³ÙŠ ÙƒÙˆØ±M2", "HOURS_EN": null, "HOURS_AR": null, "HEALTH_EN": null, "HEALTH_AR": null, "EMERGENCY": null, "REPRODUCTI": null, "MALNUTRITI": null, "VACCINATIO": null, "ACUTE_COND": null, "ORT": null, "GBV": null, "DENTIST": null, "PSYCHOTHER": null, "SECONDARY": null, "PHYSIOTHER": null }, "geometry": { "type": "Point", "coordinates": [ 36.3173306557, 32.2986500005 ] } },
{ "type": "Feature", "properties": { "OBJECTID_1": 149, "TYPE": "Warehouse", "HEALTH_TYP": "Camp Facility", "OPERATOR": "UNHCR", "IS_CONSTRU": null, "DISTRICT": 7, "NAME_EN": "UNHCR Warehouse", "NAME_AR": "Ù…Ø³ØªÙˆØ¯Ø¹ UNHCR", "HOURS_EN": null, "HOURS_AR": null, "HEALTH_EN": null, "HEALTH_AR": null, "EMERGENCY": null, "REPRODUCTI": null, "MALNUTRITI": null, "VACCINATIO": null, "ACUTE_COND": null, "ORT": null, "GBV": null, "DENTIST": null, "PSYCHOTHER": null, "SECONDARY": null, "PHYSIOTHER": null }, "geometry": { "type": "Point", "coordinates": [ 36.3414829467, 32.2975746437 ] } },
{ "type": "Feature", "properties": { "OBJECTID_1": 150, "TYPE": "Youth Center", "HEALTH_TYP": "Camp Facility", "OPERATOR": null, "IS_CONSTRU": null, "DISTRICT": 7, "NAME_EN": "Multiactivity Centre 3 Male", "NAME_AR": "Ù…Ø±ÙƒØ² Ø§Ù„Ù†Ø´Ø§Ø·Ø§Øª Ù„Ù„Ø´Ø¨Ø§Ø¨ 3", "HOURS_EN": null, "HOURS_AR": null, "HEALTH_EN": null, "HEALTH_AR": null, "EMERGENCY": null, "REPRODUCTI": null, "MALNUTRITI": null, "VACCINATIO": null, "ACUTE_COND": null, "ORT": null, "GBV": null, "DENTIST": null, "PSYCHOTHER": null, "SECONDARY": null, "PHYSIOTHER": null }, "geometry": { "type": "Point", "coordinates": [ 36.3394624623, 32.2966514039 ] } },
{ "type": "Feature", "properties": { "OBJECTID_1": 151, "TYPE": "Water Facilities", "HEALTH_TYP": "Camp Facility", "OPERATOR": null, "IS_CONSTRU": null, "DISTRICT": 7, "NAME_EN": "Borehole 3", "NAME_AR": "Ø§Ù„Ø¨Ø¦Ø± 3", "HOURS_EN": null, "HOURS_AR": null, "HEALTH_EN": null, "HEALTH_AR": null, "EMERGENCY": null, "REPRODUCTI": null, "MALNUTRITI": null, "VACCINATIO": null, "ACUTE_COND": null, "ORT": null, "GBV": null, "DENTIST": null, "PSYCHOTHER": null, "SECONDARY": null, "PHYSIOTHER": null }, "geometry": { "type": "Point", "coordinates": [ 36.3371695928, 32.2914142482 ] } },
{ "type": "Feature", "properties": { "OBJECTID_1": 152, "TYPE": "Warehouse", "HEALTH_TYP": "Camp Facility", "OPERATOR": null, "IS_CONSTRU": null, "DISTRICT": 8, "NAME_EN": "ACTED Technical Site", "NAME_AR": "Ù…Ø±ÙƒØ² Ø§Ù„ØµÙŠØ§Ù†Ø© Ø§ÙƒØªØ¯", "HOURS_EN": null, "HOURS_AR": null, "HEALTH_EN": null, "HEALTH_AR": null, "EMERGENCY": null, "REPRODUCTI": null, "MALNUTRITI": null, "VACCINATIO": null, "ACUTE_COND": null, "ORT": null, "GBV": null, "DENTIST": null, "PSYCHOTHER": null, "SECONDARY": null, "PHYSIOTHER": null }, "geometry": { "type": "Point", "coordinates": [ 36.338696734, 32.2803902516 ] } },
{ "type": "Feature", "properties": { "OBJECTID_1": 153, "TYPE": "Water Facilities", "HEALTH_TYP": "Camp Facility", "OPERATOR": null, "IS_CONSTRU": null, "DISTRICT": 12, "NAME_EN": "Wastewater Treatment Plant", "NAME_AR": "Ù…Ø­Ø·Ø© Ù…Ø¹Ø§Ù„Ø¬Ø© Ù…ÙŠØ§Ù‡ Ø§Ù„ØµØ±Ù Ø§Ù„ØµØ­", "HOURS_EN": null, "HOURS_AR": null, "HEALTH_EN": null, "HEALTH_AR": null, "EMERGENCY": null, "REPRODUCTI": null, "MALNUTRITI": null, "VACCINATIO": null, "ACUTE_COND": null, "ORT": null, "GBV": null, "DENTIST": null, "PSYCHOTHER": null, "SECONDARY": null, "PHYSIOTHER": null }, "geometry": { "type": "Point", "coordinates": [ 36.3130905108, 32.2876394318 ] } },
{ "type": "Feature", "properties": { "OBJECTID_1": 154, "TYPE": "Community Center", "HEALTH_TYP": "Camp Facility", "OPERATOR": "IRD", "IS_CONSTRU": null, "DISTRICT": 7, "NAME_EN": "IRD", "NAME_AR": "Ù…Ø±ÙƒØ² Ø§Ø¬ØªÙ…Ø§Ø¹ÙŠIRD", "HOURS_EN": null, "HOURS_AR": null, "HEALTH_EN": null, "HEALTH_AR": null, "EMERGENCY": null, "REPRODUCTI": null, "MALNUTRITI": null, "VACCINATIO": null, "ACUTE_COND": null, "ORT": null, "GBV": null, "DENTIST": null, "PSYCHOTHER": null, "SECONDARY": null, "PHYSIOTHER": null }, "geometry": { "type": "Point", "coordinates": [ 36.3404171032, 32.2930766208 ] } },
{ "type": "Feature", "properties": { "OBJECTID_1": 156, "TYPE": "Warehouse", "HEALTH_TYP": "Camp Facility", "OPERATOR": null, "IS_CONSTRU": null, "DISTRICT": 8, "NAME_EN": "Al Thajaj Water\/Ice Factory", "NAME_AR": "Ù…ÙŠØ§Ù‡ Ø§Ù„Ø«Ø¬Ø§Ø¬", "HOURS_EN": null, "HOURS_AR": null, "HEALTH_EN": null, "HEALTH_AR": null, "EMERGENCY": null, "REPRODUCTI": null, "MALNUTRITI": null, "VACCINATIO": null, "ACUTE_COND": null, "ORT": null, "GBV": null, "DENTIST": null, "PSYCHOTHER": null, "SECONDARY": null, "PHYSIOTHER": null }, "geometry": { "type": "Point", "coordinates": [ 36.3372653091, 32.2810980737 ] } },
{ "type": "Feature", "properties": { "OBJECTID_1": 157, "TYPE": "School", "HEALTH_TYP": "Camp Facility", "OPERATOR": null, "IS_CONSTRU": null, "DISTRICT": 7, "NAME_EN": "School 5", "NAME_AR": "Ø§Ù„Ù…Ø¯Ø±Ø³Ù‡ 5", "HOURS_EN": null, "HOURS_AR": null, "HEALTH_EN": null, "HEALTH_AR": null, "EMERGENCY": null, "REPRODUCTI": null, "MALNUTRITI": null, "VACCINATIO": null, "ACUTE_COND": null, "ORT": null, "GBV": null, "DENTIST": null, "PSYCHOTHER": null, "SECONDARY": null, "PHYSIOTHER": null }, "geometry": { "type": "Point", "coordinates": [ 36.3414037296, 32.2959138999 ] } },
{ "type": "Feature", "properties": { "OBJECTID_1": 158, "TYPE": "Community Center", "HEALTH_TYP": "Camp Facility with Health Services", "OPERATOR": "UNFPA\/Noor Hussein Foundation", "IS_CONSTRU": null, "DISTRICT": 5, "NAME_EN": "Noor Hussein Shared Centre", "NAME_AR": "Ù…Ø±ÙƒØ² Ø§Ù„Ù…Ø±Ø§Ù‡ Ù†ÙˆØ± Ø§Ù„Ø­Ø³ÙŠÙ†", "HOURS_EN": "9:00am-4:00pm (Sun-Thu)", "HOURS_AR": "9:00am-4:00pm (Sun-Thu)", "HEALTH_EN": "family planning, gender-based violence support, reproductive care", "HEALTH_AR": "family planning, gender-based violence support, reproductive care", "EMERGENCY": "N", "REPRODUCTI": "Y", "MALNUTRITI": "N", "VACCINATIO": "N", "ACUTE_COND": "N", "ORT": "N", "GBV": "Y", "DENTIST": "N", "PSYCHOTHER": "N", "SECONDARY": "N", "PHYSIOTHER": "N" }, "geometry": { "type": "Point", "coordinates": [ 36.326562837, 32.2934888467 ] } },
{ "type": "Feature", "properties": { "OBJECTID_1": 159, "TYPE": "Youth Center", "HEALTH_TYP": "Camp Facility", "OPERATOR": "Save the Children International", "IS_CONSTRU": null, "DISTRICT": 4, "NAME_EN": "Finn Church Aid", "NAME_AR": "ÙÙŠÙ† Ù…Ø¹ÙˆÙ†Ø© Ø§Ù„ÙƒÙ†ÙŠØ³Ø©", "HOURS_EN": null, "HOURS_AR": null, "HEALTH_EN": null, "HEALTH_AR": null, "EMERGENCY": null, "REPRODUCTI": null, "MALNUTRITI": null, "VACCINATIO": null, "ACUTE_COND": null, "ORT": null, "GBV": null, "DENTIST": null, "PSYCHOTHER": null, "SECONDARY": null, "PHYSIOTHER": null }, "geometry": { "type": "Point", "coordinates": [ 36.3218698085, 32.2950359267 ] } },
{ "type": "Feature", "properties": { "OBJECTID_1": 160, "TYPE": "Youth Center", "HEALTH_TYP": "Camp Facility", "OPERATOR": "Save the Children International", "IS_CONSTRU": null, "DISTRICT": 7, "NAME_EN": "SCI Drop In Center 3", "NAME_AR": "Ø­Ù…Ø§ÙŠØ© Ø§Ù„Ø·ÙÙ„ Ø§Ù„Ø§Ø±Ø¯Ù†ÙŠÙ‡", "HOURS_EN": null, "HOURS_AR": null, "HEALTH_EN": null, "HEALTH_AR": null, "EMERGENCY": null, "REPRODUCTI": null, "MALNUTRITI": null, "VACCINATIO": null, "ACUTE_COND": null, "ORT": null, "GBV": null, "DENTIST": null, "PSYCHOTHER": null, "SECONDARY": null, "PHYSIOTHER": null }, "geometry": { "type": "Point", "coordinates": [ 36.3397650047, 32.2965512746 ] } },
{ "type": "Feature", "properties": { "OBJECTID_1": 161, "TYPE": "Youth Center", "HEALTH_TYP": "Camp Facility", "OPERATOR": "Mercy Corps", "IS_CONSTRU": null, "DISTRICT": 1, "NAME_EN": "Mercy Corps Youth for Change", "NAME_AR": "Ù…Ø±ÙƒØ² Ø§Ù„Ø´Ø¨Ø§Ø¨ Ù…ÙŠØ±Ø³ÙŠ ÙƒÙˆØ±", "HOURS_EN": null, "HOURS_AR": null, "HEALTH_EN": null, "HEALTH_AR": null, "EMERGENCY": null, "REPRODUCTI": null, "MALNUTRITI": null, "VACCINATIO": null, "ACUTE_COND": null, "ORT": null, "GBV": null, "DENTIST": null, "PSYCHOTHER": null, "SECONDARY": null, "PHYSIOTHER": null }, "geometry": { "type": "Point", "coordinates": [ 36.3215876785, 32.3041635502 ] } },
{ "type": "Feature", "properties": { "OBJECTID_1": 162, "TYPE": "Youth Center", "HEALTH_TYP": "Camp Facility", "OPERATOR": "Save the Children International", "IS_CONSTRU": null, "DISTRICT": 3, "NAME_EN": "SCI Drop In Center 1", "NAME_AR": "Ø­Ù…Ø§ÙŠØ© Ø§Ù„Ø·ÙÙ„ Ø§Ù„Ø§Ø±Ø¯Ù†ÙŠÙ‡", "HOURS_EN": null, "HOURS_AR": null, "HEALTH_EN": null, "HEALTH_AR": null, "EMERGENCY": null, "REPRODUCTI": null, "MALNUTRITI": null, "VACCINATIO": null, "ACUTE_COND": null, "ORT": null, "GBV": null, "DENTIST": null, "PSYCHOTHER": null, "SECONDARY": null, "PHYSIOTHER": null }, "geometry": { "type": "Point", "coordinates": [ 36.3229484029, 32.3031241024 ] } },
{ "type": "Feature", "properties": { "OBJECTID_1": 163, "TYPE": "Office", "HEALTH_TYP": "Camp Facility", "OPERATOR": null, "IS_CONSTRU": null, "DISTRICT": 5, "NAME_EN": "Bail Out Office", "NAME_AR": "Ù…Ø±ÙƒØ² Ø§Ù„ÙƒÙØ§Ù„Ø§Øª", "HOURS_EN": null, "HOURS_AR": null, "HEALTH_EN": null, "HEALTH_AR": null, "EMERGENCY": null, "REPRODUCTI": null, "MALNUTRITI": null, "VACCINATIO": null, "ACUTE_COND": null, "ORT": null, "GBV": null, "DENTIST": null, "PSYCHOTHER": null, "SECONDARY": null, "PHYSIOTHER": null }, "geometry": { "type": "Point", "coordinates": [ 36.3302847801, 32.3011029773 ] } },
{ "type": "Feature", "properties": { "OBJECTID_1": 164, "TYPE": "Community Office", "HEALTH_TYP": "Camp Facility", "OPERATOR": null, "IS_CONSTRU": "Y", "DISTRICT": 5, "NAME_EN": "Relief International", "NAME_AR": "Ø§Ù„Ø¥ØºØ§Ø«Ø© Ø§Ù„Ø¯ÙˆÙ„ÙŠØ©", "HOURS_EN": null, "HOURS_AR": null, "HEALTH_EN": null, "HEALTH_AR": null, "EMERGENCY": null, "REPRODUCTI": null, "MALNUTRITI": null, "VACCINATIO": null, "ACUTE_COND": null, "ORT": null, "GBV": null, "DENTIST": null, "PSYCHOTHER": null, "SECONDARY": null, "PHYSIOTHER": null }, "geometry": { "type": "Point", "coordinates": [ 36.3293073424, 32.293464895 ] } },
{ "type": "Feature", "properties": { "OBJECTID_1": 165, "TYPE": "Mosque", "HEALTH_TYP": "Camp Facility", "OPERATOR": null, "IS_CONSTRU": null, "DISTRICT": 5, "NAME_EN": "Abd Allah Bin Moubarak  For Alshare'ah Science", "NAME_AR": "Ø¹Ø¨Ø¯ Ø§Ù„Ù„Ù‡ Ø¨Ù† Ù…Ø¨Ø§Ø±Ùƒ Ù„Ø¹Ù„ÙˆÙ… Ø§Ù„Ø´", "HOURS_EN": null, "HOURS_AR": null, "HEALTH_EN": null, "HEALTH_AR": null, "EMERGENCY": null, "REPRODUCTI": null, "MALNUTRITI": null, "VACCINATIO": null, "ACUTE_COND": null, "ORT": null, "GBV": null, "DENTIST": null, "PSYCHOTHER": null, "SECONDARY": null, "PHYSIOTHER": null }, "geometry": { "type": "Point", "coordinates": [ 36.3292619479, 32.2950307752 ] } },
{ "type": "Feature", "properties": { "OBJECTID_1": 166, "TYPE": "Health", "HEALTH_TYP": "Healthcare Facility", "OPERATOR": null, "IS_CONSTRU": null, "DISTRICT": 1, "NAME_EN": "AMR Comprehensive Medical Centre", "NAME_AR": "Ø§Ù„Ù…Ø±ÙƒØ² Ø§Ù„Ø·Ø¨ÙŠ Ø§Ù„Ø´Ø§Ù…Ù„ AMR", "HOURS_EN": "9:00am-4:00pm (Sat-Thu)", "HOURS_AR": "9:00am-4:00pm (Sat-Thu)", "HEALTH_EN": "cardiology, dentist, dermatology, emergency, gastroenterologist, general surgery, gynaecologist, internal medicine, laboratory, neurologist, ophthalmologist, ORT, paediatrician, physiotherapy, radiology, vaccination", "HEALTH_AR": "cardiology, dentist, dermatology, emergency, gastroenterologist, general surgery, gynaecologist, internal medicine, laboratory, neurologist, ophthalmologist, ORT, paediatrician, physiotherapy, radiology, vaccination", "EMERGENCY": "Y", "REPRODUCTI": "N", "MALNUTRITI": "N", "VACCINATIO": "Y", "ACUTE_COND": "N", "ORT": "Y", "GBV": "N", "DENTIST": "Y", "PSYCHOTHER": "N", "SECONDARY": "Y", "PHYSIOTHER": "Y" }, "geometry": { "type": "Point", "coordinates": [ 36.3194754159, 32.3023981344 ] } },
{ "type": "Feature", "properties": { "OBJECTID_1": 167, "TYPE": "Playground", "HEALTH_TYP": "Camp Facility", "OPERATOR": "Mercy Corps", "IS_CONSTRU": null, "DISTRICT": 5, "NAME_EN": "Playground", "NAME_AR": "Ù…Ù„Ø¹Ø¨", "HOURS_EN": null, "HOURS_AR": null, "HEALTH_EN": null, "HEALTH_AR": null, "EMERGENCY": null, "REPRODUCTI": null, "MALNUTRITI": null, "VACCINATIO": null, "ACUTE_COND": null, "ORT": null, "GBV": null, "DENTIST": null, "PSYCHOTHER": null, "SECONDARY": null, "PHYSIOTHER": null }, "geometry": { "type": "Point", "coordinates": [ 36.3272126455, 32.293614205 ] } },
{ "type": "Feature", "properties": { "OBJECTID_1": 168, "TYPE": "Water Facilities", "HEALTH_TYP": "Camp Facility", "OPERATOR": null, "IS_CONSTRU": null, "DISTRICT": 7, "NAME_EN": "Water Reservoirs", "NAME_AR": "Ø®Ø²Ø§Ù†Ø§Øª Ø§Ù„Ù…ÙŠØ§Ù‡", "HOURS_EN": null, "HOURS_AR": null, "HEALTH_EN": null, "HEALTH_AR": null, "EMERGENCY": null, "REPRODUCTI": null, "MALNUTRITI": null, "VACCINATIO": null, "ACUTE_COND": null, "ORT": null, "GBV": null, "DENTIST": null, "PSYCHOTHER": null, "SECONDARY": null, "PHYSIOTHER": null }, "geometry": { "type": "Point", "coordinates": [ 36.3404798099, 32.2922894231 ] } },
{ "type": "Feature", "properties": { "OBJECTID_1": 169, "TYPE": "Office", "HEALTH_TYP": "Camp Facility", "OPERATOR": null, "IS_CONSTRU": null, "DISTRICT": 7, "NAME_EN": "Oxfam Contractor Site", "NAME_AR": "Oxfam Ù…ÙƒØ§ØªØ¨ Ø§Ù„Ù…Ù‚Ø§ÙˆÙ„ÙŠÙ†", "HOURS_EN": null, "HOURS_AR": null, "HEALTH_EN": null, "HEALTH_AR": null, "EMERGENCY": null, "REPRODUCTI": null, "MALNUTRITI": null, "VACCINATIO": null, "ACUTE_COND": null, "ORT": null, "GBV": null, "DENTIST": null, "PSYCHOTHER": null, "SECONDARY": null, "PHYSIOTHER": null }, "geometry": { "type": "Point", "coordinates": [ 36.3438647963, 32.2922087947 ] } },
{ "type": "Feature", "properties": { "OBJECTID_1": 170, "TYPE": "Office", "HEALTH_TYP": "Camp Facility", "OPERATOR": null, "IS_CONSTRU": null, "DISTRICT": 8, "NAME_EN": "Oxfam Contractor Site", "NAME_AR": "Oxfam Ù…ÙƒØ§ØªØ¨ Ø§Ù„Ù…Ù‚Ø§ÙˆÙ„ÙŠÙ†", "HOURS_EN": null, "HOURS_AR": null, "HEALTH_EN": null, "HEALTH_AR": null, "EMERGENCY": null, "REPRODUCTI": null, "MALNUTRITI": null, "VACCINATIO": null, "ACUTE_COND": null, "ORT": null, "GBV": null, "DENTIST": null, "PSYCHOTHER": null, "SECONDARY": null, "PHYSIOTHER": null }, "geometry": { "type": "Point", "coordinates": [ 36.3397090534, 32.2804487637 ] } },
{ "type": "Feature", "properties": { "OBJECTID_1": 171, "TYPE": "Water Facilities", "HEALTH_TYP": "Camp Facility", "OPERATOR": null, "IS_CONSTRU": null, "DISTRICT": 8, "NAME_EN": "Water Reservoirs", "NAME_AR": "Ø®Ø²Ø§Ù†Ø§Øª Ø§Ù„Ù…ÙŠØ§Ù‡", "HOURS_EN": null, "HOURS_AR": null, "HEALTH_EN": null, "HEALTH_AR": null, "EMERGENCY": null, "REPRODUCTI": null, "MALNUTRITI": null, "VACCINATIO": null, "ACUTE_COND": null, "ORT": null, "GBV": null, "DENTIST": null, "PSYCHOTHER": null, "SECONDARY": null, "PHYSIOTHER": null }, "geometry": { "type": "Point", "coordinates": [ 36.3379404057, 32.2865393895 ] } },
{ "type": "Feature", "properties": { "OBJECTID_1": 172, "TYPE": "Water Facilities", "HEALTH_TYP": "Camp Facility", "OPERATOR": null, "IS_CONSTRU": null, "DISTRICT": 9, "NAME_EN": "Water Reservoirs", "NAME_AR": "Ø®Ø²Ø§Ù†Ø§Øª Ø§Ù„Ù…ÙŠØ§Ù‡", "HOURS_EN": null, "HOURS_AR": null, "HEALTH_EN": null, "HEALTH_AR": null, "EMERGENCY": null, "REPRODUCTI": null, "MALNUTRITI": null, "VACCINATIO": null, "ACUTE_COND": null, "ORT": null, "GBV": null, "DENTIST": null, "PSYCHOTHER": null, "SECONDARY": null, "PHYSIOTHER": null }, "geometry": { "type": "Point", "coordinates": [ 36.3315796119, 32.2878305987 ] } },
{ "type": "Feature", "properties": { "OBJECTID_1": 173, "TYPE": "Water Facilities", "HEALTH_TYP": "Camp Facility", "OPERATOR": null, "IS_CONSTRU": null, "DISTRICT": 5, "NAME_EN": "Water Reservoirs", "NAME_AR": "Ø®Ø²Ø§Ù†Ø§Øª Ø§Ù„Ù…ÙŠØ§Ù‡", "HOURS_EN": null, "HOURS_AR": null, "HEALTH_EN": null, "HEALTH_AR": null, "EMERGENCY": null, "REPRODUCTI": null, "MALNUTRITI": null, "VACCINATIO": null, "ACUTE_COND": null, "ORT": null, "GBV": null, "DENTIST": null, "PSYCHOTHER": null, "SECONDARY": null, "PHYSIOTHER": null }, "geometry": { "type": "Point", "coordinates": [ 36.3302595489, 32.2971142444 ] } },
{ "type": "Feature", "properties": { "OBJECTID_1": 174, "TYPE": "Water Facilities", "HEALTH_TYP": "Camp Facility", "OPERATOR": null, "IS_CONSTRU": null, "DISTRICT": 10, "NAME_EN": "Water Reservoirs", "NAME_AR": "Ø®Ø²Ø§Ù†Ø§Øª Ø§Ù„Ù…ÙŠØ§Ù‡", "HOURS_EN": null, "HOURS_AR": null, "HEALTH_EN": null, "HEALTH_AR": null, "EMERGENCY": null, "REPRODUCTI": null, "MALNUTRITI": null, "VACCINATIO": null, "ACUTE_COND": null, "ORT": null, "GBV": null, "DENTIST": null, "PSYCHOTHER": null, "SECONDARY": null, "PHYSIOTHER": null }, "geometry": { "type": "Point", "coordinates": [ 36.3290947464, 32.289689015 ] } },
{ "type": "Feature", "properties": { "OBJECTID_1": 175, "TYPE": "Water Facilities", "HEALTH_TYP": "Camp Facility", "OPERATOR": null, "IS_CONSTRU": null, "DISTRICT": 11, "NAME_EN": "Water Reservoirs", "NAME_AR": "Ø®Ø²Ø§Ù†Ø§Øª Ø§Ù„Ù…ÙŠØ§Ù‡", "HOURS_EN": null, "HOURS_AR": null, "HEALTH_EN": null, "HEALTH_AR": null, "EMERGENCY": null, "REPRODUCTI": null, "MALNUTRITI": null, "VACCINATIO": null, "ACUTE_COND": null, "ORT": null, "GBV": null, "DENTIST": null, "PSYCHOTHER": null, "SECONDARY": null, "PHYSIOTHER": null }, "geometry": { "type": "Point", "coordinates": [ 36.3242438357, 32.2918023905 ] } },
{ "type": "Feature", "properties": { "OBJECTID_1": 176, "TYPE": "Water Facilities", "HEALTH_TYP": "Camp Facility", "OPERATOR": null, "IS_CONSTRU": null, "DISTRICT": 4, "NAME_EN": "Water Reservoirs", "NAME_AR": "Ø®Ø²Ø§Ù†Ø§Øª Ø§Ù„Ù…ÙŠØ§Ù‡", "HOURS_EN": null, "HOURS_AR": null, "HEALTH_EN": null, "HEALTH_AR": null, "EMERGENCY": null, "REPRODUCTI": null, "MALNUTRITI": null, "VACCINATIO": null, "ACUTE_COND": null, "ORT": null, "GBV": null, "DENTIST": null, "PSYCHOTHER": null, "SECONDARY": null, "PHYSIOTHER": null }, "geometry": { "type": "Point", "coordinates": [ 36.3261635953, 32.2953280114 ] } },
{ "type": "Feature", "properties": { "OBJECTID_1": 177, "TYPE": "School", "HEALTH_TYP": "Camp Facility", "OPERATOR": null, "IS_CONSTRU": null, "DISTRICT": 10, "NAME_EN": "School (Kuwaiti)", "NAME_AR": "Ù…Ø¯Ø± Ø³Ø© Ø§Ù„ÙƒÙˆÙŠØªÙŠÙ‡ 1", "HOURS_EN": null, "HOURS_AR": null, "HEALTH_EN": null, "HEALTH_AR": null, "EMERGENCY": null, "REPRODUCTI": null, "MALNUTRITI": null, "VACCINATIO": null, "ACUTE_COND": null, "ORT": null, "GBV": null, "DENTIST": null, "PSYCHOTHER": null, "SECONDARY": null, "PHYSIOTHER": null }, "geometry": { "type": "Point", "coordinates": [ 36.3246192153, 32.2850789401 ] } },
{ "type": "Feature", "properties": { "OBJECTID_1": 178, "TYPE": "Registration", "HEALTH_TYP": "Camp Facility", "OPERATOR": "UNHCR", "IS_CONSTRU": null, "DISTRICT": 3, "NAME_EN": "UNHCR Service Area", "NAME_AR": "Ù…ÙƒØªØ¨ Ø®Ø¯Ù…Ø§Øª Ø§Ù„Ù…ÙÙˆØ¶ÙŠØ©", "HOURS_EN": null, "HOURS_AR": null, "HEALTH_EN": null, "HEALTH_AR": null, "EMERGENCY": null, "REPRODUCTI": null, "MALNUTRITI": null, "VACCINATIO": null, "ACUTE_COND": null, "ORT": null, "GBV": null, "DENTIST": null, "PSYCHOTHER": null, "SECONDARY": null, "PHYSIOTHER": null }, "geometry": { "type": "Point", "coordinates": [ 36.3229447927, 32.3036075867 ] } },
{ "type": "Feature", "properties": { "OBJECTID_1": 179, "TYPE": "Security", "HEALTH_TYP": "Camp Facility", "OPERATOR": "UNHCR", "IS_CONSTRU": null, "DISTRICT": 5, "NAME_EN": "FPD", "NAME_AR": "Ø§Ø¯Ø§Ø±Ø© Ø­Ù…Ø§ÙŠØ© Ø§Ù„Ø§Ø³Ø±Ø©", "HOURS_EN": null, "HOURS_AR": null, "HEALTH_EN": null, "HEALTH_AR": null, "EMERGENCY": null, "REPRODUCTI": null, "MALNUTRITI": null, "VACCINATIO": null, "ACUTE_COND": null, "ORT": null, "GBV": null, "DENTIST": null, "PSYCHOTHER": null, "SECONDARY": null, "PHYSIOTHER": null }, "geometry": { "type": "Point", "coordinates": [ 36.3291765943, 32.3012291841 ] } },
{ "type": "Feature", "properties": { "OBJECTID_1": 180, "TYPE": "Office", "HEALTH_TYP": "Camp Facility with Health Services", "OPERATOR": "UNHCR", "IS_CONSTRU": null, "DISTRICT": 3, "NAME_EN": "IRD Outreach", "NAME_AR": "Ø®Ø¯Ù…Ø§Øª Ø§Ù„Ù…Ø®ÙŠÙ…", "HOURS_EN": "9:00am-3:00pm (Sun-Thu)", "HOURS_AR": "9:00am-3:00pm (Sun-Thu)", "HEALTH_EN": "malnutrition detection, outreach, vaccination", "HEALTH_AR": "malnutrition detection, outreach, vaccination", "EMERGENCY": "N", "REPRODUCTI": "N", "MALNUTRITI": "Y", "VACCINATIO": "Y", "ACUTE_COND": "N", "ORT": "N", "GBV": "N", "DENTIST": "N", "PSYCHOTHER": "N", "SECONDARY": "N", "PHYSIOTHER": "N" }, "geometry": { "type": "Point", "coordinates": [ 36.328647903, 32.301427267 ] } },
{ "type": "Feature", "properties": { "OBJECTID_1": 181, "TYPE": "School", "HEALTH_TYP": "Camp Facility", "OPERATOR": null, "IS_CONSTRU": null, "DISTRICT": 7, "NAME_EN": "School (Kuwaiti)", "NAME_AR": "Ø§Ù„Ù…Ø¯Ø±Ø³Ù‡ Ø§Ù„ÙƒÙˆÙŠØªÙŠÙ‡", "HOURS_EN": null, "HOURS_AR": null, "HEALTH_EN": null, "HEALTH_AR": null, "EMERGENCY": null, "REPRODUCTI": null, "MALNUTRITI": null, "VACCINATIO": null, "ACUTE_COND": null, "ORT": null, "GBV": null, "DENTIST": null, "PSYCHOTHER": null, "SECONDARY": null, "PHYSIOTHER": null }, "geometry": { "type": "Point", "coordinates": [ 36.3367700484, 32.2898396745 ] } },
{ "type": "Feature", "properties": { "OBJECTID_1": 182, "TYPE": "Mosque", "HEALTH_TYP": "Camp Facility", "OPERATOR": null, "IS_CONSTRU": null, "DISTRICT": 10, "NAME_EN": "Kuwaiti Mosque 2", "NAME_AR": "Ù…Ø¯Ø± Ø³Ø© Ø§Ù„ÙƒÙˆÙŠØªÙŠÙ‡ 2", "HOURS_EN": null, "HOURS_AR": null, "HEALTH_EN": null, "HEALTH_AR": null, "EMERGENCY": null, "REPRODUCTI": null, "MALNUTRITI": null, "VACCINATIO": null, "ACUTE_COND": null, "ORT": null, "GBV": null, "DENTIST": null, "PSYCHOTHER": null, "SECONDARY": null, "PHYSIOTHER": null }, "geometry": { "type": "Point", "coordinates": [ 36.3255402814, 32.284758116 ] } },
{ "type": "Feature", "properties": { "OBJECTID_1": 183, "TYPE": "Health", "HEALTH_TYP": "Healthcare Facility", "OPERATOR": null, "IS_CONSTRU": null, "DISTRICT": 10, "NAME_EN": "AMR Health Clinic 2", "NAME_AR": "Ø§Ù„Ø¹ÙŠØ§Ø¯Ù‡ Ø§Ù„ÙƒÙˆÙŠØªÙŠØ¹", "HOURS_EN": null, "HOURS_AR": null, "HEALTH_EN": null, "HEALTH_AR": null, "EMERGENCY": "N", "REPRODUCTI": "N", "MALNUTRITI": "N", "VACCINATIO": "N", "ACUTE_COND": "N", "ORT": "N", "GBV": "N", "DENTIST": "N", "PSYCHOTHER": "N", "SECONDARY": "N", "PHYSIOTHER": "N" }, "geometry": { "type": "Point", "coordinates": [ 36.3250719464, 32.2848992364 ] } },
{ "type": "Feature", "properties": { "OBJECTID_1": 184, "TYPE": "Security", "HEALTH_TYP": "Camp Facility", "OPERATOR": "UNHCR", "IS_CONSTRU": null, "DISTRICT": 5, "NAME_EN": "JPD", "NAME_AR": "Ù…ÙØ±Ø²Ø© Ø§Ø­Ø¯Ø§Ø« Ø§Ù„Ø²Ø¹ØªØ±ÙŠ", "HOURS_EN": null, "HOURS_AR": null, "HEALTH_EN": null, "HEALTH_AR": null, "EMERGENCY": null, "REPRODUCTI": null, "MALNUTRITI": null, "VACCINATIO": null, "ACUTE_COND": null, "ORT": null, "GBV": null, "DENTIST": null, "PSYCHOTHER": null, "SECONDARY": null, "PHYSIOTHER": null }, "geometry": { "type": "Point", "coordinates": [ 36.3294723751, 32.301131558 ] } },
{ "type": "Feature", "properties": { "OBJECTID_1": 185, "TYPE": "Community Center", "HEALTH_TYP": "Camp Facility", "OPERATOR": "WFP", "IS_CONSTRU": null, "DISTRICT": 7, "NAME_EN": "UN Women Oasis3", "NAME_AR": "Ù…Ø±ÙƒØ² ØªØ²ÙˆÙŠØ¯", "HOURS_EN": null, "HOURS_AR": null, "HEALTH_EN": null, "HEALTH_AR": null, "EMERGENCY": null, "REPRODUCTI": null, "MALNUTRITI": null, "VACCINATIO": null, "ACUTE_COND": null, "ORT": null, "GBV": null, "DENTIST": null, "PSYCHOTHER": null, "SECONDARY": null, "PHYSIOTHER": null }, "geometry": { "type": "Point", "coordinates": [ 36.340898052, 32.2962851382 ] } },
{ "type": "Feature", "properties": { "OBJECTID_1": 186, "TYPE": "Water Facilities", "HEALTH_TYP": "Camp Facility", "OPERATOR": null, "IS_CONSTRU": null, "DISTRICT": 12, "NAME_EN": "WWN Contractor Site", "NAME_AR": "Ù…ÙˆÙ‚Ø¹ Ù…Ù‚Ø§ÙˆÙ„ÙŠÙ† Ø§Ù„ØµØ±Ù Ø§Ù„ØµØ­ÙŠ", "HOURS_EN": null, "HOURS_AR": null, "HEALTH_EN": null, "HEALTH_AR": null, "EMERGENCY": null, "REPRODUCTI": null, "MALNUTRITI": null, "VACCINATIO": null, "ACUTE_COND": null, "ORT": null, "GBV": null, "DENTIST": null, "PSYCHOTHER": null, "SECONDARY": null, "PHYSIOTHER": null }, "geometry": { "type": "Point", "coordinates": [ 36.3148877108, 32.2903474473 ] } },
{ "type": "Feature", "properties": { "OBJECTID_1": 187, "TYPE": "Community Office", "HEALTH_TYP": "Camp Facility", "OPERATOR": null, "IS_CONSTRU": null, "DISTRICT": 3, "NAME_EN": "Relief International", "NAME_AR": "Ø§Ù„Ø¥ØºØ§Ø«Ø© Ø§Ù„Ø¯ÙˆÙ„ÙŠØ©", "HOURS_EN": null, "HOURS_AR": null, "HEALTH_EN": null, "HEALTH_AR": null, "EMERGENCY": null, "REPRODUCTI": null, "MALNUTRITI": null, "VACCINATIO": null, "ACUTE_COND": null, "ORT": null, "GBV": null, "DENTIST": null, "PSYCHOTHER": null, "SECONDARY": null, "PHYSIOTHER": null }, "geometry": { "type": "Point", "coordinates": [ 36.3215195794, 32.3008312744 ] } },
{ "type": "Feature", "properties": { "OBJECTID_1": 188, "TYPE": "Community Center", "HEALTH_TYP": "Camp Facility", "OPERATOR": "IRD", "IS_CONSTRU": null, "DISTRICT": 3, "NAME_EN": "IRD - Service Unit 3", "NAME_AR": "ÙˆØ­Ø¯Ø© Ø§Ù„Ù†Ø´Ø§Ø· 3 -IRD", "HOURS_EN": null, "HOURS_AR": null, "HEALTH_EN": null, "HEALTH_AR": null, "EMERGENCY": null, "REPRODUCTI": null, "MALNUTRITI": null, "VACCINATIO": null, "ACUTE_COND": null, "ORT": null, "GBV": null, "DENTIST": null, "PSYCHOTHER": null, "SECONDARY": null, "PHYSIOTHER": null }, "geometry": { "type": "Point", "coordinates": [ 36.3269813222, 32.2990458898 ] } },
{ "type": "Feature", "properties": { "OBJECTID_1": 189, "TYPE": "Community Center", "HEALTH_TYP": "Camp Facility", "OPERATOR": "IRD", "IS_CONSTRU": null, "DISTRICT": 5, "NAME_EN": "IRD - Service Unit 5", "NAME_AR": "ÙˆØ­Ø¯Ø© Ø§Ù„Ù†Ø´Ø§Ø· 5 -IRD", "HOURS_EN": null, "HOURS_AR": null, "HEALTH_EN": null, "HEALTH_AR": null, "EMERGENCY": null, "REPRODUCTI": null, "MALNUTRITI": null, "VACCINATIO": null, "ACUTE_COND": null, "ORT": null, "GBV": null, "DENTIST": null, "PSYCHOTHER": null, "SECONDARY": null, "PHYSIOTHER": null }, "geometry": { "type": "Point", "coordinates": [ 36.3292950647, 32.2983058875 ] } },
{ "type": "Feature", "properties": { "OBJECTID_1": 190, "TYPE": "Community Center", "HEALTH_TYP": "Camp Facility", "OPERATOR": "IRD", "IS_CONSTRU": null, "DISTRICT": 4, "NAME_EN": "IRD - Service Unit 4", "NAME_AR": "ÙˆØ­Ø¯Ø© Ø§Ù„Ù†Ø´Ø§Ø· 4 -IRD", "HOURS_EN": null, "HOURS_AR": null, "HEALTH_EN": null, "HEALTH_AR": null, "EMERGENCY": null, "REPRODUCTI": null, "MALNUTRITI": null, "VACCINATIO": null, "ACUTE_COND": null, "ORT": null, "GBV": null, "DENTIST": null, "PSYCHOTHER": null, "SECONDARY": null, "PHYSIOTHER": null }, "geometry": { "type": "Point", "coordinates": [ 36.3233209746, 32.2956326906 ] } },
{ "type": "Feature", "properties": { "OBJECTID_1": 191, "TYPE": "Community Center", "HEALTH_TYP": "Camp Facility", "OPERATOR": "UNICEF", "IS_CONSTRU": null, "DISTRICT": 6, "NAME_EN": "UNICEF Centre", "NAME_AR": "Ù…Ø±ÙƒØ² Ø§Ù„ÙŠÙˆÙ†Ø³ÙŠÙ", "HOURS_EN": null, "HOURS_AR": null, "HEALTH_EN": null, "HEALTH_AR": null, "EMERGENCY": null, "REPRODUCTI": null, "MALNUTRITI": null, "VACCINATIO": null, "ACUTE_COND": null, "ORT": null, "GBV": null, "DENTIST": null, "PSYCHOTHER": null, "SECONDARY": null, "PHYSIOTHER": null }, "geometry": { "type": "Point", "coordinates": [ 36.3334626223, 32.2944014789 ] } },
{ "type": "Feature", "properties": { "OBJECTID_1": 192, "TYPE": "Community Center", "HEALTH_TYP": "Camp Facility", "OPERATOR": "IRD", "IS_CONSTRU": null, "DISTRICT": 6, "NAME_EN": "IRD - Activity Unit 6", "NAME_AR": "ÙˆØ­Ø¯Ø© Ø§Ù„Ù†Ø´Ø§Ø· 6 -IRD", "HOURS_EN": null, "HOURS_AR": null, "HEALTH_EN": null, "HEALTH_AR": null, "EMERGENCY": null, "REPRODUCTI": null, "MALNUTRITI": null, "VACCINATIO": null, "ACUTE_COND": null, "ORT": null, "GBV": null, "DENTIST": null, "PSYCHOTHER": null, "SECONDARY": null, "PHYSIOTHER": null }, "geometry": { "type": "Point", "coordinates": [ 36.3354409669, 32.2937283837 ] } },
{ "type": "Feature", "properties": { "OBJECTID_1": 193, "TYPE": "Community Center", "HEALTH_TYP": "Camp Facility", "OPERATOR": "IRD", "IS_CONSTRU": null, "DISTRICT": 7, "NAME_EN": "IRD - Activity Unit 7", "NAME_AR": "ÙˆØ­Ø¯Ø© Ø§Ù„Ù†Ø´Ø§Ø· 7 -IRD", "HOURS_EN": null, "HOURS_AR": null, "HEALTH_EN": null, "HEALTH_AR": null, "EMERGENCY": null, "REPRODUCTI": null, "MALNUTRITI": null, "VACCINATIO": null, "ACUTE_COND": null, "ORT": null, "GBV": null, "DENTIST": null, "PSYCHOTHER": null, "SECONDARY": null, "PHYSIOTHER": null }, "geometry": { "type": "Point", "coordinates": [ 36.3411378846, 32.2931291187 ] } },
{ "type": "Feature", "properties": { "OBJECTID_1": 194, "TYPE": "Community Center", "HEALTH_TYP": "Camp Facility", "OPERATOR": "IRD", "IS_CONSTRU": null, "DISTRICT": 8, "NAME_EN": "IRD - Service Unit 8", "NAME_AR": "ÙˆØ­Ø¯Ø© Ø§Ù„Ù†Ø´Ø§Ø· 8 -IRD", "HOURS_EN": null, "HOURS_AR": null, "HEALTH_EN": null, "HEALTH_AR": null, "EMERGENCY": null, "REPRODUCTI": null, "MALNUTRITI": null, "VACCINATIO": null, "ACUTE_COND": null, "ORT": null, "GBV": null, "DENTIST": null, "PSYCHOTHER": null, "SECONDARY": null, "PHYSIOTHER": null }, "geometry": { "type": "Point", "coordinates": [ 36.3358423527, 32.2858824654 ] } },
{ "type": "Feature", "properties": { "OBJECTID_1": 195, "TYPE": "Community Center", "HEALTH_TYP": "Camp Facility", "OPERATOR": "IRD", "IS_CONSTRU": null, "DISTRICT": 9, "NAME_EN": "IRD - Activity Unit 9", "NAME_AR": "ÙˆØ­Ø¯Ø© Ø§Ù„Ù†Ø´Ø§Ø· 9 -IRD", "HOURS_EN": null, "HOURS_AR": null, "HEALTH_EN": null, "HEALTH_AR": null, "EMERGENCY": null, "REPRODUCTI": null, "MALNUTRITI": null, "VACCINATIO": null, "ACUTE_COND": null, "ORT": null, "GBV": null, "DENTIST": null, "PSYCHOTHER": null, "SECONDARY": null, "PHYSIOTHER": null }, "geometry": { "type": "Point", "coordinates": [ 36.3317519094, 32.2893944017 ] } },
{ "type": "Feature", "properties": { "OBJECTID_1": 196, "TYPE": "Vacant", "HEALTH_TYP": "Camp Facility", "OPERATOR": "Vacant", "IS_CONSTRU": null, "DISTRICT": 10, "NAME_EN": "Vacant", "NAME_AR": "Ù…Ø³Ø§Ø­Ø© Ø´Ø§ØºØ±Ø©", "HOURS_EN": null, "HOURS_AR": null, "HEALTH_EN": null, "HEALTH_AR": null, "EMERGENCY": null, "REPRODUCTI": null, "MALNUTRITI": null, "VACCINATIO": null, "ACUTE_COND": null, "ORT": null, "GBV": null, "DENTIST": null, "PSYCHOTHER": null, "SECONDARY": null, "PHYSIOTHER": null }, "geometry": { "type": "Point", "coordinates": [ 36.3263074263, 32.2911884043 ] } },
{ "type": "Feature", "properties": { "OBJECTID_1": 197, "TYPE": "Community Center", "HEALTH_TYP": "Camp Facility", "OPERATOR": "IRD", "IS_CONSTRU": null, "DISTRICT": 10, "NAME_EN": "IRD - Activity Unit 10a", "NAME_AR": "ÙˆØ­Ø¯Ø© Ø§Ù„Ù†Ø´Ø§Ø· 10 -IRD", "HOURS_EN": null, "HOURS_AR": null, "HEALTH_EN": null, "HEALTH_AR": null, "EMERGENCY": null, "REPRODUCTI": null, "MALNUTRITI": null, "VACCINATIO": null, "ACUTE_COND": null, "ORT": null, "GBV": null, "DENTIST": null, "PSYCHOTHER": null, "SECONDARY": null, "PHYSIOTHER": null }, "geometry": { "type": "Point", "coordinates": [ 36.3277923282, 32.2906925274 ] } },
{ "type": "Feature", "properties": { "OBJECTID_1": 198, "TYPE": "Community Center", "HEALTH_TYP": "Camp Facility", "OPERATOR": "IRD", "IS_CONSTRU": null, "DISTRICT": 10, "NAME_EN": "IRD - Activity Unit 10b", "NAME_AR": "ÙˆØ­Ø¯Ø© Ø§Ù„Ù†Ø´Ø§Ø· 10 -IRD", "HOURS_EN": null, "HOURS_AR": null, "HEALTH_EN": null, "HEALTH_AR": null, "EMERGENCY": null, "REPRODUCTI": null, "MALNUTRITI": null, "VACCINATIO": null, "ACUTE_COND": null, "ORT": null, "GBV": null, "DENTIST": null, "PSYCHOTHER": null, "SECONDARY": null, "PHYSIOTHER": null }, "geometry": { "type": "Point", "coordinates": [ 36.3282862269, 32.2905350354 ] } },
{ "type": "Feature", "properties": { "OBJECTID_1": 199, "TYPE": "Community Center", "HEALTH_TYP": "Camp Facility", "OPERATOR": "IRD", "IS_CONSTRU": null, "DISTRICT": 11, "NAME_EN": "IRD - Service Unit 11", "NAME_AR": "ÙˆØ­Ø¯Ø© Ø§Ù„Ù†Ø´Ø§Ø· 11 -IRD", "HOURS_EN": null, "HOURS_AR": null, "HEALTH_EN": null, "HEALTH_AR": null, "EMERGENCY": null, "REPRODUCTI": null, "MALNUTRITI": null, "VACCINATIO": null, "ACUTE_COND": null, "ORT": null, "GBV": null, "DENTIST": null, "PSYCHOTHER": null, "SECONDARY": null, "PHYSIOTHER": null }, "geometry": { "type": "Point", "coordinates": [ 36.3200317411, 32.2910394063 ] } },
{ "type": "Feature", "properties": { "OBJECTID_1": 200, "TYPE": "Community Center", "HEALTH_TYP": "Camp Facility", "OPERATOR": "IRD", "IS_CONSTRU": null, "DISTRICT": 12, "NAME_EN": "IRD - Service Unit 12", "NAME_AR": "ÙˆØ­Ø¯Ø© Ø§Ù„Ù†Ø´Ø§Ø· 12 -IRD", "HOURS_EN": null, "HOURS_AR": null, "HEALTH_EN": null, "HEALTH_AR": null, "EMERGENCY": null, "REPRODUCTI": null, "MALNUTRITI": null, "VACCINATIO": null, "ACUTE_COND": null, "ORT": null, "GBV": null, "DENTIST": null, "PSYCHOTHER": null, "SECONDARY": null, "PHYSIOTHER": null }, "geometry": { "type": "Point", "coordinates": [ 36.3155011563, 32.2933643864 ] } },
{ "type": "Feature", "properties": { "OBJECTID_1": 201, "TYPE": "Community Office", "HEALTH_TYP": "Camp Facility", "OPERATOR": null, "IS_CONSTRU": null, "DISTRICT": 9, "NAME_EN": "UEFA", "NAME_AR": "UEFA", "HOURS_EN": null, "HOURS_AR": null, "HEALTH_EN": null, "HEALTH_AR": null, "EMERGENCY": null, "REPRODUCTI": null, "MALNUTRITI": null, "VACCINATIO": null, "ACUTE_COND": null, "ORT": null, "GBV": null, "DENTIST": null, "PSYCHOTHER": null, "SECONDARY": null, "PHYSIOTHER": null }, "geometry": { "type": "Point", "coordinates": [ 36.3281565244, 32.2839176489 ] } },
{ "type": "Feature", "properties": { "OBJECTID_1": 202, "TYPE": "Playground", "HEALTH_TYP": "Camp Facility", "OPERATOR": null, "IS_CONSTRU": "Y", "DISTRICT": 9, "NAME_EN": "Sport Hall", "NAME_AR": "ØµØ§Ù„Ù‡ Ø±ÙŠØ§Ø¶ÙŠØ©", "HOURS_EN": null, "HOURS_AR": null, "HEALTH_EN": null, "HEALTH_AR": null, "EMERGENCY": null, "REPRODUCTI": null, "MALNUTRITI": null, "VACCINATIO": null, "ACUTE_COND": null, "ORT": null, "GBV": null, "DENTIST": null, "PSYCHOTHER": null, "SECONDARY": null, "PHYSIOTHER": null }, "geometry": { "type": "Point", "coordinates": [ 36.3281148778, 32.2842071485 ] } },
{ "type": "Feature", "properties": { "OBJECTID_1": 203, "TYPE": "Office", "HEALTH_TYP": "Camp Facility", "OPERATOR": null, "IS_CONSTRU": "Y", "DISTRICT": 8, "NAME_EN": "Relief International", "NAME_AR": "Ø§Ù„Ø¥ØºØ§Ø«Ø© Ø§Ù„Ø¯ÙˆÙ„ÙŠØ©", "HOURS_EN": null, "HOURS_AR": null, "HEALTH_EN": null, "HEALTH_AR": null, "EMERGENCY": null, "REPRODUCTI": null, "MALNUTRITI": null, "VACCINATIO": null, "ACUTE_COND": null, "ORT": null, "GBV": null, "DENTIST": null, "PSYCHOTHER": null, "SECONDARY": null, "PHYSIOTHER": null }, "geometry": { "type": "Point", "coordinates": [ 36.3347744632, 32.2809659723 ] } },
{ "type": "Feature", "properties": { "OBJECTID_1": 204, "TYPE": "Recycling Facilities", "HEALTH_TYP": "Camp Facility", "OPERATOR": "Oxfam", "IS_CONSTRU": "Y", "DISTRICT": 11, "NAME_EN": "Oxfam Recycling Center", "NAME_AR": null, "HOURS_EN": null, "HOURS_AR": null, "HEALTH_EN": null, "HEALTH_AR": null, "EMERGENCY": null, "REPRODUCTI": null, "MALNUTRITI": null, "VACCINATIO": null, "ACUTE_COND": null, "ORT": null, "GBV": null, "DENTIST": null, "PSYCHOTHER": null, "SECONDARY": null, "PHYSIOTHER": null }, "geometry": { "type": "Point", "coordinates": [ 36.317462235, 32.28761958 ] } },
{ "type": "Feature", "properties": { "OBJECTID_1": 205, "TYPE": "Recycling Facilities", "HEALTH_TYP": "Camp Facility", "OPERATOR": "Oxfam", "IS_CONSTRU": null, "DISTRICT": 8, "NAME_EN": "Oxfam Recycling Site", "NAME_AR": null, "HOURS_EN": null, "HOURS_AR": null, "HEALTH_EN": null, "HEALTH_AR": null, "EMERGENCY": null, "REPRODUCTI": null, "MALNUTRITI": null, "VACCINATIO": null, "ACUTE_COND": null, "ORT": null, "GBV": null, "DENTIST": null, "PSYCHOTHER": null, "SECONDARY": null, "PHYSIOTHER": null }, "geometry": { "type": "Point", "coordinates": [ 36.3397174003, 32.2801592132 ] } },
{ "type": "Feature", "properties": { "OBJECTID_1": 206, "TYPE": "Recreation", "HEALTH_TYP": "Camp Facility", "OPERATOR": null, "IS_CONSTRU": null, "DISTRICT": 11, "NAME_EN": "Football Field", "NAME_AR": null, "HOURS_EN": null, "HOURS_AR": null, "HEALTH_EN": null, "HEALTH_AR": null, "EMERGENCY": null, "REPRODUCTI": null, "MALNUTRITI": null, "VACCINATIO": null, "ACUTE_COND": null, "ORT": null, "GBV": null, "DENTIST": null, "PSYCHOTHER": null, "SECONDARY": null, "PHYSIOTHER": null }, "geometry": { "type": "Point", "coordinates": [ 36.3163476606, 32.2880111111 ] } },
{ "type": "Feature", "properties": { "OBJECTID_1": 207, "TYPE": "Office", "HEALTH_TYP": "Camp Facility", "OPERATOR": null, "IS_CONSTRU": null, "DISTRICT": 3, "NAME_EN": "Parking Lot", "NAME_AR": "Ù…ÙˆÙ‚Ù  Ø³ÙŠØ§Ø±Ø§Øª", "HOURS_EN": null, "HOURS_AR": null, "HEALTH_EN": null, "HEALTH_AR": null, "EMERGENCY": null, "REPRODUCTI": null, "MALNUTRITI": null, "VACCINATIO": null, "ACUTE_COND": null, "ORT": null, "GBV": null, "DENTIST": null, "PSYCHOTHER": null, "SECONDARY": null, "PHYSIOTHER": null }, "geometry": { "type": "Point", "coordinates": [ 36.328626564, 32.3018076634 ] } },
{ "type": "Feature", "properties": { "OBJECTID_1": 208, "TYPE": "Health", "HEALTH_TYP": "Healthcare Facility", "OPERATOR": null, "IS_CONSTRU": "Y", "DISTRICT": 12, "NAME_EN": "AMR Health Clinic", "NAME_AR": "Ø§Ù„Ø¹ÙŠØ§Ø¯Ù‡ Ø§Ù„ÙƒÙˆÙŠØªÙŠØ¹", "HOURS_EN": null, "HOURS_AR": null, "HEALTH_EN": null, "HEALTH_AR": null, "EMERGENCY": null, "REPRODUCTI": null, "MALNUTRITI": null, "VACCINATIO": null, "ACUTE_COND": null, "ORT": null, "GBV": null, "DENTIST": null, "PSYCHOTHER": null, "SECONDARY": null, "PHYSIOTHER": null }, "geometry": { "type": "Point", "coordinates": [ 36.3127842946, 32.2924624114 ] } },
{ "type": "Feature", "properties": { "OBJECTID_1": 209, "TYPE": "Warehouse", "HEALTH_TYP": "Camp Facility", "OPERATOR": "JEN", "IS_CONSTRU": "Y", "DISTRICT": 11, "NAME_EN": "JEN Warehouse", "NAME_AR": "Ù…Ø³ØªÙˆØ¯Ø¹ JEN", "HOURS_EN": null, "HOURS_AR": null, "HEALTH_EN": null, "HEALTH_AR": null, "EMERGENCY": null, "REPRODUCTI": null, "MALNUTRITI": null, "VACCINATIO": null, "ACUTE_COND": null, "ORT": null, "GBV": null, "DENTIST": null, "PSYCHOTHER": null, "SECONDARY": null, "PHYSIOTHER": null }, "geometry": { "type": "Point", "coordinates": [ 36.3182308634, 32.2872325643 ] } }
]
}
