{
"type": "FeatureCollection",
"name": "mosques",
"crs": { "type": "name", "properties": { "name": "urn:ogc:def:crs:OGC:1.3:CRS84" } },
"features": [
{ "type": "Feature", "properties": { "DISTRICT": 12, "BLOCK": 1, "NAME_EN": "Albir", "NAME_AR": "Ø§Ù„Ø¨Ø±" }, "geometry": { "type": "Point", "coordinates": [ 36.3131202061, 32.2962342427 ] } },
{ "type": "Feature", "properties": { "DISTRICT": 12, "BLOCK": 3, "NAME_EN": "Makiyon1", "NAME_AR": "Ù…ÙƒÙŠÙˆÙ† Ù¡" }, "geometry": { "type": "Point", "coordinates": [ 36.3120318115, 32.2953001198 ] } },
{ "type": "Feature", "properties": { "DISTRICT": 12, "BLOCK": 2, "NAME_EN": "Alhabeeb almostafa", "NAME_AR": "Ø§Ù„Ø­Ø¨ÙŠØ¨ Ø§Ù„Ù…ØµØ·ÙÙ‰" }, "geometry": { "type": "Point", "coordinates": [ 36.3143477559, 32.2957116928 ] } },
{ "type": "Feature", "properties": { "DISTRICT": 12, "BLOCK": 3, "NAME_EN": "Ja'far altayar", "NAME_AR": "Ø¬Ø¹ÙØ± Ø§Ù„Ø·ÙŠØ§Ø±" }, "geometry": { "type": "Point", "coordinates": [ 36.3176533899, 32.2943536213 ] } },
{ "type": "Feature", "properties": { "DISTRICT": 12, "BLOCK": 3, "NAME_EN": "Almouna", "NAME_AR": "Ø§Ù„Ù…Ù†Ù‰" }, "geometry": { "type": "Point", "coordinates": [ 36.3164081848, 32.295003782 ] } },
{ "type": "Feature", "properties": { "DISTRICT": 12, "BLOCK": 6, "NAME_EN": "Sa'eed bin alousayab", "NAME_AR": "Ø³Ø¹ÙŠØ¯ Ø¨Ù† Ø§Ù„Ù…Ø³ÙŠØ¨" }, "geometry": { "type": "Point", "coordinates": [ 36.3133651437, 32.2933882677 ] } },
{ "type": "Feature", "properties": { "DISTRICT": 8, "BLOCK": 23, "NAME_EN": "Alzobayr bin awam", "NAME_AR": "Ø§Ù„Ø²Ø¨ÙŠØ± Ø¨Ù† Ø¹ÙˆØ§Ù…" }, "geometry": { "type": "Point", "coordinates": [ 36.3354960027, 32.2823754955 ] } },
{ "type": "Feature", "properties": { "DISTRICT": 12, "BLOCK": 10, "NAME_EN": "Hamza bin abdelmoutaleb", "NAME_AR": "Ø­Ù…Ø²Ø© Ø¨Ù† Ø¹Ø¨Ø¯Ø§Ù„Ù…Ø·Ù„Ø¨" }, "geometry": { "type": "Point", "coordinates": [ 36.3155399802, 32.2910245055 ] } },
{ "type": "Feature", "properties": { "DISTRICT": 8, "BLOCK": 24, "NAME_EN": "Shohada alghota", "NAME_AR": "Ø´Ù‡Ø¯Ø§Ø¡ Ø§Ù„ØºÙˆØ·Ø©" }, "geometry": { "type": "Point", "coordinates": [ 36.3383286836, 32.2814597261 ] } },
{ "type": "Feature", "properties": { "DISTRICT": 8, "BLOCK": 20, "NAME_EN": "Alqa'qa bin amro altamimi", "NAME_AR": "Ø§Ù„Ù‚Ø¹Ù‚Ø§Ø¹ Ø¨Ù† Ø¹Ù…Ø±Ùˆ Ø§Ù„ØªÙ…ÙŠÙ…ÙŠ" }, "geometry": { "type": "Point", "coordinates": [ 36.3374745728, 32.2832682607 ] } },
{ "type": "Feature", "properties": { "DISTRICT": 8, "BLOCK": 8, "NAME_EN": "Alda'wa", "NAME_AR": "Ø§Ù„Ø¯Ø¹ÙˆØ©" }, "geometry": { "type": "Point", "coordinates": [ 36.3386411807, 32.2866032343 ] } },
{ "type": "Feature", "properties": { "DISTRICT": 8, "BLOCK": 14, "NAME_EN": "A'l askar", "NAME_AR": "Ø§Ù„ Ø¹Ø³ÙƒØ±" }, "geometry": { "type": "Point", "coordinates": [ 36.3405462575, 32.283842612 ] } },
{ "type": "Feature", "properties": { "DISTRICT": 8, "BLOCK": 2, "NAME_EN": "Ahl alsoneh", "NAME_AR": "Ø§Ù‡Ù„ Ø§Ù„Ø³Ù†Ø©" }, "geometry": { "type": "Point", "coordinates": [ 36.3390810419, 32.2881551991 ] } },
{ "type": "Feature", "properties": { "DISTRICT": 7, "BLOCK": 14, "NAME_EN": "Khozayma bin thabet alansari", "NAME_AR": "Ø®Ø²ÙŠÙ…Ø© Ø¨Ù† Ø«Ø§Ø¨Øª Ø§Ù„Ø§Ù†ØµØ§Ø±ÙŠ" }, "geometry": { "type": "Point", "coordinates": [ 36.3427362074, 32.2914541414 ] } },
{ "type": "Feature", "properties": { "DISTRICT": 7, "BLOCK": 1, "NAME_EN": "Ibn katheer aldemashqe", "NAME_AR": "Ø§Ø¨Ù† ÙƒØ«ÙŠØ± Ø§Ù„Ø¯Ù…Ø´Ù‚ÙŠ" }, "geometry": { "type": "Point", "coordinates": [ 36.3374259848, 32.2897721365 ] } },
{ "type": "Feature", "properties": { "DISTRICT": 7, "BLOCK": 6, "NAME_EN": "Amro bin ala's", "NAME_AR": "Ø¹Ù…Ø±Ùˆ Ø¨Ù† Ø§Ù„Ø¹Ø§Øµ" }, "geometry": { "type": "Point", "coordinates": [ 36.3408469241, 32.2897108365 ] } },
{ "type": "Feature", "properties": { "DISTRICT": 7, "BLOCK": 18, "NAME_EN": "Ahl alsham", "NAME_AR": "Ø§Ù‡Ù„ Ø§Ù„Ø´Ø§Ù…" }, "geometry": { "type": "Point", "coordinates": [ 36.3412453637, 32.2935254262 ] } },
{ "type": "Feature", "properties": { "DISTRICT": 7, "BLOCK": 13, "NAME_EN": "Anas bin malek", "NAME_AR": "Ø§Ù†Ø³ Ø¨Ù† Ù…Ø§Ù„Ùƒ" }, "geometry": { "type": "Point", "coordinates": [ 36.3401056111, 32.2926640806 ] } },
{ "type": "Feature", "properties": { "DISTRICT": 7, "BLOCK": 21, "NAME_EN": "Altaqwa", "NAME_AR": "Ø§Ù„ØªÙ‚ÙˆÙ‰" }, "geometry": { "type": "Point", "coordinates": [ 36.3386131806, 32.2953495423 ] } },
{ "type": "Feature", "properties": { "DISTRICT": 7, "BLOCK": 23, "NAME_EN": "Aliman bellah", "NAME_AR": "Ø§Ù„Ø§ÙŠÙ…Ø§Ù† Ø¨Ø§Ù„Ù„Ù‡" }, "geometry": { "type": "Point", "coordinates": [ 36.3399955069, 32.2963455691 ] } },
{ "type": "Feature", "properties": { "DISTRICT": 6, "BLOCK": 18, "NAME_EN": "Sayed bin thabet", "NAME_AR": "Ø²ÙŠØ¯ Ø¨Ù† Ø«Ø§Ø¨Øª" }, "geometry": { "type": "Point", "coordinates": [ 36.334679435, 32.2903167811 ] } },
{ "type": "Feature", "properties": { "DISTRICT": 6, "BLOCK": 14, "NAME_EN": "Alsahabah", "NAME_AR": "Ø§Ù„ØµØ­Ø§Ø¨Ù‡" }, "geometry": { "type": "Point", "coordinates": [ 36.3353134891, 32.2916570082 ] } },
{ "type": "Feature", "properties": { "DISTRICT": 6, "BLOCK": 9, "NAME_EN": "Alwalden", "NAME_AR": "Ø§Ù„ÙˆØ§Ù„Ø¯ÙŠÙ†" }, "geometry": { "type": "Point", "coordinates": [ 36.3346312575, 32.2946249362 ] } },
{ "type": "Feature", "properties": { "DISTRICT": 6, "BLOCK": 15, "NAME_EN": "Aisha bint abi baker", "NAME_AR": "Ø¹Ø§Ø¦Ø´Ø© Ø¨Ù†Øª Ø§Ø¨ÙŠ Ø¨ÙƒØ±" }, "geometry": { "type": "Point", "coordinates": [ 36.3328667919, 32.2924037314 ] } },
{ "type": "Feature", "properties": { "DISTRICT": 5, "BLOCK": 4, "NAME_EN": "Moa'oya bn abi sofian", "NAME_AR": "Ù…Ø¹Ø§ÙˆÙŠØ© Ø¨Ù† Ø§Ø¨ÙŠ Ø³ÙÙŠØ§Ù†" }, "geometry": { "type": "Point", "coordinates": [ 36.3328030327, 32.2986309645 ] } },
{ "type": "Feature", "properties": { "DISTRICT": 6, "BLOCK": 3, "NAME_EN": "Alrayan", "NAME_AR": "Ø§Ù„Ø±ÙŠØ§Ù†" }, "geometry": { "type": "Point", "coordinates": [ 36.3338300735, 32.2973760882 ] } },
{ "type": "Feature", "properties": { "DISTRICT": 5, "BLOCK": 20, "NAME_EN": "Abdallah Ben almobarak", "NAME_AR": "Ø¹Ø¨Ø¯Ø§Ù„Ù„Ù‡ Ø¨Ù† Ø§Ù„Ù…Ø¨Ø§Ø±Ùƒ" }, "geometry": { "type": "Point", "coordinates": [ 36.3295005926, 32.2949266688 ] } },
{ "type": "Feature", "properties": { "DISTRICT": 5, "BLOCK": 14, "NAME_EN": "Alomari Alkabeer", "NAME_AR": "Ø¬Ø§Ù…Ø¹ Ø§Ù„Ø¹Ù…Ø±ÙŠ Ø§Ù„ÙƒØ¨ÙŠØ±" }, "geometry": { "type": "Point", "coordinates": [ 36.3320464406, 32.2958950679 ] } },
{ "type": "Feature", "properties": { "DISTRICT": 5, "BLOCK": 1, "NAME_EN": "Alislah", "NAME_AR": "Ø§Ù„Ø§ØµÙ„Ø§Ø­" }, "geometry": { "type": "Point", "coordinates": [ 36.3296328394, 32.2999937823 ] } },
{ "type": "Feature", "properties": { "DISTRICT": 5, "BLOCK": 9, "NAME_EN": "Almohamadi Alkabeer", "NAME_AR": "Ø§Ù„Ø¬Ø§Ù…Ø¹ Ø§Ù„Ù…Ø­Ù…Ø¯ÙŠ Ø§Ù„ÙƒØ¨ÙŠØ±" }, "geometry": { "type": "Point", "coordinates": [ 36.3296782118, 32.2975990308 ] } },
{ "type": "Feature", "properties": { "DISTRICT": 11, "BLOCK": 16, "NAME_EN": "Alemam moslem", "NAME_AR": "Ù…Ø³Ø¬Ø¯ Ø§Ù„Ø§Ù…Ø§Ù… Ù…Ø³Ù„Ù…" }, "geometry": { "type": "Point", "coordinates": [ 36.3216187045, 32.2869153718 ] } },
{ "type": "Feature", "properties": { "DISTRICT": 11, "BLOCK": 11, "NAME_EN": "Khadeja bnt khoiled", "NAME_AR": "Ø®Ø¯ÙŠØ¬Ù‡ Ø¨Ù†Øª Ø®ÙˆÙŠÙ„Ø¯" }, "geometry": { "type": "Point", "coordinates": [ 36.3176630661, 32.2896839928 ] } },
{ "type": "Feature", "properties": { "DISTRICT": 11, "BLOCK": 9, "NAME_EN": "Abo baker alsadeq", "NAME_AR": "Ø§Ø¨Ùˆ Ø¨ÙƒØ± Ø§Ù„ØµØ¯ÙŠÙ‚" }, "geometry": { "type": "Point", "coordinates": [ 36.31941896, 32.2910374595 ] } },
{ "type": "Feature", "properties": { "DISTRICT": 11, "BLOCK": 8, "NAME_EN": "Mosa'b beb omair", "NAME_AR": "Ù…ØµØ¹Ø¨ Ø¨Ù† Ø¹Ù…ÙŠØ±" }, "geometry": { "type": "Point", "coordinates": [ 36.3218234296, 32.2906959841 ] } },
{ "type": "Feature", "properties": { "DISTRICT": 11, "BLOCK": 5, "NAME_EN": "Jaafar beb abi taleb", "NAME_AR": "Ø¬Ø¹ÙØ± Ø¨Ù† Ø§Ø¨ÙŠ Ø·Ø§Ù„Ø¨" }, "geometry": { "type": "Point", "coordinates": [ 36.3199298679, 32.2922444211 ] } },
{ "type": "Feature", "properties": { "DISTRICT": 11, "BLOCK": 5, "NAME_EN": "Ali bin abi taleb", "NAME_AR": "Ø¹Ù„ÙŠ Ø¨Ù† Ø§Ø¨ÙŠ Ø·Ø§Ù„Ø¨" }, "geometry": { "type": "Point", "coordinates": [ 36.3176650805, 32.2929125712 ] } },
{ "type": "Feature", "properties": { "DISTRICT": 11, "BLOCK": 1, "NAME_EN": "Belal alhabashi", "NAME_AR": "Ø¨Ù„Ø§Ù„ Ø§Ù„Ø­Ø¨Ø´ÙŠ" }, "geometry": { "type": "Point", "coordinates": [ 36.3213164847, 32.2938699322 ] } },
{ "type": "Feature", "properties": { "DISTRICT": 11, "BLOCK": 4, "NAME_EN": "Alhoda", "NAME_AR": "Ø§Ù„Ù‡Ø¯Ù‰" }, "geometry": { "type": "Point", "coordinates": [ 36.3239670696, 32.2928290852 ] } },
{ "type": "Feature", "properties": { "DISTRICT": 10, "BLOCK": 2, "NAME_EN": "Alforqan", "NAME_AR": "Ø§Ù„ÙØ±Ù‚Ø§Ù†" }, "geometry": { "type": "Point", "coordinates": [ 36.3278246426, 32.2920899922 ] } },
{ "type": "Feature", "properties": { "DISTRICT": 10, "BLOCK": 4, "NAME_EN": "Othman bin afan", "NAME_AR": "Ø¹Ø«Ù…Ø§Ù† Ø¨Ù† Ø¹ÙØ§Ù†" }, "geometry": { "type": "Point", "coordinates": [ 36.3298755475, 32.2909358407 ] } },
{ "type": "Feature", "properties": { "DISTRICT": 10, "BLOCK": 5, "NAME_EN": "Omar almokhtar", "NAME_AR": "Ø¹Ù…Ø± Ø§Ù„Ù…Ø®ØªØ§Ø±" }, "geometry": { "type": "Point", "coordinates": [ 36.3266773108, 32.2901927236 ] } },
{ "type": "Feature", "properties": { "DISTRICT": 10, "BLOCK": 7, "NAME_EN": "Harmala bin alwaled", "NAME_AR": "Ø­Ø±Ù…Ù„Ù‡ Ø¨Ù† Ø§Ù„ÙˆÙ„ÙŠØ¯" }, "geometry": { "type": "Point", "coordinates": [ 36.3242090402, 32.290640233 ] } },
{ "type": "Feature", "properties": { "DISTRICT": 10, "BLOCK": 8, "NAME_EN": "Abi baker alsadeq", "NAME_AR": "Ø§Ø¨ÙŠ Ø¨ÙƒØ± Ø§Ù„ØµØ¯ÙŠÙ‚" }, "geometry": { "type": "Point", "coordinates": [ 36.3276540576, 32.2885498581 ] } },
{ "type": "Feature", "properties": { "DISTRICT": 10, "BLOCK": 12, "NAME_EN": "Ibn alqaim", "NAME_AR": "Ø§Ø¨Ù† Ø§Ù„Ù‚ÙŠÙ…" }, "geometry": { "type": "Point", "coordinates": [ 36.3256957706, 32.2873442369 ] } },
{ "type": "Feature", "properties": { "DISTRICT": 10, "BLOCK": 11, "NAME_EN": "Abo baker alsadeq", "NAME_AR": "Ø§Ø¨Ùˆ Ø¨ÙƒØ± Ø§Ù„ØµØ¯ÙŠÙ‚" }, "geometry": { "type": "Point", "coordinates": [ 36.322935005, 32.2879468734 ] } },
{ "type": "Feature", "properties": { "DISTRICT": 10, "BLOCK": 16, "NAME_EN": "Alkuaiti", "NAME_AR": "Ø§Ù„ÙƒÙˆÙŠØªÙŠ" }, "geometry": { "type": "Point", "coordinates": [ 36.3256688572, 32.2849019009 ] } },
{ "type": "Feature", "properties": { "DISTRICT": 9, "BLOCK": 15, "NAME_EN": "Aisha om almomanin", "NAME_AR": "Ø§Ù„Ø³ÙŠØ¯Ù‡ Ø¹Ø§Ø¦Ø´Ù‡ Ø§Ù… Ø§Ù„Ù…Ø¤Ù…Ù†ÙŠÙ†" }, "geometry": { "type": "Point", "coordinates": [ 36.3278084999, 32.2851852821 ] } },
{ "type": "Feature", "properties": { "DISTRICT": 9, "BLOCK": 11, "NAME_EN": "Omar bin alkhatab", "NAME_AR": "Ø¹Ù…Ø± Ø¨Ù† Ø§Ù„Ø®Ø·Ø§Ø¨" }, "geometry": { "type": "Point", "coordinates": [ 36.329281293, 32.2858203541 ] } },
{ "type": "Feature", "properties": { "DISTRICT": 9, "BLOCK": 12, "NAME_EN": "Alemam moslem bin alhajaj", "NAME_AR": "Ø§Ù„Ø§Ù…Ø§Ù… Ù…Ø³Ù„Ù… Ø¨Ù† Ø§Ù„Ø­Ø¬Ø§Ø¬" }, "geometry": { "type": "Point", "coordinates": [ 36.3317823706, 32.2850756731 ] } },
{ "type": "Feature", "properties": { "DISTRICT": 9, "BLOCK": 9, "NAME_EN": null, "NAME_AR": "Ù„Ø§ ÙŠÙˆØ¬Ø¯" }, "geometry": { "type": "Point", "coordinates": [ 36.3290710161, 32.288067698 ] } },
{ "type": "Feature", "properties": { "DISTRICT": 9, "BLOCK": 5, "NAME_EN": "Kaled bin alwaled", "NAME_AR": "Ø®Ø§Ù„Ø¯ Ø¨Ù† Ø§Ù„ÙˆÙ„ÙŠØ¯" }, "geometry": { "type": "Point", "coordinates": [ 36.3297589337, 32.2891206982 ] } },
{ "type": "Feature", "properties": { "DISTRICT": 9, "BLOCK": 6, "NAME_EN": "Om salama", "NAME_AR": "Ø§Ù… Ø³Ù„Ù…Ù‡" }, "geometry": { "type": "Point", "coordinates": [ 36.3328473684, 32.2890004396 ] } },
{ "type": "Feature", "properties": { "DISTRICT": 3, "BLOCK": 1, "NAME_EN": "Shohadaa alghota", "NAME_AR": "Ù…Ø³Ø¬Ø¯ Ø´Ù‡Ø¯Ø§Ø¡ Ø§Ù„ØºÙˆØ·Ù‡" }, "geometry": { "type": "Point", "coordinates": [ 36.3250484411, 32.3015516205 ] } },
{ "type": "Feature", "properties": { "DISTRICT": 3, "BLOCK": 5, "NAME_EN": "Almohajeren o alansar", "NAME_AR": "Ù…Ø³Ø¬Ø¯ Ø§Ù„Ù…Ù‡Ø§Ø¬Ø±ÙŠÙ† ÙˆØ§Ù„Ø§Ù†ØµØ§Ø±" }, "geometry": { "type": "Point", "coordinates": [ 36.3227938105, 32.3011055594 ] } },
{ "type": "Feature", "properties": { "DISTRICT": 3, "BLOCK": 12, "NAME_EN": "Khaled Ben alwaled", "NAME_AR": "Ø®Ø§Ù„Ø¯ Ø¨Ù† Ø§Ù„ÙˆÙ„ÙŠØ¯" }, "geometry": { "type": "Point", "coordinates": [ 36.3250772214, 32.2983038849 ] } },
{ "type": "Feature", "properties": { "DISTRICT": 3, "BLOCK": 6, "NAME_EN": "Salah Alden alayobi", "NAME_AR": "ØµÙ„Ø§Ø­ Ø§Ù„Ø¯ÙŠÙ† Ø§Ù„Ø§ÙŠÙˆØ¨ÙŠ" }, "geometry": { "type": "Point", "coordinates": [ 36.3257905814, 32.3002497913 ] } },
{ "type": "Feature", "properties": { "DISTRICT": 3, "BLOCK": 4, "NAME_EN": "Alkuiti", "NAME_AR": "Ø§Ù„ÙƒÙˆÙŠØªÙŠ" }, "geometry": { "type": "Point", "coordinates": [ 36.3276694695, 32.30016846 ] } },
{ "type": "Feature", "properties": { "DISTRICT": 4, "BLOCK": 6, "NAME_EN": "Ammar bn yaser", "NAME_AR": "Ø¹Ù…Ø§Ø± Ø¨Ù† ÙŠØ§Ø³Ø±" }, "geometry": { "type": "Point", "coordinates": [ 36.3265264316, 32.2958673626 ] } },
{ "type": "Feature", "properties": { "DISTRICT": 4, "BLOCK": 10, "NAME_EN": "Alemam ballah", "NAME_AR": "Ø§Ù„Ø§ÙŠÙ…Ø§Ù† Ø¨Ø§Ù„Ù„Ù‡" }, "geometry": { "type": "Point", "coordinates": [ 36.3236427395, 32.2956151604 ] } },
{ "type": "Feature", "properties": { "DISTRICT": 4, "BLOCK": 11, "NAME_EN": "Alfaroq", "NAME_AR": "Ø§Ù„ÙØ§Ø±ÙˆÙ‚" }, "geometry": { "type": "Point", "coordinates": [ 36.3212945815, 32.2959320406 ] } },
{ "type": "Feature", "properties": { "DISTRICT": 4, "BLOCK": 13, "NAME_EN": "Altawhed", "NAME_AR": "Ø§Ù„ØªÙˆØ­ÙŠØ¯" }, "geometry": { "type": "Point", "coordinates": [ 36.3189962109, 32.2958739584 ] } },
{ "type": "Feature", "properties": { "DISTRICT": 4, "BLOCK": 11, "NAME_EN": "Almoqdad bn alaswad", "NAME_AR": "Ø§Ù„Ù…Ù‚Ø¯Ø§Ø¯ Ø¨Ù† Ø§Ù„Ø§Ø³ÙˆØ¯" }, "geometry": { "type": "Point", "coordinates": [ 36.3205406391, 32.296584591 ] } },
{ "type": "Feature", "properties": { "DISTRICT": 4, "BLOCK": 7, "NAME_EN": "Moaath bn jabal", "NAME_AR": "Ù…Ø¹Ø§Ø° Ø¨Ù† Ø¬Ø¨Ù„" }, "geometry": { "type": "Point", "coordinates": [ 36.3224088247, 32.2967054342 ] } },
{ "type": "Feature", "properties": { "DISTRICT": 4, "BLOCK": 5, "NAME_EN": "Alsadiq alamen", "NAME_AR": "Ø§Ù„ØµØ§Ø¯Ù‚ Ø§Ù„Ø§Ù…ÙŠÙ†" }, "geometry": { "type": "Point", "coordinates": [ 36.3211771017, 32.2977148487 ] } },
{ "type": "Feature", "properties": { "DISTRICT": 4, "BLOCK": 1, "NAME_EN": "Anas bn malek", "NAME_AR": "Ø§Ù†Ø³ Ø¨Ù† Ù…Ø§Ù„Ùƒ" }, "geometry": { "type": "Point", "coordinates": [ 36.3236883001, 32.2977721913 ] } },
{ "type": "Feature", "properties": { "DISTRICT": 2, "BLOCK": 9, "NAME_EN": "Altaqwa", "NAME_AR": "Ø§Ù„ØªÙ‚ÙˆÙ‰" }, "geometry": { "type": "Point", "coordinates": [ 36.3142869123, 32.2967394868 ] } },
{ "type": "Feature", "properties": { "DISTRICT": 2, "BLOCK": 5, "NAME_EN": "Abo baker alsadeq", "NAME_AR": "Ø§Ø¨Ùˆ Ø¨ÙƒØ± Ø§Ù„ØµØ¯ÙŠÙ‚" }, "geometry": { "type": "Point", "coordinates": [ 36.3184692031, 32.2980461042 ] } },
{ "type": "Feature", "properties": { "DISTRICT": 2, "BLOCK": 2, "NAME_EN": "Alomari", "NAME_AR": "Ø§Ù„Ø¹Ù…Ø±ÙŠ" }, "geometry": { "type": "Point", "coordinates": [ 36.3144987183, 32.2994316644 ] } },
{ "type": "Feature", "properties": { "DISTRICT": 2, "BLOCK": 3, "NAME_EN": "Khadeja", "NAME_AR": "Ø®Ø¯ÙŠØ¬Ù‡" }, "geometry": { "type": "Point", "coordinates": [ 36.3166434211, 32.2990737659 ] } },
{ "type": "Feature", "properties": { "DISTRICT": 1, "BLOCK": 10, "NAME_EN": "Rohmaa baynahom", "NAME_AR": "Ø±Ø­Ù…Ø§Ø¡ Ø¨ÙŠÙ†Ù‡Ù…" }, "geometry": { "type": "Point", "coordinates": [ 36.316709414, 32.3007468529 ] } },
{ "type": "Feature", "properties": { "DISTRICT": 2, "BLOCK": 1, "NAME_EN": "Alkravan", "NAME_AR": "Ø§Ù„ÙƒØ±ÙØ§Ù†Ù‡" }, "geometry": { "type": "Point", "coordinates": [ 36.3200422489, 32.2997226974 ] } },
{ "type": "Feature", "properties": { "DISTRICT": 1, "BLOCK": 6, "NAME_EN": "Abd alrhman bn awf", "NAME_AR": "Ø¹Ø¨Ø¯ Ø§Ù„Ø±Ø­Ù…Ù† Ø¨Ù† Ø¹ÙˆÙ" }, "geometry": { "type": "Point", "coordinates": [ 36.3161895737, 32.3022749574 ] } },
{ "type": "Feature", "properties": { "DISTRICT": 1, "BLOCK": 3, "NAME_EN": "Alsalam", "NAME_AR": "Ø§Ù„Ø³Ù„Ø§Ù…" }, "geometry": { "type": "Point", "coordinates": [ 36.3192176672, 32.3031766113 ] } },
{ "type": "Feature", "properties": { "DISTRICT": 1, "BLOCK": 6, "NAME_EN": "Zaatari kaber", "NAME_AR": "Ù…Ø³Ø¬Ø¯ Ø§Ù„Ø²Ø¹ØªØ±ÙŠ Ø§Ù„ÙƒØ¨ÙŠØ±" }, "geometry": { "type": "Point", "coordinates": [ 36.3195720353, 32.3018934358 ] } },
{ "type": "Feature", "properties": { "DISTRICT": 1, "BLOCK": 8, "NAME_EN": "Alfaroq", "NAME_AR": "Ø§Ù„ÙØ§Ø±ÙˆÙ‚" }, "geometry": { "type": "Point", "coordinates": [ 36.3170582886, 32.3014321788 ] } },
{ "type": "Feature", "properties": { "DISTRICT": 8, "BLOCK": 11, "NAME_EN": null, "NAME_AR": null }, "geometry": { "type": "Point", "coordinates": [ 36.3347544214, 32.2865091665 ] } }
]
}
